;FLAVOR:Marlin
;TIME:557
;Filament used: 0.13886m
;Layer height: 0.16
;MINX:0
;MINY:0
;MINZ:0.2
;MAXX:129.18
;MAXY:129.18
;MAXZ:9.16
;TARGET_MACHINE.NAME:Creality Ender-3
;Generated with Cura_SteamEngine 5.9.0
M140 S65
M105
M190 S65
M104 S200
M105
M109 S200
M82 ;absolute extrusion mode
; Ender 3 Custom Start G-code
G92 E0 ; Reset Extruder
G28 ; Home all axes
G29 ;CRTouch
G1 Z2.0 F3000 ; Move Z Axis up little to prevent scratching of Heat Bed
G1 X0.1 Y20 Z0.3 F5000.0 ; Move to start position
G1 X0.1 Y200.0 Z0.3 F1500.0 E15 ; Draw the first line
G1 X0.4 Y200.0 Z0.3 F5000.0 ; Move to side a little
G1 X0.4 Y20 Z0.3 F1500.0 E30 ; Draw the second line
G92 E0 ; Reset Extruder
G1 Z2.0 F3000 ; Move Z Axis up little to prevent scratching of Heat Bed
G1 X5 Y20 Z0.3 F5000.0 ; Move over to prevent blob squish
G92 E0
G92 E0
G1 F2700 E-5.5
;LAYER_COUNT:57
;LAYER:0
M107
G0 F6000 X123.722 Y128.992 Z0.2
;TYPE:SKIRT
G1 F2700 E0
G1 F1200 X122.771 Y129.143 E0.03843
G1 X122.338 Y129.167 E0.05574
G1 X121.604 Y129.18 E0.08504
G1 X113.506 Y129.179 E0.40825
G1 X112.606 Y129.164 E0.44418
G1 X111.961 Y129.115 E0.46999
G1 X111.03 Y128.928 E0.50789
G1 X110.197 Y128.64 E0.54307
G1 X109.48 Y128.29 E0.57492
G1 X109.058 Y128.028 E0.59474
G1 X108.69 Y127.776 E0.61254
G1 X108.09 Y127.302 E0.64306
G1 X107.472 Y126.677 E0.67814
G1 X107.038 Y126.119 E0.70636
G1 X106.555 Y125.312 E0.74389
G1 X106.272 Y124.668 E0.77197
G1 X106.029 Y123.881 E0.80484
G1 X105.873 Y122.982 E0.84126
G1 X105.841 Y122.521 E0.8597
G1 X105.823 Y121.861 E0.88606
G1 X105.82 Y113.577 E1.21669
G1 X105.836 Y112.607 E1.25541
G1 X105.885 Y111.962 E1.28123
G1 X106.088 Y110.97 E1.32164
G1 X106.337 Y110.249 E1.35208
G1 X106.691 Y109.519 E1.38446
G1 X107.096 Y108.877 E1.41476
G1 X107.59 Y108.237 E1.44703
G1 X108.132 Y107.684 E1.47793
G1 X109.16 Y106.903 E1.52946
G1 X109.88 Y106.504 E1.56231
G1 X110.751 Y106.153 E1.5998
G1 X111.376 Y105.985 E1.62563
G1 X112.665 Y105.833 E1.67743
G1 X113.37 Y105.82 E1.70557
G1 X121.418 Y105.82 E2.02678
G1 X122.394 Y105.836 E2.06574
G1 X123.04 Y105.885 E2.0916
G1 X124.031 Y106.088 E2.13198
G1 X124.752 Y106.338 E2.16243
G1 X125.54 Y106.723 E2.19744
G1 X126.207 Y107.155 E2.22915
G1 X126.807 Y107.629 E2.25967
G1 X127.349 Y108.168 E2.29018
G1 X127.926 Y108.913 E2.32779
G1 X128.335 Y109.61 E2.36005
G1 X128.596 Y110.188 E2.38536
G1 X128.737 Y110.552 E2.40094
G1 X128.99 Y111.373 E2.43523
G1 X129.132 Y112.181 E2.46797
G1 X129.177 Y112.93 E2.49792
G1 X129.18 Y121.381 E2.83522
G1 X129.166 Y122.331 E2.87314
G1 X129.091 Y123.212 E2.90843
G1 X128.963 Y123.846 E2.93424
G1 X128.644 Y124.799 E2.97435
G1 X128.338 Y125.429 E3.00231
G1 X127.897 Y126.132 E3.03543
G1 X127.397 Y126.777 E3.068
G1 X126.76 Y127.412 E3.1039
G1 X126.029 Y127.974 E3.1407
G1 X125.104 Y128.505 E3.18327
G1 X124.345 Y128.815 E3.21599
G1 X123.722 Y128.992 E3.24184
G0 F6000 X123.591 Y128.53
G1 F1200 X122.744 Y128.664 E3.27607
G1 X122.329 Y128.687 E3.29266
G1 X121.604 Y128.7 E3.3216
G1 X113.514 Y128.699 E3.64449
G1 X112.642 Y128.685 E3.67929
G1 X111.997 Y128.636 E3.70511
G1 X111.126 Y128.458 E3.74059
G1 X110.406 Y128.208 E3.77101
G1 X109.733 Y127.882 E3.80086
G1 X109.329 Y127.632 E3.81982
G1 X108.988 Y127.399 E3.83631
G1 X108.388 Y126.925 E3.86682
G1 X107.851 Y126.382 E3.8973
G1 X107.417 Y125.824 E3.92552
G1 X106.994 Y125.117 E3.9584
G1 X106.731 Y124.526 E3.98422
G1 X106.488 Y123.739 E4.01709
G1 X106.352 Y122.948 E4.04913
G1 X106.321 Y122.508 E4.06673
G1 X106.303 Y121.861 E4.09257
G1 X106.3 Y113.585 E4.42288
G1 X106.315 Y112.643 E4.46048
G1 X106.364 Y111.998 E4.4863
G1 X106.542 Y111.127 E4.52178
G1 X106.791 Y110.406 E4.55223
G1 X107.097 Y109.775 E4.58021
G1 X107.502 Y109.133 E4.61051
G1 X107.933 Y108.573 E4.63872
G1 X108.475 Y108.02 E4.66962
G1 X109.393 Y107.323 E4.71562
G1 X110.113 Y106.924 E4.74848
G1 X110.876 Y106.617 E4.7813
G1 X111.501 Y106.449 E4.80713
G1 X112.674 Y106.313 E4.85426
G1 X113.379 Y106.3 E4.88241
G1 X121.41 Y106.3 E5.20294
G1 X122.358 Y106.315 E5.24078
G1 X123.004 Y106.364 E5.26664
G1 X123.874 Y106.542 E5.30208
G1 X124.595 Y106.792 E5.33254
G1 X125.28 Y107.127 E5.36298
G1 X125.909 Y107.532 E5.39283
G1 X126.509 Y108.006 E5.42335
G1 X127.009 Y108.507 E5.4516
G1 X127.513 Y109.157 E5.48443
G1 X127.898 Y109.808 E5.51462
G1 X128.149 Y110.363 E5.53893
G1 X128.279 Y110.696 E5.5532
G1 X128.518 Y111.458 E5.58507
G1 X128.653 Y112.21 E5.61556
G1 X128.697 Y112.93 E5.64435
G1 X128.7 Y121.374 E5.98137
G1 X128.686 Y122.324 E6.01929
G1 X128.62 Y123.117 E6.05105
G1 X128.492 Y123.751 E6.07687
G1 X128.211 Y124.591 E6.11222
G1 X127.931 Y125.174 E6.13803
G1 X127.49 Y125.877 E6.17116
G1 X127.057 Y126.438 E6.19944
G1 X126.467 Y127.031 E6.23283
G1 X125.736 Y127.593 E6.26963
G1 X124.921 Y128.061 E6.30714
G1 X124.214 Y128.353 E6.33767
G1 X123.591 Y128.53 E6.36352
G0 F6000 X123.46 Y128.068
G1 F1200 X122.717 Y128.185 E6.39354
G1 X122.32 Y128.207 E6.40941
G1 X121.604 Y128.22 E6.43799
G1 X113.521 Y128.219 E6.7606
G1 X112.678 Y128.206 E6.79425
G1 X112.033 Y128.157 E6.82007
G1 X111.281 Y128.004 E6.8507
G1 X110.614 Y127.776 E6.87883
G1 X109.985 Y127.473 E6.9067
G1 X109.599 Y127.235 E6.92479
G1 X109.284 Y127.021 E6.93999
G1 X108.728 Y126.586 E6.96817
G1 X108.23 Y126.087 E6.99631
G1 X107.796 Y125.529 E7.02452
G1 X107.433 Y124.922 E7.05275
G1 X107.17 Y124.331 E7.07857
G1 X106.947 Y123.599 E7.10911
G1 X106.831 Y122.914 E7.13684
G1 X106.801 Y122.494 E7.15364
G1 X106.783 Y121.861 E7.17892
G1 X106.78 Y113.592 E7.50895
G1 X106.794 Y112.679 E7.5454
G1 X106.843 Y112.034 E7.57121
G1 X106.996 Y111.282 E7.60184
G1 X107.224 Y110.614 E7.63001
G1 X107.504 Y110.03 E7.65586
G1 X107.884 Y109.424 E7.68441
G1 X108.276 Y108.909 E7.71024
G1 X108.818 Y108.356 E7.74115
G1 X109.626 Y107.743 E7.78163
G1 X110.346 Y107.344 E7.81448
G1 X111.001 Y107.081 E7.84265
G1 X111.626 Y106.913 E7.86848
G1 X112.683 Y106.793 E7.91094
G1 X113.388 Y106.78 E7.93909
G1 X121.403 Y106.78 E8.25898
G1 X122.322 Y106.794 E8.29566
G1 X122.968 Y106.843 E8.32152
G1 X123.719 Y106.996 E8.35211
G1 X124.386 Y107.224 E8.38025
G1 X125.021 Y107.531 E8.4084
G1 X125.613 Y107.91 E8.43645
G1 X126.169 Y108.345 E8.46463
G1 X126.669 Y108.846 E8.49288
G1 X127.101 Y109.403 E8.52101
G1 X127.461 Y110.006 E8.54904
G1 X127.702 Y110.538 E8.57235
G1 X127.832 Y110.871 E8.58662
G1 X128.046 Y111.545 E8.61484
G1 X128.174 Y112.24 E8.64305
G1 X128.217 Y112.93 E8.67064
G1 X128.22 Y121.367 E9.00738
G1 X128.206 Y122.317 E9.0453
G1 X128.149 Y123.022 E9.07353
G1 X128.021 Y123.656 E9.09935
G1 X127.778 Y124.383 E9.12994
G1 X127.498 Y124.966 E9.15575
G1 X127.108 Y125.586 E9.18499
G1 X126.715 Y126.101 E9.21084
G1 X126.174 Y126.65 E9.24161
G1 X125.443 Y127.212 E9.27841
G1 X124.736 Y127.618 E9.31095
G1 X124.083 Y127.891 E9.3392
G1 X123.46 Y128.068 E9.36505
G0 F6000 X123.329 Y127.606
G1 F1200 X122.69 Y127.706 E9.39086
G1 X122.311 Y127.727 E9.40601
G1 X121.604 Y127.74 E9.43423
G1 X113.528 Y127.739 E9.75656
G1 X112.714 Y127.727 E9.78906
G1 X112.069 Y127.678 E9.81487
G1 X111.434 Y127.549 E9.84074
G1 X110.821 Y127.343 E9.86655
G1 X110.237 Y127.064 E9.89238
G1 X109.851 Y126.826 E9.91048
G1 X109.578 Y126.641 E9.92364
G1 X109.066 Y126.245 E9.94947
G1 X108.607 Y125.79 E9.97527
G1 X108.207 Y125.281 E10.00111
G1 X107.872 Y124.727 E10.02695
G1 X107.609 Y124.136 E10.05276
G1 X107.42 Y123.517 E10.0786
G1 X107.31 Y122.879 E10.10444
G1 X107.281 Y122.48 E10.1204
G1 X107.263 Y121.861 E10.14512
G1 X107.26 Y113.599 E10.47487
G1 X107.273 Y112.715 E10.51016
G1 X107.322 Y112.07 E10.53598
G1 X107.451 Y111.435 E10.56184
G1 X107.657 Y110.822 E10.58765
G1 X107.937 Y110.238 E10.6135
G1 X108.266 Y109.715 E10.63816
G1 X108.658 Y109.2 E10.66399
G1 X109.11 Y108.737 E10.68982
G1 X109.86 Y108.162 E10.72754
G1 X110.527 Y107.789 E10.75804
G1 X111.126 Y107.545 E10.78385
G1 X111.751 Y107.377 E10.80968
G1 X112.692 Y107.273 E10.84747
G1 X113.397 Y107.26 E10.87561
G1 X121.396 Y107.26 E11.19487
G1 X122.286 Y107.273 E11.23039
G1 X122.932 Y107.322 E11.25625
G1 X123.566 Y107.451 E11.28207
G1 X124.179 Y107.657 E11.30788
G1 X124.763 Y107.936 E11.33372
G1 X125.319 Y108.29 E11.36002
G1 X125.831 Y108.686 E11.38586
G1 X126.291 Y109.142 E11.41171
G1 X126.69 Y109.651 E11.43752
G1 X127.024 Y110.205 E11.46334
G1 X127.255 Y110.713 E11.48561
G1 X127.375 Y111.019 E11.49873
G1 X127.574 Y111.635 E11.52457
G1 X127.695 Y112.271 E11.55041
G1 X127.737 Y112.93 E11.57677
G1 X127.74 Y121.36 E11.91323
G1 X127.727 Y122.281 E11.94999
G1 X127.678 Y122.927 E11.97585
G1 X127.55 Y123.561 E12.00166
G1 X127.345 Y124.175 E12.0275
G1 X127.065 Y124.758 E12.05331
G1 X126.726 Y125.295 E12.07866
G1 X126.333 Y125.81 E12.10451
G1 X125.88 Y126.271 E12.13031
G1 X125.202 Y126.797 E12.16456
G1 X124.548 Y127.176 E12.19473
G1 X123.952 Y127.429 E12.22057
G1 X123.329 Y127.606 E12.24642
G1 F2700 E6.74642
;MESH:C??ble chargeur.stl
G0 F6000 X121.939 Y123.028
G0 X121.939 Y121.939
G0 X117.501 Y121.453
G0 X117.5 Y122.12
;TYPE:WALL-OUTER
G1 F2700 E12.24642
G1 F600 X122.074 Y122.12 E12.42898
G1 X122.12 Y122.086 E12.43126
G1 X122.12 Y112.922 E12.79701
G1 X122.086 Y112.876 E12.7993
G1 X112.913 Y112.876 E13.16541
G1 X112.872 Y112.955 E13.16896
G1 X112.88 Y122.08 E13.53316
G1 X112.907 Y122.12 E13.53509
G1 X117.5 Y122.12 E13.7184
G0 F6000 X117.5 Y121.64
;TYPE:WALL-INNER
G1 F600 X121.64 Y121.64 E13.88364
G1 X121.64 Y113.356 E14.21427
G1 X113.353 Y113.356 E14.54503
G1 X113.36 Y121.64 E14.87566
G1 X117.5 Y121.64 E15.04089
G0 F6000 X117.5 Y121.16
G1 F600 X121.16 Y121.16 E15.18697
G1 X121.16 Y113.836 E15.47929
G1 X113.833 Y113.836 E15.77173
G1 X113.84 Y121.16 E16.06404
G1 X117.5 Y121.16 E16.21012
G0 F6000 X117.5 Y120.68
G1 F600 X120.68 Y120.68 E16.33704
G1 X120.68 Y114.316 E16.59104
G1 X114.314 Y114.316 E16.84512
G1 X114.319 Y120.68 E17.09912
G1 X117.5 Y120.68 E17.22609
G0 F6000 X117.5 Y120.24
;TYPE:SKIN
G1 F600 X120.239 Y120.24 E17.3354
G1 X120.239 Y114.756 E17.55428
G1 X114.753 Y114.756 E17.77324
G1 X114.756 Y120.24 E17.99212
G1 X117.5 Y120.24 E18.10164
G0 F6000 X117.5 Y120.54
G0 X120.468 Y120.468
G0 X120.54 Y115.248
G0 X120 Y115.248
G1 F600 X119.748 Y114.996 E18.11586
G0 F6000 X119.069 Y114.996
G1 F600 X120 Y115.927 E18.16841
G0 F6000 X120 Y116.605
G1 F600 X118.39 Y114.996 E18.25926
G0 F6000 X117.711 Y114.996
G1 F600 X120 Y117.284 E18.38843
G0 F6000 X120 Y117.963
G1 F600 X117.033 Y114.996 E18.5559
G0 F6000 X116.354 Y114.996
G1 F600 X120 Y118.642 E18.7617
G0 F6000 X120 Y119.321
G1 F600 X115.675 Y114.996 E19.00582
G0 F6000 X114.996 Y114.996
G1 F600 X120 Y120 E19.28827
G0 F6000 X119.321 Y120
G1 F600 X114.993 Y115.672 E19.53256
G0 F6000 X114.994 Y116.352
G1 F600 X118.642 Y120 E19.73847
G0 F6000 X117.963 Y120
G1 F600 X114.994 Y117.03 E19.90608
G0 F6000 X114.995 Y117.71
G1 F600 X117.284 Y120 E20.03531
G0 F6000 X116.605 Y120
G1 F600 X114.995 Y118.389 E20.12621
G0 F6000 X114.995 Y119.068
G1 F600 X115.927 Y120 E20.17882
G0 F6000 X115.248 Y120
G1 F600 X114.995 Y119.747 E20.1931
G0 F6000 X114.078 Y119.747
G1 F2700 E14.6931
;MESH:NONMESH
G0 F300 X114.078 Y119.747 Z0.36
G0 F6000 X114.531 Y120.468
G0 X121.939 Y121.939
G0 X121.939 Y123.028
G0 X123.329 Y127.606
;TIME_ELAPSED:43.049191
;LAYER:1
M140 S60
M106 S85
;TYPE:SKIRT
G1 F2700 E20.1931
G1 F1200 X122.69 Y127.706 E20.21031
G1 X122.311 Y127.727 E20.22041
G1 X121.604 Y127.74 E20.23922
G1 X113.528 Y127.739 E20.45411
G1 X112.714 Y127.727 E20.47577
G1 X112.069 Y127.678 E20.49298
G1 X111.434 Y127.549 E20.51022
G1 X110.821 Y127.343 E20.52743
G1 X110.237 Y127.064 E20.54465
G1 X109.851 Y126.826 E20.55672
G1 X109.578 Y126.641 E20.56549
G1 X109.066 Y126.245 E20.58272
G1 X108.607 Y125.79 E20.59991
G1 X108.207 Y125.281 E20.61714
G1 X107.872 Y124.727 E20.63436
G1 X107.609 Y124.136 E20.65158
G1 X107.42 Y123.517 E20.6688
G1 X107.31 Y122.879 E20.68602
G1 X107.281 Y122.48 E20.69667
G1 X107.263 Y121.861 E20.71315
G1 X107.26 Y113.599 E20.93298
G1 X107.273 Y112.715 E20.95651
G1 X107.322 Y112.07 E20.97372
G1 X107.451 Y111.435 E20.99096
G1 X107.657 Y110.822 E21.00817
G1 X107.937 Y110.238 E21.0254
G1 X108.266 Y109.715 E21.04184
G1 X108.658 Y109.2 E21.05906
G1 X109.11 Y108.737 E21.07628
G1 X109.86 Y108.162 E21.10142
G1 X110.527 Y107.789 E21.12176
G1 X111.126 Y107.545 E21.13897
G1 X111.751 Y107.377 E21.15619
G1 X112.692 Y107.273 E21.18138
G1 X113.397 Y107.26 E21.20014
G1 X121.396 Y107.26 E21.41298
G1 X122.286 Y107.273 E21.43666
G1 X122.932 Y107.322 E21.4539
G1 X123.566 Y107.451 E21.47112
G1 X124.179 Y107.657 E21.48832
G1 X124.763 Y107.936 E21.50554
G1 X125.319 Y108.29 E21.52308
G1 X125.831 Y108.686 E21.54031
G1 X126.291 Y109.142 E21.55754
G1 X126.69 Y109.651 E21.57475
G1 X127.024 Y110.205 E21.59196
G1 X127.255 Y110.713 E21.60681
G1 X127.375 Y111.019 E21.61556
G1 X127.574 Y111.635 E21.63278
G1 X127.695 Y112.271 E21.65001
G1 X127.737 Y112.93 E21.66758
G1 X127.74 Y121.36 E21.89188
G1 X127.727 Y122.281 E21.91639
G1 X127.678 Y122.927 E21.93363
G1 X127.55 Y123.561 E21.95084
G1 X127.345 Y124.175 E21.96806
G1 X127.065 Y124.758 E21.98527
G1 X126.726 Y125.295 E22.00217
G1 X126.333 Y125.81 E22.01941
G1 X125.88 Y126.271 E22.03661
G1 X125.202 Y126.797 E22.05944
G1 X124.548 Y127.176 E22.07955
G1 X123.952 Y127.429 E22.09678
G1 X123.329 Y127.606 E22.11401
G1 F2700 E16.61401
;MESH:C??ble chargeur.stl
G0 F7500 X122.05 Y123.142
G0 X122.05 Y122.061
G0 X117.5 Y121.567
G0 X117.5 Y122.275
;TYPE:WALL-OUTER
G1 F2700 E22.11401
G1 F600 X122.132 Y122.275 E22.23726
G1 X122.218 Y122.224 E22.23992
G1 X122.276 Y122.117 E22.24316
G1 X122.276 Y112.867 E22.48928
G1 X122.223 Y112.777 E22.49206
G1 X122.12 Y112.72 E22.4952
G1 X112.867 Y112.72 E22.7414
G1 X112.72 Y112.833 E22.74633
G1 X112.72 Y122.118 E22.99339
G1 X112.777 Y122.224 E22.99659
G1 X112.856 Y122.276 E22.99911
G1 X117.5 Y122.275 E23.12268
G0 F7500 X117.5 Y121.876
;TYPE:WALL-INNER
G1 F600 X121.876 Y121.876 E23.23911
G1 X121.876 Y113.12 E23.47209
G1 X113.12 Y113.12 E23.70508
G1 X113.12 Y121.876 E23.93806
G1 X117.5 Y121.876 E24.0546
G0 F7500 X117.5 Y121.476
G1 F600 X121.476 Y121.476 E24.16039
G1 X121.476 Y113.52 E24.37209
G1 X113.52 Y113.52 E24.58378
G1 X113.52 Y121.476 E24.79548
G1 X117.5 Y121.476 E24.90138
G0 F7500 X117.5 Y121.076
G1 F600 X121.076 Y121.076 E24.99653
G1 X121.076 Y113.92 E25.18693
G1 X113.92 Y113.92 E25.37734
G1 X113.92 Y121.076 E25.56775
G1 X117.5 Y121.076 E25.66301
G0 F7500 X117.5 Y120.716
;TYPE:SKIN
G1 F600 X120.716 Y120.716 E25.74858
G1 X120.716 Y114.28 E25.91983
G1 X114.28 Y114.28 E26.09108
G1 X114.28 Y120.716 E26.26233
G1 X117.5 Y120.716 E26.34801
G0 F7500 X117.5 Y120.976
G0 X114.092 Y120.904
G0 X114.02 Y114.623
G0 X114.48 Y114.623
G1 F600 X114.623 Y114.48 E26.35339
G0 F7500 X115.188 Y114.48
G1 F600 X114.48 Y115.188 E26.38003
G0 F7500 X114.48 Y115.754
G1 F600 X115.754 Y114.48 E26.42797
G0 F7500 X116.32 Y114.48
G1 F600 X114.48 Y116.32 E26.49721
G0 F7500 X114.48 Y116.885
G1 F600 X116.885 Y114.48 E26.58771
G0 F7500 X117.451 Y114.48
G1 F600 X114.48 Y117.451 E26.6995
G0 F7500 X114.48 Y118.017
G1 F600 X118.017 Y114.48 E26.8326
G0 F7500 X118.583 Y114.48
G1 F600 X114.48 Y118.583 E26.98699
G0 F7500 X114.48 Y119.148
G1 F600 X119.148 Y114.48 E27.16265
G0 F7500 X119.714 Y114.48
G1 F600 X114.48 Y119.714 E27.3596
G0 F7500 X114.48 Y120.28
G1 F600 X120.28 Y114.48 E27.57785
G0 F7500 X120.516 Y114.809
G1 F600 X114.809 Y120.516 E27.7926
G0 F7500 X115.375 Y120.516
G1 F600 X120.516 Y115.375 E27.98606
G0 F7500 X120.516 Y115.941
G1 F600 X115.941 Y120.516 E28.15821
G0 F7500 X116.506 Y120.516
G1 F600 X120.516 Y116.506 E28.30911
G0 F7500 X120.516 Y117.072
G1 F600 X117.072 Y120.516 E28.4387
G0 F7500 X117.638 Y120.516
G1 F600 X120.516 Y117.638 E28.547
G0 F7500 X120.516 Y118.204
G1 F600 X118.204 Y120.516 E28.634
G0 F7500 X118.769 Y120.516
G1 F600 X120.516 Y118.769 E28.69974
G0 F7500 X120.516 Y119.335
G1 F600 X119.335 Y120.516 E28.74418
G0 F7500 X119.901 Y120.516
G1 F600 X120.516 Y119.901 E28.76732
G0 F7500 X121.268 Y119.9
G1 F2700 E23.26732
;MESH:NONMESH
G0 F300 X121.268 Y119.9 Z0.52
G0 F7500 X122.056 Y122.051
G0 X122.056 Y123.142
G0 X123.329 Y127.606
;TIME_ELAPSED:75.111040
;LAYER:2
M106 S170
;TYPE:SKIRT
G1 F2700 E28.76732
G1 F1200 X122.69 Y127.706 E28.78453
G1 X122.311 Y127.727 E28.79463
G1 X121.604 Y127.74 E28.81345
G1 X113.528 Y127.739 E29.02833
G1 X112.714 Y127.727 E29.05
G1 X112.069 Y127.678 E29.06721
G1 X111.434 Y127.549 E29.08445
G1 X110.821 Y127.343 E29.10166
G1 X110.237 Y127.064 E29.11888
G1 X109.851 Y126.826 E29.13094
G1 X109.578 Y126.641 E29.13972
G1 X109.066 Y126.245 E29.15694
G1 X108.607 Y125.79 E29.17414
G1 X108.207 Y125.281 E29.19136
G1 X107.872 Y124.727 E29.20859
G1 X107.609 Y124.136 E29.2258
G1 X107.42 Y123.517 E29.24302
G1 X107.31 Y122.879 E29.26025
G1 X107.281 Y122.48 E29.27089
G1 X107.263 Y121.861 E29.28737
G1 X107.26 Y113.599 E29.50721
G1 X107.273 Y112.715 E29.53073
G1 X107.322 Y112.07 E29.54794
G1 X107.451 Y111.435 E29.56518
G1 X107.657 Y110.822 E29.58239
G1 X107.937 Y110.238 E29.59962
G1 X108.266 Y109.715 E29.61606
G1 X108.658 Y109.2 E29.63329
G1 X109.11 Y108.737 E29.6505
G1 X109.86 Y108.162 E29.67565
G1 X110.527 Y107.789 E29.69598
G1 X111.126 Y107.545 E29.71319
G1 X111.751 Y107.377 E29.73041
G1 X112.692 Y107.273 E29.7556
G1 X113.397 Y107.26 E29.77437
G1 X121.396 Y107.26 E29.9872
G1 X122.286 Y107.273 E30.01089
G1 X122.932 Y107.322 E30.02813
G1 X123.566 Y107.451 E30.04534
G1 X124.179 Y107.657 E30.06255
G1 X124.763 Y107.936 E30.07977
G1 X125.319 Y108.29 E30.09731
G1 X125.831 Y108.686 E30.11453
G1 X126.291 Y109.142 E30.13176
G1 X126.69 Y109.651 E30.14897
G1 X127.024 Y110.205 E30.16619
G1 X127.255 Y110.713 E30.18103
G1 X127.375 Y111.019 E30.18978
G1 X127.574 Y111.635 E30.207
G1 X127.695 Y112.271 E30.22423
G1 X127.737 Y112.93 E30.2418
G1 X127.74 Y121.36 E30.46611
G1 X127.727 Y122.281 E30.49062
G1 X127.678 Y122.927 E30.50785
G1 X127.55 Y123.561 E30.52506
G1 X127.345 Y124.175 E30.54229
G1 X127.065 Y124.758 E30.5595
G1 X126.726 Y125.295 E30.57639
G1 X126.333 Y125.81 E30.59363
G1 X125.88 Y126.271 E30.61083
G1 X125.202 Y126.797 E30.63366
G1 X124.548 Y127.176 E30.65377
G1 X123.952 Y127.429 E30.671
G1 X123.329 Y127.606 E30.68824
G1 F2700 E25.18824
;MESH:C??ble chargeur.stl
G0 F9000 X122.264 Y123.145
G0 X122.058 Y122.071
G0 X117.5 Y121.59
G0 X117.5 Y122.3
;TYPE:WALL-OUTER
G1 F2700 E30.68824
G1 F600 X122.078 Y122.3 E30.81005
G1 X122.236 Y122.238 E30.81456
G1 X122.3 Y122.073 E30.81927
G1 X122.3 Y112.922 E31.06276
G1 X122.238 Y112.76 E31.06738
G1 X122.076 Y112.7 E31.07198
G1 X112.919 Y112.7 E31.31563
G1 X112.761 Y112.757 E31.3201
G1 X112.7 Y112.921 E31.32475
G1 X112.7 Y122.144 E31.57016
G1 X112.76 Y122.235 E31.57306
G1 X112.923 Y122.3 E31.57773
G1 X117.5 Y122.3 E31.69951
G0 F9000 X117.5 Y121.9
;TYPE:WALL-INNER
G1 F600 X121.9 Y121.9 E31.81659
G1 X121.9 Y113.1 E32.05074
G1 X113.1 Y113.1 E32.28489
G1 X113.1 Y121.9 E32.51904
G1 X117.5 Y121.9 E32.63612
G0 F9000 X117.5 Y121.5
G1 F600 X121.5 Y121.5 E32.74255
G1 X121.5 Y113.5 E32.95542
G1 X113.5 Y113.5 E33.16828
G1 X113.5 Y121.5 E33.38115
G1 X117.5 Y121.5 E33.48758
G0 F9000 X117.5 Y121.1
G1 F600 X121.1 Y121.1 E33.58337
G1 X121.1 Y113.9 E33.77495
G1 X113.9 Y113.9 E33.96652
G1 X113.9 Y121.1 E34.1581
G1 X117.5 Y121.1 E34.25389
G0 F9000 X117.5 Y120.74
;TYPE:SKIN
G1 F600 X120.74 Y120.74 E34.3401
G1 X120.74 Y114.26 E34.51252
G1 X114.26 Y114.26 E34.68494
G1 X114.26 Y120.74 E34.85736
G1 X117.5 Y120.74 E34.94357
G0 F9000 X117.5 Y121
G0 X120.928 Y120.928
G0 X121 Y114.883
G0 X120.54 Y114.883
G1 F600 X120.117 Y114.46 E34.95949
G0 F9000 X119.551 Y114.46
G1 F600 X120.54 Y115.449 E34.99671
G0 F9000 X120.54 Y116.014
G1 F600 X118.986 Y114.46 E35.05518
G0 F9000 X118.42 Y114.46
G1 F600 X120.54 Y116.58 E35.13496
G0 F9000 X120.54 Y117.146
G1 F600 X117.854 Y114.46 E35.23603
G0 F9000 X117.289 Y114.46
G1 F600 X120.54 Y117.711 E35.35836
G0 F9000 X120.54 Y118.277
G1 F600 X116.723 Y114.46 E35.502
G0 F9000 X116.157 Y114.46
G1 F600 X120.54 Y118.843 E35.66693
G0 F9000 X120.54 Y119.408
G1 F600 X115.591 Y114.46 E35.85314
G0 F9000 X115.026 Y114.46
G1 F600 X120.54 Y119.974 E36.06063
G0 F9000 X120.54 Y120.54
G1 F600 X114.46 Y114.46 E36.28941
G0 F9000 X114.46 Y115.026
G1 F600 X119.974 Y120.54 E36.4969
G0 F9000 X119.408 Y120.54
G1 F600 X114.46 Y115.591 E36.68311
G0 F9000 X114.46 Y116.157
G1 F600 X118.843 Y120.54 E36.84804
G0 F9000 X118.277 Y120.54
G1 F600 X114.46 Y116.723 E36.99167
G0 F9000 X114.46 Y117.289
G1 F600 X117.711 Y120.54 E37.11401
G0 F9000 X117.146 Y120.54
G1 F600 X114.46 Y117.854 E37.21508
G0 F9000 X114.46 Y118.42
G1 F600 X116.58 Y120.54 E37.29486
G0 F9000 X116.014 Y120.54
G1 F600 X114.46 Y118.986 E37.35333
G0 F9000 X114.46 Y119.551
G1 F600 X115.449 Y120.54 E37.39055
G0 F9000 X114.883 Y120.54
G1 F600 X114.46 Y120.117 E37.40646
G0 F9000 X113.711 Y120.118
G1 F2700 E31.90646
;MESH:NONMESH
G0 F300 X113.711 Y120.118 Z0.68
G0 F9000 X114.072 Y120.928
G0 X117.5 Y121.59
G0 X117.5 Y122.297
;TIME_ELAPSED:107.422829
;LAYER:3
M106 S255
;TYPE:WALL-OUTER
;MESH:C??ble chargeur.stl
G1 F2700 E37.40646
G1 F600 X122.075 Y122.299 E37.5282
G1 X122.224 Y122.243 E37.53243
G1 X122.296 Y122.103 E37.53662
G1 X122.299 Y112.921 E37.78094
G1 X122.242 Y112.771 E37.78521
G1 X122.103 Y112.701 E37.78935
G1 X112.919 Y112.7 E38.03372
G1 X112.771 Y112.754 E38.03791
G1 X112.7 Y112.892 E38.04204
G1 X112.7 Y122.105 E38.28718
G1 X112.762 Y122.231 E38.29091
G1 X112.89 Y122.295 E38.29472
G1 X117.5 Y122.297 E38.41739
G0 F9000 X117.5 Y121.897
;TYPE:WALL-INNER
G1 F600 X121.896 Y121.899 E38.53436
G1 X121.898 Y113.101 E38.76845
G1 X113.1 Y113.1 E39.00255
G1 X113.1 Y121.894 E39.23654
G1 X117.5 Y121.897 E39.35362
G0 F9000 X117.5 Y121.497
G1 F600 X121.496 Y121.499 E39.45995
G1 X121.498 Y113.501 E39.67276
G1 X113.5 Y113.5 E39.88557
G1 X113.5 Y121.494 E40.09827
G1 X117.5 Y121.497 E40.20471
G0 F9000 X117.5 Y121.097
G1 F600 X121.096 Y121.099 E40.30039
G1 X121.098 Y113.901 E40.49191
G1 X113.9 Y113.9 E40.68344
G1 X113.9 Y121.094 E40.87486
G1 X117.5 Y121.097 E40.97065
G0 F9000 X113.984 Y121.016
;TYPE:FILL
G1 F1200 X121.017 Y113.983 E41.2353
G0 F9000 X121.017 Y121.017
G1 F1200 X113.98 Y113.98 E41.50009
G1 F2700 E36.00009
;MESH:NONMESH
G0 F300 X113.98 Y113.98 Z0.84
G0 F9000 X117.501 Y121.59
G0 X117.5 Y122.3
;TIME_ELAPSED:123.137602
;LAYER:4
;TYPE:WALL-OUTER
;MESH:C??ble chargeur.stl
G1 F2700 E41.50009
G1 F600 X122.075 Y122.3 E41.62183
G1 X122.225 Y122.243 E41.6261
G1 X122.3 Y122.102 E41.63035
G1 X122.3 Y112.921 E41.87464
G1 X122.244 Y112.772 E41.87887
G1 X122.103 Y112.7 E41.88308
G1 X112.918 Y112.7 E42.12748
G1 X112.773 Y112.752 E42.13158
G1 X112.7 Y112.896 E42.13587
G1 X112.7 Y122.104 E42.38088
G1 X112.766 Y122.231 E42.38469
G1 X112.897 Y122.3 E42.38863
G1 X117.5 Y122.3 E42.51111
G0 F9000 X117.5 Y121.9
;TYPE:WALL-INNER
G1 F600 X121.9 Y121.9 E42.62818
G1 X121.9 Y113.1 E42.86233
G1 X113.1 Y113.1 E43.09648
G1 X113.1 Y121.9 E43.33064
G1 X117.5 Y121.9 E43.44771
G0 F9000 X117.5 Y121.5
G1 F600 X121.5 Y121.5 E43.55414
G1 X121.5 Y113.5 E43.76701
G1 X113.5 Y113.5 E43.97987
G1 X113.5 Y121.5 E44.19274
G1 X117.5 Y121.5 E44.29917
G0 F9000 X117.5 Y121.1
G1 F600 X121.1 Y121.1 E44.39496
G1 X121.1 Y113.9 E44.58654
G1 X113.9 Y113.9 E44.77812
G1 X113.9 Y121.1 E44.96969
G1 X117.5 Y121.1 E45.06548
G0 F9000 X121.02 Y121.02
;TYPE:FILL
G1 F1200 X113.98 Y113.98 E45.3304
G0 F9000 X113.98 Y121.02
G1 F1200 X121.02 Y113.98 E45.59531
G1 F2700 E40.09531
;MESH:NONMESH
G0 F300 X121.02 Y113.98 Z1
G0 F9000 X117.5 Y121.59
G0 X117.5 Y122.3
;TIME_ELAPSED:138.856687
;LAYER:5
;TYPE:WALL-OUTER
;MESH:C??ble chargeur.stl
G1 F2700 E45.59531
G1 F600 X122.075 Y122.3 E45.71704
G1 X122.225 Y122.243 E45.72131
G1 X122.3 Y122.102 E45.72556
G1 X122.3 Y112.921 E45.96985
G1 X122.244 Y112.772 E45.97408
G1 X122.103 Y112.7 E45.9783
G1 X112.918 Y112.7 E46.22269
G1 X112.773 Y112.752 E46.22679
G1 X112.7 Y112.896 E46.23109
G1 X112.7 Y122.104 E46.47609
G1 X112.766 Y122.231 E46.4799
G1 X112.897 Y122.3 E46.48384
G1 X117.5 Y122.3 E46.60632
G0 F9000 X117.5 Y121.9
;TYPE:WALL-INNER
G1 F600 X121.9 Y121.9 E46.72339
G1 X121.9 Y113.1 E46.95755
G1 X113.1 Y113.1 E47.1917
G1 X113.1 Y121.9 E47.42585
G1 X117.5 Y121.9 E47.54292
G0 F9000 X117.5 Y121.5
G1 F600 X121.5 Y121.5 E47.64936
G1 X121.5 Y113.5 E47.86222
G1 X113.5 Y113.5 E48.07509
G1 X113.5 Y121.5 E48.28795
G1 X117.5 Y121.5 E48.39438
G0 F9000 X117.5 Y121.1
G1 F600 X121.1 Y121.1 E48.49017
G1 X121.1 Y113.9 E48.68175
G1 X113.9 Y113.9 E48.87333
G1 X113.9 Y121.1 E49.06491
G1 X117.5 Y121.1 E49.1607
G0 F9000 X121.02 Y121.02
;TYPE:FILL
G1 F1200 X113.98 Y113.98 E49.42561
G0 F9000 X113.98 Y121.02
G1 F1200 X121.02 Y113.98 E49.69052
G1 F2700 E44.19052
;MESH:NONMESH
G0 F300 X121.02 Y113.98 Z1.16
G0 F9000 X117.5 Y121.59
G0 X117.5 Y122.3
;TIME_ELAPSED:154.575773
;LAYER:6
;TYPE:WALL-OUTER
;MESH:C??ble chargeur.stl
G1 F2700 E49.69052
G1 F600 X122.075 Y122.3 E49.81225
G1 X122.225 Y122.243 E49.81652
G1 X122.3 Y122.102 E49.82077
G1 X122.3 Y112.921 E50.06506
G1 X122.244 Y112.772 E50.0693
G1 X122.103 Y112.7 E50.07351
G1 X112.918 Y112.7 E50.3179
G1 X112.773 Y112.752 E50.322
G1 X112.7 Y112.896 E50.3263
G1 X112.7 Y122.104 E50.57131
G1 X112.766 Y122.231 E50.57512
G1 X112.897 Y122.3 E50.57905
G1 X117.5 Y122.3 E50.70153
G0 F9000 X117.5 Y121.9
;TYPE:WALL-INNER
G1 F600 X121.9 Y121.9 E50.81861
G1 X121.9 Y113.1 E51.05276
G1 X113.1 Y113.1 E51.28691
G1 X113.1 Y121.9 E51.52106
G1 X117.5 Y121.9 E51.63814
G0 F9000 X117.5 Y121.5
G1 F600 X121.5 Y121.5 E51.74457
G1 X121.5 Y113.5 E51.95743
G1 X113.5 Y113.5 E52.1703
G1 X113.5 Y121.5 E52.38316
G1 X117.5 Y121.5 E52.4896
G0 F9000 X117.5 Y121.1
G1 F600 X121.1 Y121.1 E52.58539
G1 X121.1 Y113.9 E52.77696
G1 X113.9 Y113.9 E52.96854
G1 X113.9 Y121.1 E53.16012
G1 X117.5 Y121.1 E53.25591
G0 F9000 X121.02 Y121.02
;TYPE:FILL
G1 F1200 X113.98 Y113.98 E53.52082
G0 F9000 X113.98 Y121.02
G1 F1200 X121.02 Y113.98 E53.78573
G1 F2700 E48.28573
;MESH:NONMESH
G0 F300 X121.02 Y113.98 Z1.32
G0 F9000 X117.5 Y121.59
G0 X117.5 Y122.3
;TIME_ELAPSED:170.294859
;LAYER:7
;TYPE:WALL-OUTER
;MESH:C??ble chargeur.stl
G1 F2700 E53.78573
G1 F600 X122.075 Y122.3 E53.90747
G1 X122.225 Y122.243 E53.91174
G1 X122.3 Y122.102 E53.91599
G1 X122.3 Y112.921 E54.16027
G1 X122.244 Y112.772 E54.16451
G1 X122.103 Y112.7 E54.16872
G1 X112.918 Y112.7 E54.41312
G1 X112.773 Y112.752 E54.41722
G1 X112.7 Y112.896 E54.42151
G1 X112.7 Y122.104 E54.66652
G1 X112.766 Y122.231 E54.67033
G1 X112.897 Y122.3 E54.67427
G1 X117.5 Y122.3 E54.79675
G0 F9000 X117.5 Y121.9
;TYPE:WALL-INNER
G1 F600 X121.9 Y121.9 E54.91382
G1 X121.9 Y113.1 E55.14797
G1 X113.1 Y113.1 E55.38212
G1 X113.1 Y121.9 E55.61627
G1 X117.5 Y121.9 E55.73335
G0 F9000 X117.5 Y121.5
G1 F600 X121.5 Y121.5 E55.83978
G1 X121.5 Y113.5 E56.05265
G1 X113.5 Y113.5 E56.26551
G1 X113.5 Y121.5 E56.47838
G1 X117.5 Y121.5 E56.58481
G0 F9000 X117.5 Y121.1
G1 F600 X121.1 Y121.1 E56.6806
G1 X121.1 Y113.9 E56.87218
G1 X113.9 Y113.9 E57.06376
G1 X113.9 Y121.1 E57.25533
G1 X117.5 Y121.1 E57.35112
G0 F9000 X121.02 Y121.02
;TYPE:FILL
G1 F1200 X113.98 Y113.98 E57.61604
G0 F9000 X113.98 Y121.02
G1 F1200 X121.02 Y113.98 E57.88095
G1 F2700 E52.38095
;MESH:NONMESH
G0 F300 X121.02 Y113.98 Z1.48
G0 F9000 X117.5 Y121.59
G0 X117.5 Y122.3
;TIME_ELAPSED:186.013945
;LAYER:8
;TYPE:WALL-OUTER
;MESH:C??ble chargeur.stl
G1 F2700 E57.88095
G1 F600 X122.075 Y122.3 E58.00268
G1 X122.225 Y122.243 E58.00695
G1 X122.3 Y122.102 E58.0112
G1 X122.3 Y112.921 E58.25549
G1 X122.244 Y112.772 E58.25972
G1 X122.103 Y112.7 E58.26394
G1 X112.918 Y112.7 E58.50833
G1 X112.773 Y112.752 E58.51243
G1 X112.7 Y112.896 E58.51673
G1 X112.7 Y122.104 E58.76173
G1 X112.766 Y122.231 E58.76554
G1 X112.897 Y122.3 E58.76948
G1 X117.5 Y122.3 E58.89196
G0 F9000 X117.5 Y121.9
;TYPE:WALL-INNER
G1 F600 X121.9 Y121.9 E59.00903
G1 X121.9 Y113.1 E59.24319
G1 X113.1 Y113.1 E59.47734
G1 X113.1 Y121.9 E59.71149
G1 X117.5 Y121.9 E59.82856
G0 F9000 X117.5 Y121.5
G1 F600 X121.5 Y121.5 E59.935
G1 X121.5 Y113.5 E60.14786
G1 X113.5 Y113.5 E60.36073
G1 X113.5 Y121.5 E60.57359
G1 X117.5 Y121.5 E60.68002
G0 F9000 X117.5 Y121.1
G1 F600 X121.1 Y121.1 E60.77581
G1 X121.1 Y113.9 E60.96739
G1 X113.9 Y113.9 E61.15897
G1 X113.9 Y121.1 E61.35055
G1 X117.5 Y121.1 E61.44634
G0 F9000 X121.02 Y121.02
;TYPE:FILL
G1 F1200 X113.98 Y113.98 E61.71125
G0 F9000 X113.98 Y121.02
G1 F1200 X121.02 Y113.98 E61.97616
G1 F2700 E56.47616
;MESH:NONMESH
G0 F300 X121.02 Y113.98 Z1.64
G0 F9000 X117.5 Y121.59
G0 X117.5 Y122.3
;TIME_ELAPSED:201.733030
;LAYER:9
;TYPE:WALL-OUTER
;MESH:C??ble chargeur.stl
G1 F2700 E61.97616
G1 F600 X122.115 Y122.299 E62.09896
G1 X122.252 Y122.215 E62.10323
G1 X122.3 Y122.065 E62.10742
G1 X122.3 Y112.881 E62.35179
G1 X122.216 Y112.745 E62.35605
G1 X122.066 Y112.7 E62.36021
G1 X112.879 Y112.7 E62.60466
G1 X112.745 Y112.78 E62.60881
G1 X112.7 Y112.93 E62.61298
G1 X112.701 Y122.112 E62.8573
G1 X112.779 Y122.251 E62.86154
G1 X112.931 Y122.3 E62.86579
G1 X117.5 Y122.3 E62.98736
G0 F9000 X117.5 Y121.9
;TYPE:WALL-INNER
G1 F600 X121.9 Y121.9 E63.10444
G1 X121.9 Y113.1 E63.33859
G1 X113.1 Y113.1 E63.57274
G1 X113.1 Y121.9 E63.80689
G1 X117.5 Y121.9 E63.92396
G0 F9000 X117.5 Y121.5
G1 F600 X121.5 Y121.5 E64.0304
G1 X121.5 Y113.5 E64.24326
G1 X113.5 Y113.5 E64.45613
G1 X113.5 Y121.5 E64.66899
G1 X117.5 Y121.5 E64.77542
G0 F9000 X117.5 Y121.1
G1 F600 X121.1 Y121.1 E64.87121
G1 X121.1 Y113.9 E65.06279
G1 X113.9 Y113.9 E65.25437
G1 X113.9 Y121.1 E65.44595
G1 X117.5 Y121.1 E65.54174
G0 F9000 X121.02 Y121.02
;TYPE:FILL
G1 F1200 X113.98 Y113.98 E65.80665
G0 F9000 X113.98 Y121.02
G1 F1200 X121.02 Y113.98 E66.07156
G1 F2700 E60.57156
;MESH:NONMESH
G0 F300 X121.02 Y113.98 Z1.8
G0 F9000 X117.5 Y121.59
G0 X117.5 Y122.3
;TIME_ELAPSED:217.452823
;LAYER:10
;TYPE:WALL-OUTER
;MESH:C??ble chargeur.stl
G1 F2700 E66.07156
G1 F600 X122.075 Y122.3 E66.19329
G1 X122.225 Y122.243 E66.19756
G1 X122.3 Y122.102 E66.20181
G1 X122.3 Y112.921 E66.4461
G1 X122.244 Y112.772 E66.45034
G1 X122.103 Y112.7 E66.45455
G1 X112.918 Y112.7 E66.69895
G1 X112.773 Y112.752 E66.70304
G1 X112.7 Y112.896 E66.70734
G1 X112.7 Y122.104 E66.95235
G1 X112.766 Y122.231 E66.95616
G1 X112.897 Y122.3 E66.9601
G1 X117.5 Y122.3 E67.08257
G0 F9000 X117.5 Y121.9
;TYPE:WALL-INNER
G1 F600 X121.9 Y121.9 E67.19965
G1 X121.9 Y113.1 E67.4338
G1 X113.1 Y113.1 E67.66795
G1 X113.1 Y121.9 E67.9021
G1 X117.5 Y121.9 E68.01918
G0 F9000 X117.5 Y121.5
G1 F600 X121.5 Y121.5 E68.12561
G1 X121.5 Y113.5 E68.33848
G1 X113.5 Y113.5 E68.55134
G1 X113.5 Y121.5 E68.76421
G1 X117.5 Y121.5 E68.87064
G0 F9000 X117.5 Y121.1
G1 F600 X121.1 Y121.1 E68.96643
G1 X121.1 Y113.9 E69.15801
G1 X113.9 Y113.9 E69.34958
G1 X113.9 Y121.1 E69.54116
G1 X117.5 Y121.1 E69.63695
G0 F9000 X121.02 Y121.02
;TYPE:FILL
G1 F1200 X113.98 Y113.98 E69.90186
G0 F9000 X113.98 Y121.02
G1 F1200 X121.02 Y113.98 E70.16678
G1 F2700 E64.66678
;MESH:NONMESH
G0 F300 X121.02 Y113.98 Z1.96
G0 F9000 X117.5 Y121.59
G0 X117.5 Y122.3
;TIME_ELAPSED:233.171909
;LAYER:11
;TYPE:WALL-OUTER
;MESH:C??ble chargeur.stl
G1 F2700 E70.16678
G1 F600 X122.075 Y122.3 E70.28851
G1 X122.225 Y122.243 E70.29278
G1 X122.3 Y122.102 E70.29703
G1 X122.3 Y112.921 E70.54132
G1 X122.244 Y112.772 E70.54555
G1 X122.103 Y112.7 E70.54976
G1 X112.918 Y112.7 E70.79416
G1 X112.773 Y112.752 E70.79826
G1 X112.7 Y112.896 E70.80255
G1 X112.7 Y122.104 E71.04756
G1 X112.766 Y122.231 E71.05137
G1 X112.897 Y122.3 E71.05531
G1 X117.5 Y122.3 E71.17779
G0 F9000 X117.5 Y121.9
;TYPE:WALL-INNER
G1 F600 X121.9 Y121.9 E71.29486
G1 X121.9 Y113.1 E71.52901
G1 X113.1 Y113.1 E71.76316
G1 X113.1 Y121.9 E71.99732
G1 X117.5 Y121.9 E72.11439
G0 F9000 X117.5 Y121.5
G1 F600 X121.5 Y121.5 E72.22082
G1 X121.5 Y113.5 E72.43369
G1 X113.5 Y113.5 E72.64655
G1 X113.5 Y121.5 E72.85942
G1 X117.5 Y121.5 E72.96585
G0 F9000 X117.5 Y121.1
G1 F600 X121.1 Y121.1 E73.06164
G1 X121.1 Y113.9 E73.25322
G1 X113.9 Y113.9 E73.4448
G1 X113.9 Y121.1 E73.63637
G1 X117.5 Y121.1 E73.73216
G0 F9000 X121.02 Y121.02
;TYPE:FILL
G1 F1200 X113.98 Y113.98 E73.99708
G0 F9000 X113.98 Y121.02
G1 F1200 X121.02 Y113.98 E74.26199
G1 F2700 E68.76199
;MESH:NONMESH
G0 F300 X121.02 Y113.98 Z2.12
G0 F9000 X117.5 Y121.59
G0 X117.5 Y122.3
;TIME_ELAPSED:248.890995
;LAYER:12
;TYPE:WALL-OUTER
;MESH:C??ble chargeur.stl
G1 F2700 E74.26199
G1 F600 X122.075 Y122.3 E74.38372
G1 X122.225 Y122.243 E74.38799
G1 X122.3 Y122.102 E74.39224
G1 X122.3 Y112.921 E74.63653
G1 X122.244 Y112.772 E74.64076
G1 X122.103 Y112.7 E74.64498
G1 X112.918 Y112.7 E74.88937
G1 X112.773 Y112.752 E74.89347
G1 X112.7 Y112.896 E74.89777
G1 X112.7 Y122.104 E75.14277
G1 X112.766 Y122.231 E75.14658
G1 X112.897 Y122.3 E75.15052
G1 X117.5 Y122.3 E75.273
G0 F9000 X117.5 Y121.9
;TYPE:WALL-INNER
G1 F600 X121.9 Y121.9 E75.39007
G1 X121.9 Y113.1 E75.62423
G1 X113.1 Y113.1 E75.85838
G1 X113.1 Y121.9 E76.09253
G1 X117.5 Y121.9 E76.2096
G0 F9000 X117.5 Y121.5
G1 F600 X121.5 Y121.5 E76.31604
G1 X121.5 Y113.5 E76.5289
G1 X113.5 Y113.5 E76.74177
G1 X113.5 Y121.5 E76.95463
G1 X117.5 Y121.5 E77.06106
G0 F9000 X117.5 Y121.1
G1 F600 X121.1 Y121.1 E77.15685
G1 X121.1 Y113.9 E77.34843
G1 X113.9 Y113.9 E77.54001
G1 X113.9 Y121.1 E77.73159
G1 X117.5 Y121.1 E77.82738
G0 F9000 X121.02 Y121.02
;TYPE:FILL
G1 F1200 X113.98 Y113.98 E78.09229
G0 F9000 X113.98 Y121.02
G1 F1200 X121.02 Y113.98 E78.3572
G1 F2700 E72.8572
;MESH:NONMESH
G0 F300 X121.02 Y113.98 Z2.28
G0 F9000 X117.5 Y121.59
G0 X117.5 Y122.3
;TIME_ELAPSED:264.610080
;LAYER:13
;TYPE:WALL-OUTER
;MESH:C??ble chargeur.stl
G1 F2700 E78.3572
G1 F600 X122.075 Y122.3 E78.47893
G1 X122.225 Y122.243 E78.4832
G1 X122.3 Y122.102 E78.48745
G1 X122.3 Y112.921 E78.73174
G1 X122.244 Y112.772 E78.73598
G1 X122.103 Y112.7 E78.74019
G1 X112.918 Y112.7 E78.98459
G1 X112.773 Y112.752 E78.98868
G1 X112.7 Y112.896 E78.99298
G1 X112.7 Y122.104 E79.23799
G1 X112.766 Y122.231 E79.2418
G1 X112.897 Y122.3 E79.24573
G1 X117.5 Y122.3 E79.36821
G0 F9000 X117.5 Y121.9
;TYPE:WALL-INNER
G1 F600 X121.9 Y121.9 E79.48529
G1 X121.9 Y113.1 E79.71944
G1 X113.1 Y113.1 E79.95359
G1 X113.1 Y121.9 E80.18774
G1 X117.5 Y121.9 E80.30482
G0 F9000 X117.5 Y121.5
G1 F600 X121.5 Y121.5 E80.41125
G1 X121.5 Y113.5 E80.62411
G1 X113.5 Y113.5 E80.83698
G1 X113.5 Y121.5 E81.04984
G1 X117.5 Y121.5 E81.15628
G0 F9000 X117.5 Y121.1
G1 F600 X121.1 Y121.1 E81.25207
G1 X121.1 Y113.9 E81.44364
G1 X113.9 Y113.9 E81.63522
G1 X113.9 Y121.1 E81.8268
G1 X117.5 Y121.1 E81.92259
G0 F9000 X121.02 Y121.02
;TYPE:FILL
G1 F1200 X113.98 Y113.98 E82.1875
G0 F9000 X113.98 Y121.02
G1 F1200 X121.02 Y113.98 E82.45241
G1 F2700 E76.95241
;MESH:NONMESH
G0 F300 X121.02 Y113.98 Z2.44
G0 F9000 X117.5 Y121.59
G0 X117.5 Y122.298
;TIME_ELAPSED:280.329086
;LAYER:14
;TYPE:WALL-OUTER
;MESH:C??ble chargeur.stl
G1 F2700 E82.45241
G1 F600 X122.151 Y122.3 E82.57617
G1 X122.296 Y122.155 E82.58163
G1 X122.299 Y112.846 E82.82932
G1 X122.156 Y112.7 E82.83476
G1 X112.843 Y112.7 E83.08256
G1 X112.7 Y112.84 E83.08788
G1 X112.701 Y122.104 E83.33438
G1 X112.772 Y122.243 E83.33853
G1 X112.901 Y122.296 E83.34225
G1 X117.5 Y122.298 E83.46462
G0 F9000 X117.5 Y121.898
;TYPE:WALL-INNER
G1 F600 X121.896 Y121.899 E83.58159
G1 X121.898 Y113.101 E83.81568
G1 X113.1 Y113.1 E84.04978
G1 X113.101 Y121.896 E84.28383
G1 X117.5 Y121.898 E84.40088
G0 F9000 X117.5 Y121.498
G1 F600 X121.496 Y121.499 E84.5072
G1 X121.498 Y113.501 E84.72001
G1 X113.5 Y113.5 E84.93282
G1 X113.501 Y121.496 E85.14558
G1 X117.5 Y121.498 E85.25199
G0 F9000 X117.5 Y121.098
G1 F600 X121.096 Y121.099 E85.34767
G1 X121.098 Y113.901 E85.5392
G1 X113.9 Y113.9 E85.73072
G1 X113.901 Y121.096 E85.92219
G1 X117.5 Y121.098 E86.01796
G0 F9000 X114.8 Y120.199
;TYPE:FILL
G1 F1200 X120.199 Y114.8 E86.22112
G1 X114.801 Y114.8 E86.36475
G1 X114.8 Y120.199 E86.50841
G1 X114.601 Y120.4 E86.51593
G1 X120.399 Y120.4 E86.67021
G1 X114.8 Y114.801 E86.88089
G1 X114.801 Y114.8
G1 X113.98 Y113.98 E86.91177
G0 F9000 X120.199 Y114.8
G1 F1200 X120.4 Y114.601 E86.9193
G1 X120.4 Y120.399 E87.07357
G1 X121.017 Y121.017 E87.09681
G0 F9000 X120.4 Y120.399
G0 X120.4 Y114.601
G1 F1200 X121.017 Y113.983 E87.12004
G0 F9000 X114.601 Y120.4
G1 F1200 X113.983 Y121.016 E87.14326
G1 F2700 E81.64326
;MESH:NONMESH
G0 F300 X113.983 Y121.016 Z2.6
G0 F9000 X117.501 Y121.59
G0 X117.5 Y122.3
;TIME_ELAPSED:297.739569
;LAYER:15
;TYPE:WALL-OUTER
;MESH:C??ble chargeur.stl
G1 F2700 E87.14326
G1 F600 X122.153 Y122.3 E87.26707
G1 X122.3 Y122.153 E87.2726
G1 X122.3 Y112.921 E87.51824
G1 X122.24 Y112.761 E87.52279
G1 X122.079 Y112.7 E87.52737
G1 X112.839 Y112.7 E87.77323
G1 X112.7 Y112.843 E87.77854
G1 X112.7 Y122.104 E88.02495
G1 X112.772 Y122.246 E88.02919
G1 X112.917 Y122.3 E88.03331
G1 X117.5 Y122.3 E88.15525
G0 F9000 X117.5 Y121.9
;TYPE:WALL-INNER
G1 F600 X121.9 Y121.9 E88.27233
G1 X121.9 Y113.1 E88.50648
G1 X113.1 Y113.1 E88.74063
G1 X113.1 Y121.9 E88.97478
G1 X117.5 Y121.9 E89.09186
G0 F9000 X117.5 Y121.5
G1 F600 X121.5 Y121.5 E89.19829
G1 X121.5 Y113.5 E89.41116
G1 X113.5 Y113.5 E89.62402
G1 X113.5 Y121.5 E89.83689
G1 X117.5 Y121.5 E89.94332
G0 F9000 X117.5 Y121.1
G1 F600 X121.1 Y121.1 E90.03911
G1 X121.1 Y113.9 E90.23069
G1 X113.9 Y113.9 E90.42226
G1 X113.9 Y121.1 E90.61384
G1 X117.5 Y121.1 E90.70963
G0 F9000 X117.5 Y120.74
;TYPE:SKIN
G1 F600 X120.74 Y120.74 E90.79584
G1 X120.74 Y114.26 E90.96826
G1 X114.26 Y114.26 E91.14068
G1 X114.26 Y120.74 E91.3131
G1 X117.5 Y120.74 E91.39931
G0 F9000 X117.5 Y121
G0 X114.072 Y120.928
G0 X114 Y114.643
G0 X114.46 Y114.643
G1 F600 X114.643 Y114.46 E91.4062
G0 F9000 X115.208 Y114.46
G1 F600 X114.46 Y115.208 E91.43435
G0 F9000 X114.46 Y115.774
G1 F600 X115.774 Y114.46 E91.48379
G0 F9000 X116.34 Y114.46
G1 F600 X114.46 Y116.34 E91.55454
G0 F9000 X114.46 Y116.905
G1 F600 X116.905 Y114.46 E91.64654
G0 F9000 X117.471 Y114.46
G1 F600 X114.46 Y117.471 E91.75984
G0 F9000 X114.46 Y118.037
G1 F600 X118.037 Y114.46 E91.89444
G0 F9000 X118.602 Y114.46
G1 F600 X114.46 Y118.602 E92.0503
G0 F9000 X114.46 Y119.168
G1 F600 X119.168 Y114.46 E92.22746
G0 F9000 X119.734 Y114.46
G1 F600 X114.46 Y119.734 E92.42592
G0 F9000 X114.46 Y120.299
G1 F600 X120.299 Y114.46 E92.64564
G0 F9000 X120.54 Y114.785
G1 F600 X114.785 Y120.54 E92.8622
G0 F9000 X115.351 Y120.54
G1 F600 X120.54 Y115.351 E93.05746
G0 F9000 X120.54 Y115.917
G1 F600 X115.917 Y120.54 E93.23142
G0 F9000 X116.482 Y120.54
G1 F600 X120.54 Y116.482 E93.38412
G0 F9000 X120.54 Y117.048
G1 F600 X117.048 Y120.54 E93.51552
G0 F9000 X117.614 Y120.54
G1 F600 X120.54 Y117.614 E93.62563
G0 F9000 X120.54 Y118.179
G1 F600 X118.179 Y120.54 E93.71447
G0 F9000 X118.745 Y120.54
G1 F600 X120.54 Y118.745 E93.78202
G0 F9000 X120.54 Y119.311
G1 F600 X119.311 Y120.54 E93.82826
G0 F9000 X119.877 Y120.54
G1 F600 X120.54 Y119.877 E93.85321
G0 F9000 X120.54 Y120.442
G1 F600 X120.442 Y120.54 E93.8569
G0 F9000 X120.442 Y121.29
G1 F2700 E88.3569
;MESH:NONMESH
G0 F300 X120.442 Y121.29 Z2.76
G0 F9000 X117.5 Y121.59
G0 X117.5 Y122.287
;TIME_ELAPSED:325.601455
;LAYER:16
;TYPE:WALL-OUTER
;MESH:C??ble chargeur.stl
G1 F2700 E93.8569
G1 F600 X122.1 Y122.287 E93.9793
G1 X122.251 Y122.203 E93.98389
G1 X122.288 Y122.101 E93.98678
G1 X122.291 Y112.931 E94.23078
G1 X122.237 Y112.779 E94.23507
G1 X122.135 Y112.708 E94.23838
G1 X112.93 Y112.708 E94.4833
G1 X112.778 Y112.761 E94.48759
G1 X112.708 Y112.861 E94.49084
G1 X112.708 Y122.1 E94.73667
G1 X112.793 Y122.251 E94.74128
G1 X112.898 Y122.288 E94.74424
G1 X117.5 Y122.287 E94.86669
G0 F9000 X117.5 Y121.888
;TYPE:WALL-INNER
G1 F600 X121.888 Y121.888 E94.98345
G1 X121.89 Y113.109 E95.21704
G1 X113.109 Y113.108 E95.45069
G1 X113.109 Y121.888 E95.68431
G1 X117.5 Y121.888 E95.80114
G0 F9000 X117.5 Y121.488
G1 F600 X121.488 Y121.488 E95.90725
G1 X121.49 Y113.509 E96.11956
G1 X113.509 Y113.508 E96.33192
G1 X113.509 Y121.488 E96.54425
G1 X117.5 Y121.488 E96.65045
G0 F9000 X117.5 Y121.088
G1 F600 X121.088 Y121.088 E96.74592
G1 X121.09 Y113.909 E96.93694
G1 X113.909 Y113.908 E97.12801
G1 X113.909 Y121.088 E97.31905
G1 X117.5 Y121.088 E97.4146
G0 F9000 X117.5 Y120.728
;TYPE:SKIN
G1 F600 X120.728 Y120.728 E97.50049
G1 X120.728 Y114.268 E97.67238
G1 X114.268 Y114.268 E97.84427
G1 X114.268 Y120.728 E98.01616
G1 X117.5 Y120.728 E98.10216
G0 F9000 X117.5 Y120.988
G0 X120.916 Y120.916
G0 X120.989 Y114.872
G0 X120.528 Y114.871
G1 F600 X120.125 Y114.468 E98.11732
G0 F9000 X119.559 Y114.468
G1 F600 X120.528 Y115.437 E98.15379
G0 F9000 X120.528 Y116.002
G1 F600 X118.993 Y114.468 E98.21153
G0 F9000 X118.428 Y114.468
G1 F600 X120.528 Y116.568 E98.29055
G0 F9000 X120.528 Y117.134
G1 F600 X117.862 Y114.468 E98.39087
G0 F9000 X117.296 Y114.468
G1 F600 X120.528 Y117.699 E98.51247
G0 F9000 X120.528 Y118.265
G1 F600 X116.731 Y114.468 E98.65535
G0 F9000 X116.165 Y114.468
G1 F600 X120.528 Y118.831 E98.81953
G0 F9000 X120.528 Y119.396
G1 F600 X115.599 Y114.468 E99.00498
G0 F9000 X115.034 Y114.468
G1 F600 X120.528 Y119.962 E99.21172
G0 F9000 X120.528 Y120.528
G1 F600 X114.468 Y114.468 E99.43976
G0 F9000 X114.468 Y115.034
G1 F600 X119.962 Y120.528 E99.64649
G0 F9000 X119.396 Y120.528
G1 F600 X114.468 Y115.599 E99.83195
G0 F9000 X114.468 Y116.165
G1 F600 X118.831 Y120.528 E99.99613
G0 F9000 X118.265 Y120.528
G1 F600 X114.468 Y116.731 E100.13901
G0 F9000 X114.468 Y117.296
G1 F600 X117.699 Y120.528 E100.26061
G0 F9000 X117.134 Y120.528
G1 F600 X114.468 Y117.862 E100.36093
G0 F9000 X114.468 Y118.428
G1 F600 X116.568 Y120.528 E100.43995
G0 F9000 X116.002 Y120.528
G1 F600 X114.468 Y118.993 E100.49769
G0 F9000 X114.468 Y119.559
G1 F600 X115.437 Y120.528 E100.53416
G0 F9000 X114.871 Y120.528
G1 F600 X114.468 Y120.125 E100.54932
G0 F9000 X113.72 Y120.126
G1 F2700 E95.04932
;MESH:NONMESH
G0 F300 X113.72 Y120.126 Z2.92
G0 F9000 X114.081 Y120.916
G0 X117.5 Y121.58
G0 X117.5 Y122.216
;TIME_ELAPSED:353.385059
;LAYER:17
;TYPE:WALL-OUTER
;MESH:C??ble chargeur.stl
G1 F2700 E100.54932
G1 F600 X122.089 Y122.216 E100.67142
G1 X122.216 Y122.134 E100.67545
G1 X122.212 Y112.857 E100.92229
G1 X122.069 Y112.78 E100.92661
G1 X112.907 Y112.784 E101.1704
G1 X112.784 Y112.857 E101.1742
G1 X112.78 Y122.089 E101.41985
G1 X112.862 Y122.216 E101.42387
G1 X117.5 Y122.216 E101.54728
G0 F9000 X117.5 Y121.816
;TYPE:WALL-INNER
G1 F600 X121.815 Y121.816 E101.66209
G1 X121.813 Y113.18 E101.89188
G1 X113.183 Y113.184 E102.12151
G1 X113.181 Y121.816 E102.35119
G1 X117.5 Y121.816 E102.46611
G0 F9000 X117.5 Y121.416
G1 F600 X121.415 Y121.416 E102.57028
G1 X121.413 Y113.58 E102.77878
G1 X113.583 Y113.584 E102.98712
G1 X113.581 Y121.416 E103.19552
G1 X117.5 Y121.416 E103.29979
G0 F9000 X117.5 Y121.016
G1 F600 X121.015 Y121.016 E103.39332
G1 X121.013 Y113.981 E103.58051
G1 X113.983 Y113.984 E103.76756
G1 X113.981 Y121.016 E103.95467
G1 X117.5 Y121.016 E104.04831
G0 F9000 X117.5 Y120.656
;TYPE:SKIN
G1 F600 X120.652 Y120.656 E104.13218
G1 X120.652 Y114.341 E104.30021
G1 X114.34 Y114.344 E104.46816
G1 X114.34 Y120.656 E104.63611
G1 X117.5 Y120.656 E104.72019
G0 F9000 X117.5 Y120.916
G0 X114.153 Y120.844
G0 X114.083 Y115.127
G0 X114.54 Y115.128
G1 F600 X115.125 Y114.544 E104.74218
G0 F9000 X115.69 Y114.544
G1 F600 X114.54 Y115.694 E104.78546
G0 F9000 X114.54 Y116.26
G1 F600 X116.257 Y114.543 E104.85007
G0 F9000 X116.823 Y114.543
G1 F600 X114.54 Y116.825 E104.93596
G0 F9000 X114.54 Y117.391
G1 F600 X117.389 Y114.542 E105.04316
G0 F9000 X117.955 Y114.542
G1 F600 X114.54 Y117.957 E105.17167
G0 F9000 X114.54 Y118.522
G1 F600 X118.521 Y114.541 E105.32147
G0 F9000 X119.087 Y114.541
G1 F600 X114.54 Y119.088 E105.49257
G0 F9000 X114.54 Y119.654
G1 F600 X119.653 Y114.541 E105.68497
G0 F9000 X120.219 Y114.541
G1 F600 X114.54 Y120.219 E105.89865
G0 F9000 X114.869 Y120.456
G1 F600 X120.452 Y114.873 E106.10874
G0 F9000 X120.452 Y115.439
G1 F600 X115.434 Y120.456 E106.29754
G0 F9000 X116 Y120.456
G1 F600 X120.452 Y116.004 E106.46507
G0 F9000 X120.452 Y116.57
G1 F600 X116.566 Y120.456 E106.6113
G0 F9000 X117.132 Y120.456
G1 F600 X120.452 Y117.136 E106.73623
G0 F9000 X120.452 Y117.701
G1 F600 X117.697 Y120.456 E106.8399
G0 F9000 X118.263 Y120.456
G1 F600 X120.452 Y118.267 E106.92227
G0 F9000 X120.452 Y118.833
G1 F600 X118.829 Y120.456 E106.98334
G0 F9000 X119.394 Y120.456
G1 F600 X120.452 Y119.399 E107.02314
G0 F9000 X120.452 Y119.964
G1 F600 X119.96 Y120.456 E107.04165
G0 F9000 X119.961 Y121.208
G1 F2700 E101.54165
;MESH:NONMESH
G0 F300 X119.961 Y121.208 Z3.08
G0 F9000 X114.153 Y120.844
G0 X113.01 Y113.01
G0 X112.44 Y112.057
G0 X0.00 Y0.00
;TIME_ELAPSED:381.796838
;LAYER:18
G0 F300 X0.00 Y0.00 Z3.24
G0 F9000 X118.23 Y118.724
;TIME_ELAPSED:383.258959
;LAYER:19
;note -- min layer time used
;TYPE:WALL-OUTER
;MESH:C??ble chargeur.stl
G1 F2700 E107.04165
G1 F600 X118.416 Y118.629 E107.04721
G1 X118.416 Y116.368 E107.10737
G1 X118.227 Y116.274 E107.11298
G1 X117.588 Y116.237 E107.13002
G1 X116.974 Y116.252 E107.14636
G1 X116.715 Y116.303 E107.15338
G1 X116.584 Y116.371 E107.15731
G1 X116.585 Y118.632 E107.21747
G1 X116.694 Y118.689 E107.22074
G1 X116.976 Y118.748 E107.22841
G1 X117.5 Y118.759 E107.24235
G1 X117.623 Y118.762 E107.24563
G1 X118.23 Y118.724 E107.26181
G0 F9000 X118.016 Y118.337
;TYPE:WALL-INNER
G1 F600 X118.016 Y116.662 E107.30638
G1 X117.564 Y116.637 E107.31842
G1 X116.984 Y116.658 E107.33387
G1 X116.985 Y118.348 E107.37883
G1 X117.5 Y118.361 E107.39254
G1 X117.581 Y118.363 E107.3947
G1 X118.016 Y118.337 E107.40629
G0 F9000 X117.5 Y117.845
G1 F379.7 X117.5 Y117.155 E107.4353
G0 F9000 X117.406 Y117.249
G1 F2700 E101.9353
;MESH:NONMESH
G0 F300 X117.406 Y117.249 Z3.4
G0 F9000 X117.517 Y118.052
G0 X117.5 Y118.796
;TIME_ELAPSED:385.455963
;LAYER:20
;note -- min layer time used
;TYPE:WALL-OUTER
;MESH:C??ble chargeur.stl
G1 F2700 E107.4353
G1 F600 X117.96 Y118.8 E107.44754
G1 X118.3 Y118.792 E107.45659
G1 X118.629 Y118.762 E107.46538
G1 X118.864 Y118.652 E107.47229
G1 X118.864 Y116.348 E107.53359
G1 X118.629 Y116.234 E107.54054
G1 X118.306 Y116.208 E107.54916
G1 X117.935 Y116.2 E107.55904
G1 X116.55 Y116.208 E107.59589
G1 X116.202 Y116.296 E107.60544
G1 X116.136 Y116.347 E107.60766
G1 X116.136 Y118.651 E107.66896
G1 X116.205 Y118.705 E107.6713
G1 X116.503 Y118.786 E107.67951
G1 X117.5 Y118.796 E107.70604
G0 F9000 X117.505 Y118.087
G0 X118.183 Y118.114
G0 X118.464 Y118.388
;TYPE:WALL-INNER
G1 F600 X118.464 Y116.612 E107.7533
G1 X117.937 Y116.6 E107.76732
G1 X116.536 Y116.608 E107.8046
G1 X116.537 Y118.386 E107.85191
G1 X117.5 Y118.396 E107.87754
G1 X117.952 Y118.4 E107.88957
G1 X118.464 Y118.388 E107.90319
G0 F9000 X118.064 Y117.997
G1 F600 X118.064 Y117.003 E107.92964
G1 X116.936 Y117.006 E107.95965
G1 X116.936 Y117.99 E107.98584
G1 X117.5 Y117.993 E108.00084
G1 X118.064 Y117.997 E108.01585
G0 F9000 X117.855 Y117.787
G1 F2700 E102.51585
;MESH:NONMESH
G0 F300 X117.855 Y117.787 Z3.56
G0 F9000 X117.505 Y118.087
G0 X117.5 Y118.798
;TIME_ELAPSED:388.448150
;LAYER:21
;note -- min layer time used
;TYPE:WALL-OUTER
;MESH:C??ble chargeur.stl
G1 F2700 E108.01585
G1 F600 X118.666 Y118.8 E108.04688
G1 X118.966 Y118.771 E108.0549
G1 X119.192 Y118.667 E108.06152
G1 X119.192 Y116.327 E108.12378
G1 X118.97 Y116.226 E108.13027
G1 X118.663 Y116.2 E108.13847
G1 X116.31 Y116.2 E108.20108
G1 X115.964 Y116.231 E108.21032
G1 X115.799 Y116.321 E108.21532
G1 X115.8 Y118.676 E108.27798
G1 X115.921 Y118.743 E108.28166
G1 X116.225 Y118.796 E108.28987
G1 X117.5 Y118.798 E108.3238
G0 F9000 X117.501 Y118.09
G0 X118.515 Y118.12
G0 X118.792 Y118.4
;TYPE:WALL-INNER
G1 F600 X118.792 Y116.6 E108.37169
G1 X116.2 Y116.601 E108.44066
G1 X116.201 Y118.396 E108.48842
G1 X117.5 Y118.398 E108.52299
G1 X118.792 Y118.4 E108.55736
G0 F9000 X118.392 Y117.999
G1 F600 X118.392 Y117 E108.58395
G1 X116.6 Y117 E108.63163
G1 X116.6 Y117.996 E108.65813
G1 X117.5 Y117.998 E108.68208
G1 X118.392 Y117.999 E108.70581
G0 F9000 X117.893 Y117.499
G1 F401.3 X117.099 Y117.499 E108.7374
G1 F2700 E103.2374
;MESH:NONMESH
G0 F300 X117.099 Y117.499 Z3.72
G0 F9000 X117.501 Y118.09
G0 X117.5 Y118.8
;TIME_ELAPSED:392.023783
;LAYER:22
;note -- min layer time used
;TYPE:WALL-OUTER
;MESH:C??ble chargeur.stl
G1 F2700 E108.7374
G1 F600 X119.141 Y118.8 E108.78106
G1 X119.405 Y118.739 E108.78827
G1 X119.464 Y118.674 E108.7906
G1 X119.464 Y116.34 E108.85271
G1 X119.364 Y116.249 E108.85631
G1 X119.139 Y116.2 E108.86243
G1 X115.865 Y116.2 E108.94955
G1 X115.587 Y116.258 E108.9571
G1 X115.532 Y116.323 E108.95937
G1 X115.533 Y118.672 E109.02187
G1 X115.589 Y118.736 E109.02414
G1 X115.848 Y118.8 E109.03123
G1 X117.5 Y118.8 E109.07519
G0 F9000 X117.5 Y118.4
;TYPE:WALL-INNER
G1 F600 X119.064 Y118.4 E109.11681
G1 X119.064 Y116.6 E109.1647
G1 X115.932 Y116.6 E109.24804
G1 X115.932 Y118.4 E109.29593
G1 X117.5 Y118.4 E109.33765
G0 F9000 X117.5 Y118.09
G0 X118.664 Y118
G1 F600 X118.664 Y117 E109.36426
G1 X116.332 Y117 E109.42631
G1 X116.332 Y118 E109.45292
G1 X117.5 Y118 E109.484
G1 X118.664 Y118 E109.51497
G0 F9000 X118.164 Y117.5
G1 F400 X116.832 Y117.5 E109.56813
G1 F2700 E104.06813
;MESH:NONMESH
G0 F300 X116.832 Y117.5 Z3.88
G0 F9000 X117.5 Y118.09
G0 X117.5 Y118.8
;TIME_ELAPSED:395.977097
;LAYER:23
;note -- min layer time used
;TYPE:WALL-OUTER
;MESH:C??ble chargeur.stl
G1 F2700 E109.56813
G1 F600 X119.508 Y118.8 E109.62156
G1 X119.696 Y118.677 E109.62754
G1 X119.696 Y116.34 E109.68972
G1 X119.598 Y116.245 E109.69335
G1 X119.415 Y116.2 E109.69837
G1 X115.644 Y116.2 E109.79871
G1 X115.39 Y116.249 E109.80559
G1 X115.304 Y116.335 E109.80883
G1 X115.305 Y118.666 E109.87085
G1 X115.384 Y118.747 E109.87386
G1 X115.644 Y118.8 E109.88092
G1 X117.5 Y118.8 E109.93031
G0 F9000 X117.5 Y118.4
;TYPE:WALL-INNER
G1 F600 X119.296 Y118.4 E109.97809
G1 X119.296 Y116.6 E110.02599
G1 X115.704 Y116.6 E110.12156
G1 X115.704 Y118.4 E110.16946
G1 X117.5 Y118.4 E110.21725
G0 F9000 X117.5 Y118.09
G0 X118.896 Y118
G1 F600 X118.896 Y117 E110.24386
G1 X116.104 Y117 E110.31815
G1 X116.104 Y118 E110.34475
G1 X117.5 Y118 E110.3819
G1 X118.896 Y118 E110.41904
G0 F9000 X118.396 Y117.5
G1 F400 X116.604 Y117.5 E110.49057
G1 F2700 E104.99057
;MESH:NONMESH
G0 F300 X116.604 Y117.5 Z4.04
G0 F9000 X117.5 Y118.09
G0 X117.5 Y118.8
;TIME_ELAPSED:400.294882
;LAYER:24
;note -- min layer time used
;TYPE:WALL-OUTER
;MESH:C??ble chargeur.stl
G1 F2700 E110.49057
G1 F600 X119.73 Y118.8 E110.5499
G1 X119.896 Y118.68 E110.55535
G1 X119.896 Y116.317 E110.61823
G1 X119.645 Y116.2 E110.6256
G1 X115.335 Y116.2 E110.74028
G1 X115.185 Y116.242 E110.74442
G1 X115.104 Y116.33 E110.7476
G1 X115.104 Y118.666 E110.80976
G1 X115.172 Y118.754 E110.81272
G1 X115.335 Y118.8 E110.81723
G1 X117.5 Y118.8 E110.87483
G0 F9000 X117.5 Y118.4
;TYPE:WALL-INNER
G1 F600 X119.496 Y118.4 E110.92794
G1 X119.496 Y116.6 E110.97584
G1 X115.504 Y116.6 E111.08206
G1 X115.504 Y118.4 E111.12995
G1 X117.5 Y118.4 E111.18306
G0 F9000 X117.5 Y118
G1 F600 X119.096 Y118 E111.22553
G1 X119.096 Y117 E111.25214
G1 X115.904 Y117 E111.33707
G1 X115.904 Y118 E111.36368
G1 X117.5 Y118 E111.40614
G0 F9000 X116.404 Y117.5
G1 F400 X118.596 Y117.5 E111.49363
G1 F2700 E105.99363
;MESH:NONMESH
G0 F300 X118.596 Y117.5 Z4.2
G0 F9000 X117.5 Y118.09
G0 X117.5 Y118.8
;TIME_ELAPSED:404.872034
;LAYER:25
;note -- min layer time used
;TYPE:WALL-OUTER
;MESH:C??ble chargeur.stl
G1 F2700 E111.49363
G1 F600 X119.796 Y118.8 E111.55472
G1 X119.999 Y118.752 E111.56027
G1 X120.072 Y118.669 E111.56321
G1 X120.072 Y116.31 E111.62598
G1 X119.847 Y116.2 E111.63265
G1 X115.131 Y116.2 E111.75813
G1 X115.006 Y116.239 E111.76162
G1 X114.924 Y116.331 E111.76489
G1 X114.924 Y118.663 E111.82694
G1 X114.992 Y118.757 E111.83003
G1 X115.131 Y118.8 E111.8339
G1 X117.5 Y118.8 E111.89694
G0 F9000 X117.5 Y118.4
;TYPE:WALL-INNER
G1 F600 X119.672 Y118.4 E111.95473
G1 X119.672 Y116.6 E112.00262
G1 X115.324 Y116.6 E112.11832
G1 X115.324 Y118.4 E112.16621
G1 X117.5 Y118.4 E112.22411
G0 F9000 X117.5 Y118
G1 F600 X119.272 Y118 E112.27126
G1 X119.272 Y117 E112.29787
G1 X115.724 Y117 E112.39227
G1 X115.724 Y118 E112.41888
G1 X117.5 Y118 E112.46614
G0 F9000 X118.772 Y117.5
G1 F400 X116.224 Y117.5 E112.56783
G1 F2700 E107.06783
;MESH:NONMESH
G0 F300 X116.224 Y117.5 Z4.36
G0 F9000 X117.5 Y118.09
G0 X117.5 Y118.798
;TIME_ELAPSED:409.728923
;LAYER:26
;note -- min layer time used
;TYPE:WALL-OUTER
;MESH:C??ble chargeur.stl
G1 F2700 E112.56783
G1 F600 X119.984 Y118.8 E112.63393
G1 X120.159 Y118.757 E112.63872
G1 X120.228 Y118.672 E112.64164
G1 X120.228 Y116.312 E112.70443
G1 X120.031 Y116.2 E112.71046
G1 X114.952 Y116.2 E112.8456
G1 X114.838 Y116.237 E112.84879
G1 X114.768 Y116.323 E112.85174
G1 X114.768 Y118.674 E112.9143
G1 X114.835 Y118.758 E112.91716
G1 X114.955 Y118.796 E112.92051
G1 X117.5 Y118.798 E112.98823
G0 F9000 X117.5 Y118.398
;TYPE:WALL-INNER
G1 F600 X119.828 Y118.4 E113.05017
G1 X119.828 Y116.6 E113.09806
G1 X115.168 Y116.6 E113.22206
G1 X115.168 Y118.396 E113.26985
G1 X117.5 Y118.398 E113.3319
G0 F9000 X117.5 Y117.998
G1 F600 X119.428 Y118 E113.3832
G1 X119.428 Y117 E113.4098
G1 X115.568 Y117 E113.51251
G1 X115.568 Y117.996 E113.53901
G1 X117.5 Y117.998 E113.59042
G0 F9000 X118.928 Y117.5
G1 F401.3 X116.066 Y117.498 E113.70427
G1 F2700 E108.20427
;MESH:NONMESH
G0 F300 X116.066 Y117.498 Z4.52
G0 F9000 X117.501 Y118.09
G0 X117.5 Y118.8
;TIME_ELAPSED:414.830942
;LAYER:27
;note -- min layer time used
;TYPE:WALL-OUTER
;MESH:C??ble chargeur.stl
G1 F2700 E113.70427
G1 F600 X120.202 Y118.8 E113.77616
G1 X120.301 Y118.766 E113.77895
G1 X120.368 Y118.677 E113.78191
G1 X120.368 Y116.323 E113.84455
G1 X120.301 Y116.234 E113.84751
G1 X120.199 Y116.2 E113.85037
G1 X114.794 Y116.2 E113.99419
G1 X114.694 Y116.234 E113.997
G1 X114.628 Y116.32 E113.99988
G1 X114.628 Y118.667 E114.06233
G1 X114.663 Y118.742 E114.06454
G1 X114.836 Y118.8 E114.06939
G1 X117.5 Y118.8 E114.14028
G0 F9000 X117.5 Y118.4
;TYPE:WALL-INNER
G1 F600 X119.968 Y118.4 E114.20594
G1 X119.968 Y116.6 E114.25384
G1 X115.028 Y116.6 E114.38528
G1 X115.028 Y118.4 E114.43318
G1 X117.5 Y118.4 E114.49895
G0 F9000 X117.5 Y118
G1 F600 X119.568 Y118 E114.55398
G1 X119.568 Y117 E114.58059
G1 X115.428 Y117 E114.69074
G1 X115.428 Y118 E114.71735
G1 X117.5 Y118 E114.77248
G0 F9000 X119.068 Y117.5
G1 F400 X115.928 Y117.5 E114.89781
G1 F2700 E109.39781
;MESH:NONMESH
G0 F300 X115.928 Y117.5 Z4.68
G0 F9000 X117.5 Y118.09
G0 X117.5 Y118.798
;TIME_ELAPSED:420.156883
;LAYER:28
;note -- min layer time used
;TYPE:WALL-OUTER
;MESH:C??ble chargeur.stl
G1 F2700 E114.89781
G1 F600 X120.341 Y118.8 E114.9734
G1 X120.43 Y118.768 E114.97592
G1 X120.496 Y118.678 E114.97889
G1 X120.496 Y116.315 E115.04176
G1 X120.443 Y116.234 E115.04434
G1 X120.342 Y116.2 E115.04717
G1 X114.656 Y116.2 E115.19847
G1 X114.566 Y116.233 E115.20102
G1 X114.5 Y116.318 E115.20388
G1 X114.501 Y118.698 E115.26721
G1 X114.612 Y118.796 E115.27115
G1 X117.5 Y118.798 E115.34799
G0 F9000 X117.5 Y118.398
;TYPE:WALL-INNER
G1 F600 X120.096 Y118.4 E115.41707
G1 X120.096 Y116.6 E115.46496
G1 X114.9 Y116.6 E115.60322
G1 X114.9 Y118.396 E115.65101
G1 X117.5 Y118.398 E115.72019
G0 F9000 X117.5 Y117.998
G1 F600 X119.696 Y118 E115.77862
G1 X119.696 Y117 E115.80523
G1 X115.3 Y117 E115.9222
G1 X115.3 Y117.996 E115.9487
G1 X117.5 Y117.998 E116.00724
G0 F9000 X119.196 Y117.5
G1 F401.3 X115.798 Y117.498 E116.14241
G1 F2700 E110.64241
;MESH:NONMESH
G0 F300 X115.798 Y117.498 Z4.84
G0 F9000 X117.501 Y118.09
G0 X117.5 Y118.793
;TIME_ELAPSED:425.683031
;LAYER:29
;note -- min layer time used
;TYPE:WALL-OUTER
;MESH:C??ble chargeur.stl
G1 F2700 E116.14241
G1 F600 X118.027 Y118.8 E116.15643
G1 X120.465 Y118.8 E116.2213
G1 X120.612 Y118.714 E116.22583
G1 X120.612 Y116.292 E116.29028
G1 X120.464 Y116.2 E116.29491
G1 X114.529 Y116.2 E116.45283
G1 X114.388 Y116.314 E116.45766
G1 X114.388 Y118.68 E116.52061
G1 X114.452 Y118.769 E116.52353
G1 X114.536 Y118.8 E116.52591
G1 X116.984 Y118.8 E116.59105
G1 X117.455 Y118.792 E116.60358
G1 X117.5 Y118.793 E116.60478
G0 F9000 X118.027 Y118.4
;TYPE:WALL-INNER
G1 F600 X120.212 Y118.4 E116.66292
G1 X120.212 Y116.6 E116.71081
G1 X114.788 Y116.6 E116.85513
G1 X114.788 Y118.4 E116.90303
G1 X116.978 Y118.4 E116.9613
G1 X117.461 Y118.392 E116.97415
G1 X117.5 Y118.393 E116.97519
G1 X118.027 Y118.4 E116.98922
G0 F9000 X118.027 Y118
G1 F600 X119.812 Y118 E117.03671
G1 X119.812 Y117 E117.06332
G1 X115.188 Y117 E117.18636
G1 X115.188 Y118 E117.21296
G1 X116.971 Y118 E117.26041
G1 X117.467 Y117.992 E117.27361
G1 X117.5 Y117.992 E117.27448
G1 X118.027 Y118 E117.28851
G0 F9000 X119.312 Y117.5
G1 F400 X115.688 Y117.5 E117.43315
G1 F2700 E111.93315
;MESH:NONMESH
G0 F300 X115.688 Y117.5 Z5
G0 F9000 X117.509 Y118.083
G0 X117.5 Y118.707
;TIME_ELAPSED:431.383493
;LAYER:30
;note -- min layer time used
;TYPE:WALL-OUTER
;MESH:C??ble chargeur.stl
G1 F2700 E117.43315
G1 F600 X117.658 Y118.705 E117.43735
G1 X118.393 Y118.8 E117.45707
G1 X120.581 Y118.8 E117.51529
G1 X120.663 Y118.767 E117.51764
G1 X120.712 Y118.672 E117.52049
G1 X120.712 Y116.324 E117.58296
G1 X120.665 Y116.235 E117.58564
G1 X120.575 Y116.2 E117.58821
G1 X114.415 Y116.2 E117.75212
G1 X114.284 Y116.316 E117.75677
G1 X114.284 Y118.684 E117.81978
G1 X114.412 Y118.8 E117.82438
G1 X116.61 Y118.8 E117.88286
G1 X117.277 Y118.709 E117.90077
G1 X117.5 Y118.707 E117.90671
G0 F9000 X118.419 Y118.4
;TYPE:WALL-INNER
G1 F600 X120.312 Y118.4 E117.95708
G1 X120.312 Y116.6 E118.00497
G1 X114.684 Y116.6 E118.15472
G1 X114.684 Y118.4 E118.20262
G1 X116.583 Y118.4 E118.25315
G1 X117.223 Y118.313 E118.27033
G1 X117.5 Y118.31 E118.2777
G1 X117.709 Y118.308 E118.28326
G1 X118.419 Y118.4 E118.30231
G0 F9000 X118.444 Y118
G1 F600 X119.912 Y118 E118.34137
G1 X119.912 Y117 E118.36798
G1 X115.084 Y117 E118.49645
G1 X115.084 Y118 E118.52305
G1 X116.556 Y118 E118.56222
G1 X117.169 Y117.916 E118.57868
G1 X117.5 Y117.908 E118.58749
G1 X117.687 Y117.903 E118.59247
G1 X118.444 Y118 E118.61278
G0 F9000 X119.412 Y117.5
G1 F400 X118.476 Y117.5 E118.65014
G1 F430.1 X117.818 Y117.458 E118.67461
G1 F468.8 X117.286 Y117.454 E118.69273
G1 F432.4 X116.523 Y117.5 E118.72095
G1 F399.3 X115.584 Y117.5 E118.75849
G1 F2700 E113.25849
;MESH:NONMESH
G0 F300 X115.584 Y117.5 Z5.16
G0 F9000 X116.301 Y118.09
G0 X116.301 Y118.8
;TIME_ELAPSED:437.178802
;LAYER:31
;note -- min layer time used
;TYPE:WALL-OUTER
;MESH:C??ble chargeur.stl
G1 F2700 E118.75849
G1 F600 X116.614 Y118.729 E118.76703
G1 X116.744 Y118.639 E118.77124
G1 X116.744 Y116.2 E118.83613
G1 X114.319 Y116.2 E118.90066
G1 X114.192 Y116.314 E118.9052
G1 X114.192 Y118.674 E118.968
G1 X114.223 Y118.744 E118.97003
G1 X114.335 Y118.8 E118.97336
G1 X116.301 Y118.8 E119.02568
G0 F9000 X116.344 Y118.4
;TYPE:WALL-INNER
G1 F600 X116.344 Y116.6 E119.07357
G1 X114.592 Y116.6 E119.12019
G1 X114.592 Y118.4 E119.16808
G1 X116.344 Y118.4 E119.2147
G0 F9000 X115.944 Y118
G1 F600 X115.944 Y117 E119.24131
G1 X114.992 Y117 E119.26664
G1 X114.992 Y118 E119.29325
G1 X115.944 Y118 E119.31858
G0 F9000 X115.735 Y117.789
G1 F2700 E113.81858
G0 F9000 X116.535 Y118.121
G0 X118.466 Y118.121
G0 X118.936 Y118.12
G0 X118.615 Y118.8
;TYPE:WALL-OUTER
G1 F2700 E119.31858
G1 F600 X120.678 Y118.8 E119.37347
G1 X120.804 Y118.679 E119.37812
G1 X120.804 Y116.318 E119.44094
G1 X120.723 Y116.2 E119.44475
G1 X118.253 Y116.2 E119.51047
G1 X118.257 Y118.639 E119.57537
G1 X118.615 Y118.8 E119.58581
G0 F9000 X118.655 Y118.4
;TYPE:WALL-INNER
G1 F600 X120.404 Y118.4 E119.63235
G1 X120.404 Y116.6 E119.68024
G1 X118.653 Y116.6 E119.72684
G1 X118.655 Y118.4 E119.77473
G0 F9000 X118.936 Y118.12
G0 X120.004 Y118
G1 F600 X120.004 Y117 E119.80134
G1 X119.054 Y117 E119.82662
G1 X119.055 Y118 E119.85322
G1 X120.004 Y118 E119.87847
G0 F9000 X119.797 Y117.79
G1 F2700 E114.37847
;MESH:NONMESH
G0 F300 X119.797 Y117.79 Z5.32
G0 F9000 X118.466 Y118.089
G0 X116.535 Y118.089
G0 X116.071 Y118.09
G0 X116.071 Y118.8
;TIME_ELAPSED:443.028622
;LAYER:32
;note -- min layer time used
;TYPE:WALL-OUTER
;MESH:C??ble chargeur.stl
G1 F2700 E119.87847
G1 F600 X116.247 Y118.748 E119.88336
G1 X116.352 Y118.655 E119.88709
G1 X116.352 Y116.2 E119.95241
G1 X114.228 Y116.2 E120.00893
G1 X114.108 Y116.271 E120.01264
G1 X114.108 Y118.677 E120.07666
G1 X114.142 Y118.758 E120.079
G1 X114.233 Y118.796 E120.08162
G1 X116.071 Y118.8 E120.13053
G0 F9000 X115.952 Y118.399
;TYPE:WALL-INNER
G1 F600 X115.952 Y116.6 E120.17839
G1 X114.508 Y116.6 E120.21682
G1 X114.508 Y118.396 E120.2646
G1 X115.952 Y118.399 E120.30303
G0 F9000 X115.491 Y117.937
G1 F459.8 X115.491 Y117.061 E120.33344
G1 X114.969 Y117.061 E120.35157
G1 X114.969 Y117.936 E120.38195
G1 X115.491 Y117.937 E120.40008
G0 F9000 X115.343 Y117.79
G1 F2700 E114.90008
G0 F9000 X116.143 Y118.121
G0 X118.877 Y118.121
G0 X119.327 Y118.12
G0 X118.929 Y118.8
;TYPE:WALL-OUTER
G1 F2700 E120.40008
G1 F600 X120.766 Y118.799 E120.44896
G1 X120.884 Y118.694 E120.45316
G1 X120.887 Y116.303 E120.51678
G1 X120.76 Y116.2 E120.52113
G1 X118.644 Y116.2 E120.57743
G1 X118.644 Y118.65 E120.64262
G1 X118.765 Y118.751 E120.64682
G1 X118.929 Y118.8 E120.65137
G0 F9000 X119.045 Y118.399
;TYPE:WALL-INNER
G1 F600 X120.484 Y118.399 E120.68966
G1 X120.486 Y116.6 E120.73753
G1 X119.044 Y116.6 E120.7759
G1 X119.045 Y118.399 E120.82377
G0 F9000 X119.327 Y118.12
G0 X120.024 Y117.939
G1 F461.5 X120.026 Y117.06 E120.85417
G1 F460.7 X119.504 Y117.06 E120.87226
G1 F461.5 X119.505 Y117.939 E120.90267
G1 X120.024 Y117.939 E120.92062
G0 F9000 X119.878 Y117.789
G1 F2700 E115.42062
;MESH:NONMESH
G0 F300 X119.878 Y117.789 Z5.48
G0 F9000 X118.877 Y118.12
G0 X116.143 Y118.121
G0 X115.674 Y118.12
G0 X115.888 Y118.8
;TIME_ELAPSED:448.585927
;LAYER:33
;note -- min layer time used
;TYPE:WALL-OUTER
;MESH:C??ble chargeur.stl
G1 F2700 E120.92062
G1 F600 X116.022 Y118.757 E120.92436
G1 X116.104 Y118.66 E120.92774
G1 X116.1 Y116.2 E120.9932
G1 X114.152 Y116.2 E121.04503
G1 X114.036 Y116.276 E121.04872
G1 X114.037 Y118.72 E121.11375
G1 X114.153 Y118.8 E121.1175
G1 X115.888 Y118.8 E121.16367
G0 F9000 X115.703 Y118.4
;TYPE:WALL-INNER
G1 F600 X115.7 Y116.6 E121.21156
G1 X114.436 Y116.6 E121.24519
G1 X114.436 Y118.4 E121.29309
G1 X115.703 Y118.4 E121.3268
G0 F9000 X115.286 Y117.983
G1 F553 X115.285 Y117.016 E121.35472
G1 F554.3 X114.852 Y117.016 E121.36719
G1 F553 X114.853 Y117.983 E121.39511
G1 X115.286 Y117.983 E121.40761
G0 F9000 X115.093 Y117.789
G1 F2700 E115.90761
G0 F9000 X115.893 Y118.121
G0 X116.968 Y118.12
G0 X118.034 Y118.121
G0 X119.129 Y118.121
G0 X119.579 Y118.12
G0 X119.173 Y118.8
;TYPE:WALL-OUTER
G1 F2700 E121.40761
G1 F600 X120.869 Y118.8 E121.45274
G1 X120.964 Y118.668 E121.45706
G1 X120.956 Y116.291 E121.52031
G1 X120.881 Y116.2 E121.52345
G1 X118.896 Y116.2 E121.57627
G1 X118.897 Y118.663 E121.6418
G1 X118.981 Y118.751 E121.64504
G1 X119.173 Y118.8 E121.65031
G0 F9000 X119.579 Y118.12
G0 X120.283 Y118.12
G0 X120.563 Y118.4
;TYPE:WALL-INNER
G1 F600 X120.557 Y116.6 E121.69821
G1 X119.296 Y116.6 E121.73176
G1 X119.296 Y118.4 E121.77965
G1 X120.563 Y118.4 E121.81337
G0 F9000 X120.145 Y117.984
G1 F555.6 X120.143 Y117.016 E121.84118
G1 X119.712 Y117.016 E121.85357
G1 X119.712 Y117.984 E121.88139
G1 F554.3 X120.145 Y117.984 E121.89386
G0 F9000 X119.952 Y117.789
G1 F2700 E116.39386
;MESH:NONMESH
G0 F300 X119.952 Y117.789 Z5.64
G0 F9000 X119.129 Y118.12
G0 X118.034 Y118.12
G0 X116.968 Y118.12
G0 X115.893 Y118.121
G0 X115.424 Y118.12
G0 X115.732 Y118.8
;TIME_ELAPSED:453.984410
;LAYER:34
;note -- min layer time used
;TYPE:WALL-OUTER
;MESH:C??ble chargeur.stl
G1 F2700 E121.89386
G1 F600 X115.836 Y118.762 E121.8968
G1 X115.912 Y118.671 E121.89996
G1 X115.912 Y116.2 E121.96571
G1 X114.077 Y116.2 E122.01453
G1 X113.968 Y116.273 E122.01802
G1 X113.972 Y118.72 E122.08313
G1 X114.077 Y118.8 E122.08665
G1 X115.732 Y118.8 E122.13068
G0 F9000 X115.512 Y118.4
;TYPE:WALL-INNER
G1 F600 X115.512 Y116.6 E122.17858
G1 X114.369 Y116.6 E122.20899
G1 X114.372 Y118.4 E122.25688
G1 X115.512 Y118.4 E122.28722
G0 F9000 X115.127 Y118.015
G1 F646.9 X115.127 Y116.985 E122.31264
G1 X114.755 Y116.985 E122.32182
G1 X114.756 Y118.015 E122.34724
G1 X115.127 Y118.015 E122.35639
G0 F9000 X114.904 Y117.789
G1 F2700 E116.85639
G0 F9000 X115.704 Y118.121
G0 X116.779 Y118.12
G0 X118.221 Y118.121
G0 X119.296 Y118.12
G0 X119.766 Y118.12
G0 X119.278 Y118.8
;TYPE:WALL-OUTER
G1 F2700 E122.35639
G1 F600 X120.916 Y118.8 E122.39998
G1 X121.028 Y118.685 E122.40425
G1 X121.028 Y116.312 E122.46739
G1 X120.911 Y116.2 E122.4717
G1 X119.084 Y116.2 E122.52031
G1 X119.085 Y118.686 E122.58646
G1 X119.278 Y118.8 E122.59242
G0 F9000 X119.766 Y118.12
G0 X120.349 Y118.12
G0 X120.628 Y118.4
;TYPE:WALL-INNER
G1 F600 X120.628 Y116.6 E122.64032
G1 X119.484 Y116.6 E122.67076
G1 X119.484 Y118.4 E122.71865
G1 X120.628 Y118.4 E122.74909
G0 F9000 X120.242 Y118.014
G1 F645.2 X120.242 Y116.986 E122.77453
G1 X119.87 Y116.986 E122.78374
G1 X119.87 Y118.014 E122.80917
G1 X120.242 Y118.014 E122.81838
G0 F9000 X120.019 Y117.79
G1 F2700 E117.31838
;MESH:NONMESH
G0 F300 X120.019 Y117.79 Z5.8
G0 F9000 X119.296 Y118.119
G0 X118.221 Y118.12
G0 X116.779 Y118.119
G0 X115.704 Y118.12
G0 X115.235 Y118.12
G0 X115.555 Y118.8
;TIME_ELAPSED:459.225761
;LAYER:35
;note -- min layer time used
;TYPE:WALL-OUTER
;MESH:C??ble chargeur.stl
G1 F2700 E122.81838
G1 F600 X115.715 Y118.753 E122.82282
G1 X115.76 Y118.669 E122.82535
G1 X115.76 Y116.2 E122.89105
G1 X114.018 Y116.2 E122.9374
G1 X113.951 Y116.229 E122.93934
G1 X113.908 Y116.33 E122.94226
G1 X113.908 Y118.699 E123.0053
G1 X114.035 Y118.8 E123.00962
G1 X115.555 Y118.8 E123.05006
G0 F9000 X115.36 Y118.4
;TYPE:WALL-INNER
G1 F600 X115.36 Y116.6 E123.09795
G1 X114.308 Y116.6 E123.12595
G1 X114.308 Y118.4 E123.17384
G1 X115.36 Y118.4 E123.20183
G0 F9000 X114.834 Y117.874
G1 F368.1 X114.834 Y117.126 E123.23427
G0 F9000 X114.752 Y117.125
G1 F2700 E117.73427
G0 F9000 X115.552 Y118.122
G0 X116.627 Y118.121
G0 X118.37 Y118.122
G0 X119.445 Y118.121
G0 X119.915 Y118.12
G0 X119.398 Y118.8
;TYPE:WALL-OUTER
G1 F2700 E123.23427
G1 F600 X120.976 Y118.8 E123.27626
G1 X121.088 Y118.685 E123.28053
G1 X121.088 Y116.29 E123.34426
G1 X120.966 Y116.2 E123.34829
G1 X119.232 Y116.2 E123.39443
G1 X119.233 Y118.692 E123.46074
G1 X119.398 Y118.8 E123.46599
G0 F9000 X119.915 Y118.12
G0 X120.408 Y118.12
G0 X120.688 Y118.4
;TYPE:WALL-INNER
G1 F600 X120.688 Y116.6 E123.51388
G1 X119.632 Y116.6 E123.54198
G1 X119.632 Y118.4 E123.58987
G1 X120.688 Y118.4 E123.61797
G0 F9000 X120.16 Y117.872
G1 F365.9 X120.16 Y117.128 E123.65044
G0 F9000 X120.078 Y117.129
G1 F2700 E118.15044
;MESH:NONMESH
G0 F300 X120.078 Y117.129 Z5.96
G0 F9000 X119.445 Y118.118
G0 X118.37 Y118.119
G0 X116.627 Y118.118
G0 X115.552 Y118.119
G0 X115.083 Y118.12
G0 X115.509 Y118.8
;TIME_ELAPSED:464.174341
;LAYER:36
;note -- min layer time used
;TYPE:WALL-OUTER
;MESH:C??ble chargeur.stl
G1 F2700 E123.65044
G1 F600 X115.644 Y118.718 E123.65464
G1 X115.644 Y116.2 E123.72164
G1 X114 Y116.2 E123.76538
G1 X113.899 Y116.232 E123.7682
G1 X113.86 Y116.322 E123.77081
G1 X113.86 Y118.679 E123.83353
G1 X113.915 Y118.796 E123.83697
G1 X115.509 Y118.8 E123.87938
G0 F9000 X115.244 Y118.399
;TYPE:WALL-INNER
G1 F600 X115.244 Y116.6 E123.92725
G1 X114.26 Y116.6 E123.95343
G1 X114.26 Y118.396 E124.00122
G1 X115.244 Y118.399 E124.0274
G0 F9000 X114.752 Y117.906
G1 F411 X114.752 Y117.092 E124.05902
G0 F9000 X114.634 Y117.091
G1 F2700 E118.55902
G0 F9000 X115.434 Y118.122
G0 X116.509 Y118.121
G0 X118.49 Y118.122
G0 X119.565 Y118.121
G0 X120.035 Y118.12
G0 X119.495 Y118.8
;TYPE:WALL-OUTER
G1 F2700 E124.05902
G1 F600 X121.033 Y118.799 E124.09995
G1 X121.136 Y118.697 E124.1038
G1 X121.132 Y116.299 E124.16761
G1 X121.03 Y116.2 E124.17139
G1 X119.352 Y116.2 E124.21604
G1 X119.353 Y118.68 E124.28203
G1 X119.495 Y118.8 E124.28698
G0 F9000 X120.035 Y118.12
G0 X120.458 Y118.12
G0 X120.735 Y118.401
;TYPE:WALL-INNER
G1 F600 X120.733 Y116.6 E124.3349
G1 X119.752 Y116.6 E124.361
G1 X119.753 Y118.4 E124.40889
G1 X120.735 Y118.401 E124.43502
G0 F9000 X120.243 Y117.909
G1 F411.7 X120.243 Y117.091 E124.46675
G0 F9000 X120.124 Y117.092
G1 F2700 E118.96675
;MESH:NONMESH
G0 F300 X120.124 Y117.092 Z6.12
G0 F9000 X119.565 Y118.118
G0 X118.49 Y118.119
G0 X116.509 Y118.118
G0 X115.434 Y118.119
G0 X114.965 Y118.12
G0 X115.422 Y118.8
;TIME_ELAPSED:469.081146
;LAYER:37
;note -- min layer time used
;TYPE:WALL-OUTER
;MESH:C??ble chargeur.stl
G1 F2700 E124.46675
G1 F600 X115.499 Y118.766 E124.46899
G1 X115.544 Y118.675 E124.47169
G1 X115.544 Y116.2 E124.53754
G1 X113.919 Y116.2 E124.58078
G1 X113.858 Y116.228 E124.58257
G1 X113.816 Y116.321 E124.58528
G1 X113.816 Y118.675 E124.64792
G1 X113.859 Y118.77 E124.65069
G1 X113.922 Y118.8 E124.65255
G1 X115.422 Y118.8 E124.69246
G0 F9000 X115.144 Y118.4
;TYPE:WALL-INNER
G1 F600 X115.144 Y116.6 E124.74036
G1 X114.216 Y116.6 E124.76505
G1 X114.216 Y118.4 E124.81294
G1 X115.144 Y118.4 E124.83764
G0 F9000 X114.68 Y117.936
G1 F454.5 X114.68 Y117.064 E124.86826
G0 F9000 X114.536 Y117.063
G1 F2700 E119.36826
G0 F9000 X115.336 Y118.122
G0 X116.411 Y118.121
G0 X118.587 Y118.122
G0 X119.682 Y118.122
G0 X120.132 Y118.12
G0 X119.579 Y118.8
;TYPE:WALL-OUTER
G1 F2700 E124.86826
G1 F600 X121.039 Y118.8 E124.90711
G1 X121.13 Y118.769 E124.90967
G1 X121.18 Y118.688 E124.9122
G1 X121.18 Y116.309 E124.9755
G1 X121.074 Y116.2 E124.97955
G1 X119.452 Y116.2 E125.02271
G1 X119.452 Y118.686 E125.08885
G1 X119.579 Y118.8 E125.09339
G0 F9000 X120.132 Y118.12
G0 X120.501 Y118.12
G0 X120.78 Y118.4
;TYPE:WALL-INNER
G1 F600 X120.78 Y116.6 E125.14129
G1 X119.852 Y116.6 E125.16598
G1 X119.852 Y118.4 E125.21388
G1 X120.78 Y118.4 E125.23857
G0 F9000 X120.316 Y117.936
G1 F454.5 X120.316 Y117.064 E125.2692
G0 F9000 X120.171 Y117.064
G1 F2700 E119.7692
;MESH:NONMESH
G0 F300 X120.171 Y117.064 Z6.28
G0 F9000 X119.682 Y118.12
G0 X118.587 Y118.12
G0 X116.411 Y118.12
G0 X115.336 Y118.121
G0 X114.867 Y118.12
G0 X115.342 Y118.8
;TIME_ELAPSED:473.946714
;LAYER:38
;note -- min layer time used
;TYPE:WALL-OUTER
;MESH:C??ble chargeur.stl
G1 F2700 E125.2692
G1 F600 X115.468 Y118.695 E125.27356
G1 X115.464 Y116.2 E125.33995
G1 X113.88 Y116.2 E125.38209
G1 X113.78 Y116.306 E125.38597
G1 X113.788 Y118.707 E125.44986
G1 X113.885 Y118.8 E125.45343
G1 X115.342 Y118.8 E125.4922
G0 F9000 X115.067 Y118.4
;TYPE:WALL-INNER
G1 F600 X115.065 Y116.6 E125.5401
G1 X114.181 Y116.6 E125.56362
G1 X114.187 Y118.4 E125.61151
G1 X115.067 Y118.4 E125.63493
G0 F9000 X114.626 Y117.959
G1 F496.9 X114.624 Y117.041 E125.66442
G0 F9000 X114.457 Y117.04
G1 F2700 E120.16442
G0 F9000 X114.494 Y117.041
G0 X115.257 Y118.122
G0 X116.332 Y118.121
G0 X118.666 Y118.122
G0 X119.761 Y118.122
G0 X120.211 Y118.12
G0 X119.648 Y118.8
;TYPE:WALL-OUTER
G1 F2700 E125.66442
G1 F600 X121.119 Y118.8 E125.70356
G1 X121.216 Y118.688 E125.70751
G1 X121.216 Y116.308 E125.77083
G1 X121.12 Y116.2 E125.77468
G1 X119.528 Y116.2 E125.81704
G1 X119.529 Y118.67 E125.88276
G1 X119.574 Y118.769 E125.88565
G1 X119.648 Y118.8 E125.88779
G0 F9000 X120.211 Y118.12
G0 X120.538 Y118.12
G0 X120.816 Y118.4
;TYPE:WALL-INNER
G1 F600 X120.816 Y116.6 E125.93568
G1 X119.928 Y116.6 E125.95931
G1 X119.929 Y118.4 E126.0072
G1 X120.816 Y118.4 E126.03081
G0 F9000 X120.372 Y117.956
G1 F491.8 X120.372 Y117.044 E126.06041
G0 F9000 X120.208 Y117.044
G1 F2700 E120.56041
;MESH:NONMESH
G0 F300 X120.208 Y117.044 Z6.44
G0 F9000 X120.241 Y117.044
G0 X119.761 Y118.12
G0 X118.666 Y118.12
G0 X116.332 Y118.121
G0 X115.257 Y118.122
G0 X114.788 Y118.12
G0 X115.294 Y118.799
;TIME_ELAPSED:478.783914
;LAYER:39
;note -- min layer time used
;TYPE:WALL-OUTER
;MESH:C??ble chargeur.stl
G1 F2700 E126.06041
G1 F600 X115.404 Y118.685 E126.06463
G1 X115.404 Y116.2 E126.13075
G1 X113.802 Y116.2 E126.17337
G1 X113.752 Y116.325 E126.17696
G1 X113.753 Y118.672 E126.23941
G1 X113.789 Y118.764 E126.24203
G1 X113.881 Y118.8 E126.24466
G1 X115.294 Y118.799 E126.28226
G0 F9000 X115.004 Y118.4
;TYPE:WALL-INNER
G1 F600 X115.004 Y116.6 E126.33015
G1 X114.152 Y116.6 E126.35282
G1 X114.152 Y118.4 E126.40072
G1 X115.004 Y118.4 E126.42339
G0 F9000 X114.578 Y117.974
G1 F531 X114.578 Y117.026 E126.45189
G0 F9000 X114.395 Y117.025
G1 F2700 E120.95189
G0 F9000 X114.464 Y117.025
G0 X115.195 Y118.122
G0 X116.27 Y118.121
G0 X118.729 Y118.121
G0 X119.804 Y118.12
G0 X120.274 Y118.12
G0 X119.703 Y118.798
;TYPE:WALL-OUTER
G1 F2700 E126.45189
G1 F600 X121.147 Y118.8 E126.49032
G1 X121.244 Y118.697 E126.49408
G1 X121.24 Y116.3 E126.55786
G1 X121.148 Y116.2 E126.56148
G1 X119.592 Y116.2 E126.60288
G1 X119.593 Y118.675 E126.66873
G1 X119.636 Y118.768 E126.67146
G1 X119.703 Y118.798 E126.67341
G0 F9000 X120.274 Y118.12
G0 X120.565 Y118.12
G0 X120.843 Y118.401
;TYPE:WALL-INNER
G1 F600 X120.841 Y116.6 E126.72133
G1 X119.992 Y116.6 E126.74392
G1 X119.993 Y118.399 E126.79179
G1 X120.843 Y118.401 E126.81441
G0 F9000 X120.417 Y117.975
G1 F532.2 X120.417 Y117.025 E126.84291
G0 F9000 X120.233 Y117.025
G1 F2700 E121.34291
;MESH:NONMESH
G0 F300 X120.233 Y117.025 Z6.6
G0 F9000 X120.304 Y117.026
G0 X119.804 Y118.118
G0 X118.729 Y118.119
G0 X116.27 Y118.119
G0 X115.195 Y118.12
G0 X114.726 Y118.12
G0 X115.225 Y118.8
;TIME_ELAPSED:483.602368
;LAYER:40
;note -- min layer time used
;TYPE:WALL-OUTER
;MESH:C??ble chargeur.stl
G1 F2700 E126.84291
G1 F600 X115.356 Y118.744 E126.8467
G1 X115.356 Y116.2 E126.91439
G1 X113.824 Y116.2 E126.95515
G1 X113.728 Y116.305 E126.95894
G1 X113.728 Y118.667 E127.02179
G1 X113.797 Y118.8 E127.02578
G1 X115.225 Y118.8 E127.06377
G0 F9000 X114.956 Y118.4
;TYPE:WALL-INNER
G1 F600 X114.956 Y116.6 E127.11167
G1 X114.128 Y116.6 E127.1337
G1 X114.128 Y118.4 E127.18159
G1 X114.956 Y118.4 E127.20362
G0 F9000 X114.542 Y117.986
G1 F560.7 X114.542 Y117.014 E127.2313
G0 F9000 X114.348 Y117.013
G1 F2700 E121.7313
G0 F9000 X114.441 Y117.013
G0 X115.148 Y118.122
G0 X116.223 Y118.121
G0 X118.775 Y118.121
G0 X119.85 Y118.12
G0 X120.589 Y118.12
G0 X121.171 Y118.8
;TYPE:WALL-OUTER
G1 F2700 E127.2313
G1 F600 X121.268 Y118.685 E127.2353
G1 X121.268 Y116.266 E127.29967
G1 X121.154 Y116.2 E127.30317
G1 X119.637 Y116.2 E127.34354
G1 X119.64 Y118.731 E127.41088
G1 X119.754 Y118.796 E127.41437
G1 X121.171 Y118.8 E127.45208
G0 F9000 X120.868 Y118.399
;TYPE:WALL-INNER
G1 F600 X120.868 Y116.6 E127.49994
G1 X120.038 Y116.6 E127.52203
G1 X120.04 Y118.396 E127.56982
G1 X120.868 Y118.399 E127.59185
G0 F9000 X120.453 Y117.983
G1 F558.1 X120.453 Y117.015 E127.61954
G0 F9000 X120.259 Y117.016
G1 F2700 E122.11954
;MESH:NONMESH
G0 F300 X120.259 Y117.016 Z6.76
G0 F9000 X120.35 Y117.017
G0 X119.85 Y118.118
G0 X118.775 Y118.119
G0 X116.223 Y118.119
G0 X115.148 Y118.12
G0 X114.679 Y118.12
G0 X115.252 Y118.799
;TIME_ELAPSED:488.334340
;LAYER:41
;note -- min layer time used
;TYPE:WALL-OUTER
;MESH:C??ble chargeur.stl
G1 F2700 E127.61954
G1 F600 X115.32 Y118.715 E127.62241
G1 X115.323 Y116.201 E127.68931
G1 X113.805 Y116.2 E127.7297
G1 X113.712 Y116.304 E127.73341
G1 X113.716 Y118.698 E127.79711
G1 X113.812 Y118.8 E127.80084
G1 X115.252 Y118.799 E127.83915
G0 F9000 X114.92 Y118.399
;TYPE:WALL-INNER
G1 F600 X114.922 Y116.601 E127.88699
G1 X114.113 Y116.601 E127.90852
G1 X114.116 Y118.4 E127.95639
G1 X114.92 Y118.399 E127.97778
G0 F9000 X114.518 Y117.997
G1 F589.7 X114.518 Y117.005 E128.00464
G1 F2700 E122.50464
G0 F9000 X115.092 Y118.106
G0 X116.187 Y118.108
G0 X118.808 Y118.105
G0 X119.883 Y118.104
G0 X120.353 Y118.12
G0 X119.793 Y118.8
;TYPE:WALL-OUTER
G1 F2700 E128.00464
G1 F600 X121.19 Y118.8 E128.04181
G1 X121.284 Y118.685 E128.04576
G1 X121.284 Y116.28 E128.10975
G1 X121.195 Y116.2 E128.11294
G1 X119.672 Y116.2 E128.15346
G1 X119.672 Y118.748 E128.22126
G1 X119.793 Y118.8 E128.22476
G0 F9000 X120.353 Y118.12
G0 X120.607 Y118.12
G0 X120.884 Y118.4
;TYPE:WALL-INNER
G1 F600 X120.884 Y116.6 E128.27266
G1 X120.072 Y116.6 E128.29426
G1 X120.072 Y118.4 E128.34216
G1 X120.884 Y118.4 E128.36376
G0 F9000 X120.478 Y117.994
G1 F582.5 X120.478 Y117.006 E128.39084
G1 F2700 E122.89084
;MESH:NONMESH
G0 F300 X120.478 Y117.006 Z6.92
G0 F9000 X119.883 Y118.518
G0 X118.808 Y118.519
G0 X116.186 Y118.508
G0 X115.24 Y118.799
;TIME_ELAPSED:492.995017
;LAYER:42
;note -- min layer time used
;TYPE:WALL-OUTER
;MESH:C??ble chargeur.stl
G1 F2700 E128.39084
G1 F600 X115.308 Y118.688 E128.3943
G1 X115.304 Y116.2 E128.46051
G1 X113.8 Y116.2 E128.50052
G1 X113.704 Y116.308 E128.50437
G1 X113.704 Y118.688 E128.5677
G1 X113.8 Y118.796 E128.57154
G1 X115.24 Y118.799 E128.60986
G0 F9000 X114.907 Y118.399
;TYPE:WALL-INNER
G1 F600 X114.905 Y116.6 E128.65773
G1 X114.104 Y116.6 E128.67904
G1 X114.104 Y118.397 E128.72685
G1 X114.907 Y118.399 E128.74822
G0 F9000 X114.505 Y117.997
G1 F595.5 X114.505 Y117.001 E128.77492
G1 F2700 E123.27492
G0 F9000 X115.097 Y118.122
G0 X116.172 Y118.121
G0 X118.827 Y118.121
G0 X119.902 Y118.12
G0 X120.372 Y118.12
G0 X119.793 Y118.8
;TYPE:WALL-OUTER
G1 F2700 E128.77492
G1 F600 X121.16 Y118.8 E128.81129
G1 X121.244 Y118.768 E128.81369
G1 X121.292 Y118.688 E128.81617
G1 X121.292 Y116.296 E128.87981
G1 X121.187 Y116.2 E128.8836
G1 X119.689 Y116.2 E128.92346
G1 X119.692 Y118.732 E128.99083
G1 X119.793 Y118.8 E128.99407
G0 F9000 X120.372 Y118.12
G0 X120.892 Y118.4
;TYPE:WALL-INNER
G1 F600 X120.892 Y116.6 E129.04196
G1 X120.09 Y116.6 E129.0633
G1 X120.092 Y118.4 E129.1112
G1 X120.892 Y118.4 E129.13249
G0 F9000 X120.491 Y117.999
G1 F597 X120.491 Y117.001 E129.15917
G1 F2700 E123.65917
;MESH:NONMESH
G0 F300 X120.491 Y117.001 Z7.08
G0 F9000 X119.902 Y118.518
G0 X118.827 Y118.519
G0 X116.172 Y118.575
G0 X115.246 Y118.799
;TIME_ELAPSED:497.649149
;LAYER:43
;note -- min layer time used
;TYPE:WALL-OUTER
;MESH:C??ble chargeur.stl
G1 F2700 E129.15917
G1 F600 X115.3 Y118.677 E129.16272
G1 X115.3 Y116.2 E129.22863
G1 X113.767 Y116.2 E129.26942
G1 X113.701 Y116.29 E129.27239
G1 X113.7 Y118.706 E129.33668
G1 X113.812 Y118.8 E129.34057
G1 X115.246 Y118.799 E129.37872
G0 F9000 X114.9 Y118.4
;TYPE:WALL-INNER
G1 F600 X114.9 Y116.6 E129.42662
G1 X114.1 Y116.6 E129.4479
G1 X114.1 Y118.4 E129.4958
G1 X114.9 Y118.4 E129.51709
G0 F9000 X114.5 Y118
G1 F600 X114.5 Y117 E129.54369
G1 F2700 E124.04369
G0 F9000 X115.091 Y118.122
G0 X116.166 Y118.121
G0 X118.833 Y118.126
G0 X119.928 Y118.126
G0 X120.378 Y118.12
G0 X119.808 Y118.8
;TYPE:WALL-OUTER
G1 F2700 E129.54369
G1 F600 X121.198 Y118.8 E129.58068
G1 X121.296 Y118.692 E129.58456
G1 X121.296 Y116.308 E129.64799
G1 X121.197 Y116.2 E129.65189
G1 X119.696 Y116.2 E129.69183
G1 X119.696 Y118.661 E129.75731
G1 X119.729 Y118.753 E129.75991
G1 X119.808 Y118.8 E129.76236
G0 F9000 X120.378 Y118.12
G0 X120.896 Y118.4
;TYPE:WALL-INNER
G1 F600 X120.896 Y116.6 E129.81025
G1 X120.096 Y116.6 E129.83154
G1 X120.096 Y118.4 E129.87943
G1 X120.896 Y118.4 E129.90072
G0 F9000 X120.496 Y118
G1 F600 X120.496 Y117 E129.92733
G1 F2700 E124.42733
;MESH:NONMESH
G0 F300 X120.496 Y117 Z7.24
G0 F9000 X119.928 Y118.524
G0 X118.833 Y118.524
G0 X116.166 Y118.575
G0 X115.235 Y118.8
;TIME_ELAPSED:502.303826
;LAYER:44
;note -- min layer time used
;TYPE:WALL-OUTER
;MESH:C??ble chargeur.stl
G1 F2700 E129.92733
G1 F600 X115.308 Y118.702 E129.93058
G1 X115.308 Y116.2 E129.99715
G1 X113.797 Y116.2 E130.03736
G1 X113.704 Y116.27 E130.04046
G1 X113.704 Y118.744 E130.10628
G1 X113.829 Y118.8 E130.10993
G1 X115.235 Y118.8 E130.14734
G0 F9000 X114.908 Y118.4
;TYPE:WALL-INNER
G1 F600 X114.908 Y116.6 E130.19524
G1 X114.104 Y116.6 E130.21663
G1 X114.104 Y118.4 E130.26452
G1 X114.908 Y118.4 E130.28592
G0 F9000 X114.506 Y117.998
G1 F594.1 X114.506 Y117.002 E130.31268
G1 F2700 E124.81268
G0 F9000 X115.079 Y118.116
G0 X116.174 Y118.116
G0 X118.828 Y118.116
G0 X119.923 Y118.116
G0 X120.373 Y118.12
G0 X119.788 Y118.8
;TYPE:WALL-OUTER
G1 F2700 E130.31268
G1 F600 X121.196 Y118.8 E130.35015
G1 X121.296 Y118.69 E130.3541
G1 X121.296 Y116.308 E130.41748
G1 X121.197 Y116.2 E130.42138
G1 X119.692 Y116.2 E130.46143
G1 X119.692 Y118.731 E130.52877
G1 X119.788 Y118.8 E130.53192
G0 F9000 X120.373 Y118.12
G0 X120.896 Y118.4
;TYPE:WALL-INNER
G1 F600 X120.896 Y116.6 E130.57981
G1 X120.092 Y116.6 E130.6012
G1 X120.092 Y118.4 E130.6491
G1 X120.896 Y118.4 E130.67049
G0 F9000 X120.494 Y117.998
G1 F594.1 X120.494 Y117.002 E130.69726
G1 F2700 E125.19726
;MESH:NONMESH
G0 F300 X120.494 Y117.002 Z7.4
G0 F9000 X119.923 Y118.52
G0 X118.828 Y118.52
G0 X116.174 Y118.516
G0 X115.253 Y118.8
;TIME_ELAPSED:506.964920
;LAYER:45
;note -- min layer time used
;TYPE:WALL-OUTER
;MESH:C??ble chargeur.stl
G1 F2700 E130.69726
G1 F600 X115.328 Y118.699 E130.70061
G1 X115.328 Y116.2 E130.7671
G1 X113.781 Y116.2 E130.80826
G1 X113.712 Y116.292 E130.81132
G1 X113.713 Y118.726 E130.87609
G1 X113.845 Y118.796 E130.88006
G1 X115.253 Y118.8 E130.91753
G0 F9000 X114.928 Y118.399
;TYPE:WALL-INNER
G1 F600 X114.928 Y116.6 E130.96539
G1 X114.112 Y116.6 E130.98711
G1 X114.112 Y118.396 E131.03489
G1 X114.928 Y118.399 E131.05661
G0 F9000 X114.52 Y117.99
G1 F576.9 X114.52 Y117.008 E131.08378
G1 F2700 E125.58378
G0 F9000 X115.098 Y118.12
G0 X116.193 Y118.12
G0 X118.809 Y118.12
G0 X119.904 Y118.12
G0 X120.354 Y118.12
G0 X119.8 Y118.8
;TYPE:WALL-OUTER
G1 F2700 E131.08378
G1 F600 X121.199 Y118.8 E131.12101
G1 X121.281 Y118.719 E131.12407
G1 X121.284 Y116.25 E131.18977
G1 X121.166 Y116.2 E131.19318
G1 X119.672 Y116.2 E131.23293
G1 X119.672 Y118.747 E131.3007
G1 X119.8 Y118.8 E131.30439
G0 F9000 X120.354 Y118.12
G0 X120.605 Y118.12
G0 X120.882 Y118.4
;TYPE:WALL-INNER
G1 F600 X120.884 Y116.6 E131.35228
G1 X120.072 Y116.6 E131.37389
G1 X120.072 Y118.4 E131.42178
G1 X120.882 Y118.4 E131.44334
G0 F9000 X120.478 Y117.994
G1 F582.5 X120.478 Y117.006 E131.47041
G1 F2700 E125.97041
;MESH:NONMESH
G0 F300 X120.478 Y117.006 Z7.56
G0 F9000 X119.904 Y118.52
G0 X118.809 Y118.52
G0 X116.193 Y118.52
G0 X115.254 Y118.8
;TIME_ELAPSED:511.632931
;LAYER:46
;note -- min layer time used
;TYPE:WALL-OUTER
;MESH:C??ble chargeur.stl
G1 F2700 E131.47041
G1 F600 X115.36 Y118.687 E131.47454
G1 X115.36 Y116.2 E131.54071
G1 X113.825 Y116.2 E131.58155
G1 X113.728 Y116.309 E131.58544
G1 X113.728 Y118.732 E131.64991
G1 X113.843 Y118.8 E131.65346
G1 X115.254 Y118.8 E131.69101
G0 F9000 X114.96 Y118.4
;TYPE:WALL-INNER
G1 F600 X114.96 Y116.6 E131.7389
G1 X114.128 Y116.6 E131.76104
G1 X114.128 Y118.4 E131.80893
G1 X114.96 Y118.4 E131.83107
G0 F9000 X114.544 Y117.984
G1 F555.6 X114.544 Y117.016 E131.85889
G0 F9000 X114.35 Y117.016
G1 F2700 E126.35889
G0 F9000 X114.439 Y117.016
G0 X115.13 Y118.12
G0 X116.225 Y118.12
G0 X118.775 Y118.124
G0 X119.87 Y118.124
G0 X120.32 Y118.12
G0 X119.74 Y118.8
;TYPE:WALL-OUTER
G1 F2700 E131.85889
G1 F600 X121.2 Y118.8 E131.89774
G1 X121.268 Y118.685 E131.90129
G1 X121.268 Y116.265 E131.96568
G1 X121.157 Y116.2 E131.96911
G1 X119.64 Y116.2 E132.00947
G1 X119.64 Y118.68 E132.07546
G1 X119.74 Y118.8 E132.07961
G0 F9000 X120.32 Y118.12
G0 X120.59 Y118.12
G0 X120.868 Y118.4
;TYPE:WALL-INNER
G1 F600 X120.868 Y116.6 E132.12751
G1 X120.04 Y116.6 E132.14954
G1 X120.04 Y118.4 E132.19744
G1 X120.868 Y118.4 E132.21947
G0 F9000 X120.454 Y117.986
G1 F560.7 X120.454 Y117.014 E132.24714
G0 F9000 X120.26 Y117.014
G1 F2700 E126.74714
;MESH:NONMESH
G0 F300 X120.26 Y117.014 Z7.72
G0 F9000 X120.35 Y117.014
G0 X119.87 Y118.524
G0 X118.775 Y118.524
G0 X116.225 Y118.524
G0 X115.268 Y118.8
;TIME_ELAPSED:516.381332
;LAYER:47
;note -- min layer time used
;TYPE:WALL-OUTER
;MESH:C??ble chargeur.stl
G1 F2700 E132.24714
G1 F600 X115.377 Y118.756 E132.25027
G1 X115.404 Y118.702 E132.25187
G1 X115.404 Y116.2 E132.31845
G1 X113.849 Y116.2 E132.35982
G1 X113.752 Y116.271 E132.36302
G1 X113.752 Y118.701 E132.42768
G1 X113.822 Y118.8 E132.43091
G1 X115.268 Y118.8 E132.46938
G0 F9000 X115.004 Y118.4
;TYPE:WALL-INNER
G1 F600 X115.004 Y116.6 E132.51728
G1 X114.152 Y116.6 E132.53995
G1 X114.152 Y118.4 E132.58784
G1 X115.004 Y118.4 E132.61051
G0 F9000 X114.578 Y117.974
G1 F531 X114.578 Y117.026 E132.63901
G0 F9000 X114.397 Y117.026
G1 F2700 E127.13901
G0 F9000 X114.463 Y117.026
G0 X115.177 Y118.12
G0 X116.272 Y118.12
G0 X118.728 Y118.124
G0 X119.823 Y118.124
G0 X120.273 Y118.12
G0 X119.708 Y118.8
;TYPE:WALL-OUTER
G1 F2700 E132.63901
G1 F600 X121.175 Y118.8 E132.67805
G1 X121.248 Y118.702 E132.6813
G1 X121.248 Y116.298 E132.74527
G1 X121.131 Y116.2 E132.74933
G1 X119.592 Y116.2 E132.79028
G1 X119.592 Y118.699 E132.85677
G1 X119.708 Y118.8 E132.86086
G0 F9000 X120.273 Y118.12
G0 X120.568 Y118.12
G0 X120.848 Y118.4
;TYPE:WALL-INNER
G1 F600 X120.848 Y116.6 E132.90876
G1 X119.992 Y116.6 E132.93153
G1 X119.992 Y118.4 E132.97943
G1 X120.848 Y118.4 E133.0022
G0 F9000 X120.42 Y117.972
G1 F526.3 X120.42 Y117.028 E133.03084
G0 F9000 X120.238 Y117.028
G1 F2700 E127.53084
;MESH:NONMESH
G0 F300 X120.238 Y117.028 Z7.88
G0 F9000 X120.303 Y117.028
G0 X119.823 Y118.524
G0 X118.728 Y118.524
G0 X116.272 Y118.524
G0 X115.353 Y118.799
;TIME_ELAPSED:521.144513
;LAYER:48
;note -- min layer time used
;TYPE:WALL-OUTER
;MESH:C??ble chargeur.stl
G1 F2700 E133.03084
G1 F600 X115.422 Y118.768 E133.03285
G1 X115.468 Y118.673 E133.03566
G1 X115.468 Y116.2 E133.10146
G1 X113.833 Y116.2 E133.14497
G1 X113.78 Y116.321 E133.14848
G1 X113.78 Y118.68 E133.21125
G1 X113.817 Y118.762 E133.21364
G1 X113.908 Y118.796 E133.21623
G1 X115.353 Y118.799 E133.25468
G0 F9000 X115.068 Y118.398
;TYPE:WALL-INNER
G1 F600 X115.068 Y116.6 E133.30252
G1 X114.18 Y116.6 E133.32615
G1 X114.18 Y118.396 E133.37394
G1 X115.068 Y118.398 E133.39756
G0 F9000 X114.624 Y117.954
G1 F491.8 X114.624 Y117.044 E133.4271
G0 F9000 X114.459 Y117.044
G1 F2700 E127.9271
G0 F9000 X114.492 Y117.044
G0 X115.239 Y118.12
G0 X116.334 Y118.12
G0 X118.665 Y118.124
G0 X119.76 Y118.124
G0 X120.21 Y118.12
G0 X119.68 Y118.8
;TYPE:WALL-OUTER
G1 F2700 E133.4271
G1 F600 X121.116 Y118.799 E133.46531
G1 X121.214 Y118.728 E133.46853
G1 X121.216 Y116.321 E133.53258
G1 X121.175 Y116.229 E133.53526
G1 X121.11 Y116.2 E133.53715
G1 X119.528 Y116.2 E133.57925
G1 X119.528 Y118.669 E133.64494
G1 X119.574 Y118.765 E133.64777
G1 X119.68 Y118.8 E133.65074
G0 F9000 X120.21 Y118.12
G0 X120.538 Y118.12
G0 X120.814 Y118.399
;TYPE:WALL-INNER
G1 F600 X120.816 Y116.6 E133.69861
G1 X119.928 Y116.6 E133.72224
G1 X119.928 Y118.4 E133.77014
G1 X120.814 Y118.399 E133.79371
G0 F9000 X120.372 Y117.956
G1 F491.8 X120.372 Y117.044 E133.82332
G0 F9000 X120.208 Y117.044
G1 F2700 E128.32332
;MESH:NONMESH
G0 F300 X120.208 Y117.044 Z8.04
G0 F9000 X120.24 Y117.044
G0 X119.76 Y118.524
G0 X118.665 Y118.524
G0 X116.334 Y118.524
G0 X115.422 Y118.8
;TIME_ELAPSED:525.926827
;LAYER:49
;note -- min layer time used
;TYPE:WALL-OUTER
;MESH:C??ble chargeur.stl
G1 F2700 E133.82332
G1 F600 X115.544 Y118.686 E133.82776
G1 X115.544 Y116.2 E133.89391
G1 X113.872 Y116.2 E133.93839
G1 X113.816 Y116.319 E133.94189
G1 X113.816 Y118.681 E134.00474
G1 X113.857 Y118.77 E134.00735
G1 X113.923 Y118.799 E134.00927
G1 X115.422 Y118.8 E134.04915
G0 F9000 X115.144 Y118.4
;TYPE:WALL-INNER
G1 F600 X115.144 Y116.6 E134.09705
G1 X114.216 Y116.6 E134.12174
G1 X114.216 Y118.399 E134.16961
G1 X115.144 Y118.4 E134.1943
G0 F9000 X114.68 Y117.936
G1 F454.5 X114.68 Y117.064 E134.22493
G0 F9000 X114.537 Y117.064
G1 F2700 E128.72493
G0 F9000 X115.317 Y118.12
G0 X116.412 Y118.12
G0 X118.587 Y118.123
G0 X119.682 Y118.123
G0 X120.502 Y118.12
G0 X121.077 Y118.8
;TYPE:WALL-OUTER
G1 F2700 E134.22493
G1 F600 X121.18 Y118.684 E134.22906
G1 X121.18 Y116.301 E134.29246
G1 X121.063 Y116.2 E134.29658
G1 X119.452 Y116.2 E134.33944
G1 X119.452 Y118.675 E134.4053
G1 X119.492 Y118.758 E134.40775
G1 X119.609 Y118.796 E134.41102
G1 X121.077 Y118.8 E134.45008
G0 F9000 X120.78 Y118.399
;TYPE:WALL-INNER
G1 F600 X120.78 Y116.6 E134.49795
G1 X119.852 Y116.6 E134.52264
G1 X119.852 Y118.396 E134.57043
G1 X120.78 Y118.399 E134.59512
G0 F9000 X120.316 Y117.934
G1 F454.5 X120.316 Y117.064 E134.62568
G0 F9000 X120.172 Y117.064
G1 F2700 E129.12568
;MESH:NONMESH
G0 F300 X120.172 Y117.064 Z8.2
G0 F9000 X119.682 Y118.524
G0 X118.587 Y118.524
G0 X116.412 Y118.524
G0 X115.544 Y118.799
;TIME_ELAPSED:530.656629
;LAYER:50
;note -- min layer time used
;TYPE:WALL-OUTER
;MESH:C??ble chargeur.stl
G1 F2700 E134.62568
G1 F600 X115.628 Y118.712 E134.6289
G1 X115.635 Y116.204 E134.69563
G1 X113.917 Y116.201 E134.74134
G1 X113.861 Y116.322 E134.74489
G1 X113.861 Y118.675 E134.8075
G1 X113.904 Y118.768 E134.81023
G1 X113.971 Y118.798 E134.81218
G1 X115.544 Y118.799 E134.85403
G0 F9000 X115.228 Y118.399
;TYPE:WALL-INNER
G1 F600 X115.233 Y116.603 E134.90182
G1 X114.261 Y116.602 E134.92769
G1 X114.261 Y118.398 E134.97547
G1 X115.228 Y118.399 E135.0012
G0 F9000 X114.745 Y117.915
G1 F420.3 X114.746 Y117.088 E135.03262
G0 F9000 X114.623 Y117.087
G1 F2700 E129.53262
G0 F9000 X115.4 Y118.105
G0 X116.496 Y118.107
G0 X118.49 Y118.108
G0 X119.585 Y118.108
G0 X120.035 Y118.119
G0 X119.459 Y118.796
;TYPE:WALL-OUTER
G1 F2700 E135.03262
G1 F600 X121.068 Y118.799 E135.07543
G1 X121.136 Y118.688 E135.07889
G1 X121.136 Y116.302 E135.14238
G1 X121.032 Y116.204 E135.14618
G1 X119.356 Y116.201 E135.19078
G1 X119.353 Y118.693 E135.25708
G1 X119.459 Y118.796 E135.26102
G0 F9000 X120.035 Y118.119
G0 X120.459 Y118.12
G0 X120.736 Y118.399
;TYPE:WALL-INNER
G1 F600 X120.736 Y116.604 E135.30878
G1 X119.755 Y116.602 E135.33488
G1 X119.754 Y118.396 E135.38262
G1 X120.736 Y118.399 E135.40874
G0 F9000 X120.245 Y117.907
G1 F412.4 X120.245 Y117.093 E135.44026
G0 F9000 X120.365 Y117.213
G1 F2700 E129.94026
;MESH:NONMESH
G0 F300 X120.365 Y117.213 Z8.36
G0 F9000 X119.585 Y118.124
G0 X118.49 Y118.124
G0 X116.496 Y118.113
G0 X115.4 Y118.111
G0 X114.949 Y118.12
G0 X115.516 Y118.8
;TIME_ELAPSED:535.564337
;LAYER:51
;note -- min layer time used
;TYPE:WALL-OUTER
;MESH:C??ble chargeur.stl
G1 F2700 E135.44026
G1 F600 X115.652 Y118.705 E135.44467
G1 X115.652 Y116.2 E135.51133
G1 X114.018 Y116.2 E135.5548
G1 X113.951 Y116.229 E135.55675
G1 X113.908 Y116.327 E135.55959
G1 X113.908 Y118.669 E135.62191
G1 X113.951 Y118.765 E135.62471
G1 X114.021 Y118.796 E135.62675
G1 X115.516 Y118.8 E135.66653
G0 F9000 X115.252 Y118.399
;TYPE:WALL-INNER
G1 F600 X115.252 Y116.6 E135.71439
G1 X114.308 Y116.6 E135.73951
G1 X114.308 Y118.396 E135.7873
G1 X115.252 Y118.399 E135.81242
G0 F9000 X114.78 Y117.926
G1 F441.2 X114.78 Y117.072 E135.84332
G0 F9000 X114.642 Y117.072
G1 F2700 E130.34332
G0 F9000 X115.422 Y118.119
G0 X116.517 Y118.119
G0 X118.421 Y118.119
G0 X119.516 Y118.119
G0 X119.966 Y118.119
G0 X119.385 Y118.796
;TYPE:WALL-OUTER
G1 F2700 E135.84332
G1 F600 X121.015 Y118.799 E135.88669
G1 X121.084 Y118.688 E135.89017
G1 X121.084 Y116.31 E135.95344
G1 X120.986 Y116.2 E135.95736
G1 X119.284 Y116.2 E136.00265
G1 X119.285 Y118.69 E136.06891
G1 X119.385 Y118.796 E136.07278
G0 F9000 X119.966 Y118.119
G0 X120.407 Y118.12
G0 X120.684 Y118.399
;TYPE:WALL-INNER
G1 F600 X120.684 Y116.6 E136.12065
G1 X119.684 Y116.6 E136.14726
G1 X119.685 Y118.396 E136.19505
G1 X120.684 Y118.399 E136.22163
G0 F9000 X120.184 Y117.898
G1 F400 X120.184 Y117.1 E136.25348
G0 F9000 X120.077 Y117.1
G1 F2700 E130.75348
;MESH:NONMESH
G0 F300 X120.077 Y117.1 Z8.52
G0 F9000 X119.516 Y118.12
G0 X118.421 Y118.12
G0 X116.517 Y118.12
G0 X115.422 Y118.12
G0 X114.972 Y118.12
G0 X115.361 Y118.8
;TIME_ELAPSED:540.457586
;LAYER:52
;note -- min layer time used
;TYPE:WALL-OUTER
;MESH:C??ble chargeur.stl
G1 F2700 E136.25348
G1 F600 X115.572 Y118.686 E136.25986
G1 X115.568 Y116.325 E136.32268
G1 X115.461 Y116.24 E136.32632
G1 X115.303 Y116.2 E136.33065
G1 X114.092 Y116.2 E136.36288
G1 X113.968 Y116.298 E136.36708
G1 X113.968 Y118.697 E136.43092
G1 X114.097 Y118.8 E136.43531
G1 X115.361 Y118.8 E136.46894
G0 F9000 X115.171 Y118.4
;TYPE:WALL-INNER
G1 F600 X115.169 Y116.6 E136.51684
G1 X114.368 Y116.6 E136.53815
G1 X114.368 Y118.4 E136.58604
G1 X115.171 Y118.4 E136.60741
G0 F9000 X114.769 Y117.999
G1 F595.5 X114.769 Y117.001 E136.63416
G1 F2700 E131.13416
G0 F9000 X115.361 Y118.124
G0 X116.436 Y118.123
G0 X118.446 Y118.122
G0 X119.521 Y118.121
G0 X120.351 Y118.12
G0 X120.916 Y118.8
;TYPE:WALL-OUTER
G1 F2700 E136.63416
G1 F600 X121.028 Y118.685 E136.63843
G1 X121.028 Y116.311 E136.7016
G1 X120.957 Y116.2 E136.70511
G1 X119.46 Y116.2 E136.74494
G1 X119.308 Y116.25 E136.7492
G1 X119.308 Y118.706 E136.81455
G1 X119.422 Y118.796 E136.81841
G1 X120.916 Y118.8 E136.85816
G0 F9000 X120.628 Y118.399
;TYPE:WALL-INNER
G1 F600 X120.628 Y116.6 E136.90603
G1 X119.708 Y116.6 E136.93051
G1 X119.708 Y118.396 E136.9783
G1 X120.628 Y118.399 E137.00278
G0 F9000 X120.168 Y117.938
G1 F461.5 X120.168 Y117.06 E137.03315
G0 F9000 X120.021 Y117.061
G1 F2700 E131.53315
;MESH:NONMESH
G0 F300 X120.021 Y117.061 Z8.68
G0 F9000 X119.521 Y118.116
G0 X118.446 Y118.117
G0 X116.436 Y118.118
G0 X115.361 Y118.119
G0 X114.892 Y118.12
G0 X115.024 Y118.8
;TIME_ELAPSED:545.115571
;LAYER:53
;note -- min layer time used
;TYPE:WALL-OUTER
;MESH:C??ble chargeur.stl
G1 F2700 E137.03315
G1 F600 X115.233 Y118.749 E137.03887
G1 X115.328 Y118.663 E137.04228
G1 X115.328 Y116.327 E137.10444
G1 X115.27 Y116.26 E137.1068
G1 X115.02 Y116.2 E137.11364
G1 X114.149 Y116.2 E137.13682
G1 X114.036 Y116.311 E137.14103
G1 X114.036 Y118.685 E137.2042
G1 X114.151 Y118.8 E137.20853
G1 X115.024 Y118.8 E137.23175
G0 F9000 X114.905 Y118.377
;TYPE:WALL-INNER
G1 F538.1 X114.905 Y116.623 E137.28379
G1 X114.459 Y116.623 E137.29702
G1 X114.459 Y118.377 E137.34906
G1 X114.905 Y118.377 E137.36229
G1 F2700 E131.86229
G0 F9000 X114.65 Y118.12
G0 X115.101 Y118.116
G0 X116.196 Y118.116
G0 X118.606 Y118.116
G0 X119.701 Y118.116
G0 X120.151 Y118.12
G0 X119.881 Y118.8
;TYPE:WALL-OUTER
G1 F2700 E137.36229
G1 F600 X120.845 Y118.8 E137.38794
G1 X120.964 Y118.686 E137.39233
G1 X120.964 Y116.308 E137.4556
G1 X120.842 Y116.2 E137.45994
G1 X119.966 Y116.2 E137.48325
G1 X119.632 Y116.231 E137.49217
G1 X119.468 Y116.329 E137.49726
G1 X119.468 Y118.672 E137.5596
G1 X119.598 Y118.741 E137.56351
G1 X119.881 Y118.8 E137.57121
G0 F9000 X120.49 Y118.326
;TYPE:WALL-INNER
G1 F438 X120.49 Y116.674 E137.63143
G1 X119.942 Y116.679 E137.6514
G1 X119.942 Y118.326 E137.71144
G1 X120.49 Y118.326 E137.73142
G1 F2700 E132.23142
;MESH:NONMESH
G0 F300 X120.49 Y118.326 Z8.84
G0 F9000 X120.284 Y118.12
G0 X119.701 Y118.12
G0 X118.606 Y118.12
G0 X116.196 Y118.116
G0 X115.101 Y118.116
G0 X114.65 Y118.12
G0 X114.767 Y118.8
;TIME_ELAPSED:549.278762
;LAYER:54
;note -- min layer time used
;TYPE:WALL-OUTER
;MESH:C??ble chargeur.stl
G1 F2700 E137.73142
G1 F600 X115.009 Y118.74 E137.73805
G1 X115.072 Y118.673 E137.7405
G1 X115.072 Y116.324 E137.803
G1 X114.832 Y116.197 E137.81023
G1 X114.164 Y116.208 E137.828
G1 X114.108 Y116.324 E137.83143
G1 X114.109 Y118.717 E137.8951
G1 X114.235 Y118.8 E137.89912
G1 X114.767 Y118.8 E137.91327
G0 F9000 X114.59 Y118.318
;TYPE:WALL-INNER
G1 F425.5 X114.59 Y116.683 E137.97462
G1 F2700 E132.47462
G0 F9000 X114.844 Y118.491
G0 X115.939 Y118.491
G0 X118.937 Y118.491
G0 X120.213 Y118.8
;TYPE:WALL-OUTER
G1 F2700 E137.97462
G1 F600 X120.754 Y118.8 E137.98901
G1 X120.888 Y118.696 E137.99352
G1 X120.888 Y116.31 E138.05701
G1 X120.814 Y116.2 E138.06054
G1 X120.212 Y116.2 E138.07656
G1 X119.93 Y116.255 E138.0842
G1 X119.8 Y116.326 E138.08814
G1 X119.801 Y118.671 E138.15054
G1 X119.93 Y118.741 E138.15444
G1 X120.213 Y118.8 E138.16214
G0 F9000 X120.516 Y118.428
;TYPE:WALL-INNER
G1 F697.7 X120.516 Y116.572 E138.20461
G1 X120.172 Y116.572 E138.21248
G1 X120.172 Y118.428 E138.25495
G1 X120.516 Y118.428 E138.26282
G1 F2700 E132.76282
;MESH:NONMESH
G0 F300 X120.516 Y118.428 Z9
G0 F9000 X120.032 Y118.49
G0 X118.937 Y118.49
G0 X115.939 Y118.49
G0 X114.362 Y118.738
;TIME_ELAPSED:552.759905
;LAYER:55
;note -- min layer time used
;TYPE:WALL-OUTER
;MESH:C??ble chargeur.stl
G1 F2700 E138.26282
G1 F466.9 X114.687 Y118.691 E138.27405
G1 X114.759 Y118.628 E138.27732
G1 X114.759 Y116.348 E138.35528
G1 X114.637 Y116.283 E138.36
G1 X114.303 Y116.269 E138.37143
G1 X114.246 Y116.299 E138.37364
G1 X114.245 Y118.699 E138.45569
G1 X114.362 Y118.738 E138.45991
G1 F2700 E132.95991
G0 F9000 X114.466 Y118.502
G0 X115.683 Y118.483
G0 X119.267 Y118.483
G0 X120.497 Y118.723
G1 F2700 E138.45991
G1 F446.1 X120.666 Y118.723 E138.46596
G1 X120.736 Y118.685 E138.46881
G1 X120.739 Y116.319 E138.55348
G1 X120.589 Y116.259 E138.55927
G1 X120.282 Y116.32 E138.57047
G1 X120.201 Y116.365 E138.57378
G1 X120.202 Y118.631 E138.65488
G1 X120.497 Y118.723 E138.66594
G1 F2700 E133.16594
;MESH:NONMESH
G0 F300 X120.497 Y118.723 Z9.16
G0 F9000 X120.522 Y118.483
G0 X120.362 Y116.525
G0 X119.267 Y116.525
G0 X115.683 Y116.525
G0 X114.422 Y116.404
;TIME_ELAPSED:555.672429
;LAYER:56
;note -- min layer time used
;TYPE:WALL-OUTER
;MESH:C??ble chargeur.stl
G1 F2700 E138.66594
G1 F355 X114.422 Y118.608 E138.76505
G1 F2700 E133.26505
G0 F9000 X115.426 Y118.608
G0 X119.598 Y118.598
G0 X120.586 Y118.598
G1 F2700 E138.76505
G1 F367.5 X120.588 Y116.401 E138.86048
;TIME_ELAPSED:557.213426
G1 F2700 E133.36048
M140 S0
M107
G91 ;Relative positioning
G1 E-2 F2700 ;Retract a bit
G1 E-2 Z0.2 F2400 ;Retract and raise Z
G1 X5 Y5 F3000 ;Wipe out
G1 Z10 ;Raise Z more
G90 ;Absolute positioning

G1 X0 Y235 ;Present print
M106 S0 ;Turn-off fan
M104 S0 ;Turn-off hotend
M140 S0 ;Turn-off bed

M84 X Y E ;Disable all steppers but Z

M82 ;absolute extrusion mode
M104 S0
;End of Gcode
;SETTING_3 {"global_quality": "[general]\\nversion = 4\\nname = ender3v2-2026-cu
;SETTING_3 ra509\\ndefinition = creality_ender3\\n\\n[metadata]\\ntype = quality
;SETTING_3 _changes\\nquality_type = standard\\nsetting_version = 24\\n\\n[value
;SETTING_3 s]\\nadhesion_type = skirt\\ncarve_multiple_volumes = True\\nlayer_he
;SETTING_3 ight = 0.16\\nmaterial_bed_temperature = 60\\nmaterial_bed_temperatur
;SETTING_3 e_layer_0 = 65\\nsupport_enable = True\\nsupport_structure = tree\\n\
;SETTING_3 \n", "extruder_quality": ["[general]\\nversion = 4\\nname = ender3v2-
;SETTING_3 2026-cura509\\ndefinition = creality_ender3\\n\\n[metadata]\\ntype = 
;SETTING_3 quality_changes\\nquality_type = standard\\nintent_category = default
;SETTING_3 \\nposition = 0\\nsetting_version = 24\\n\\n[values]\\nbottom_layers 
;SETTING_3 = 3\\ninfill_pattern = grid\\ninfill_sparse_density = 1.0\\ninitial_l
;SETTING_3 ayer_line_width_factor = 120.0\\ninset_direction = ='outside_in' if (
;SETTING_3 True) else 'inside_out'\\nironing_only_highest_layer = True\\nmateria
;SETTING_3 l_print_temperature = 200.0\\nmeshfix_union_all = False\\nraft_margin
;SETTING_3  = 10.0\\nretraction_amount = 5.5\\nskin_monotonic = True\\nskirt_gap
;SETTING_3  = 5\\nspeed_print = 20.0\\nsupport_angle = 60\\nsupport_connect_zigz
;SETTING_3 ags = False\\nsupport_infill_rate = 12\\nsupport_pattern = lines\\nsu
;SETTING_3 pport_wall_count = 0\\ntop_layers = 3\\nwall_thickness = 1.6\\n\\n"]}
