;FLAVOR:Marlin
;TIME:678
;Filament used: 0.142384m
;Layer height: 0.16
;MINX:0
;MINY:0
;MINZ:0.2
;MAXX:138.337
;MAXY:128.7
;MAXZ:10.6
;TARGET_MACHINE.NAME:Creality Ender-3
;Generated with Cura_SteamEngine 5.9.0
M140 S65
M105
M190 S65
M104 S200
M105
M109 S200
M82 ;absolute extrusion mode
; Ender 3 Custom Start G-code
G92 E0 ; Reset Extruder
G28 ; Home all axes
G29 ;CRTouch
G1 Z2.0 F3000 ; Move Z Axis up little to prevent scratching of Heat Bed
G1 X0.1 Y20 Z0.3 F5000.0 ; Move to start position
G1 X0.1 Y200.0 Z0.3 F1500.0 E15 ; Draw the first line
G1 X0.4 Y200.0 Z0.3 F5000.0 ; Move to side a little
G1 X0.4 Y20 Z0.3 F1500.0 E30 ; Draw the second line
G92 E0 ; Reset Extruder
G1 Z2.0 F3000 ; Move Z Axis up little to prevent scratching of Heat Bed
G1 X5 Y20 Z0.3 F5000.0 ; Move over to prevent blob squish
G92 E0
G92 E0
G1 F2700 E-5.5
;LAYER_COUNT:66
;LAYER:0
M107
G0 F6000 X123.463 Y128.595 Z0.2
;TYPE:SKIRT
G1 F2700 E0
G1 F1200 X122.537 Y128.682 E0.03712
G1 X121.6 Y128.697 E0.07452
G1 X113.217 Y128.7 E0.40911
G1 X112.412 Y128.687 E0.44124
G1 X111.706 Y128.629 E0.46951
G1 X110.883 Y128.455 E0.50309
G1 X110.023 Y128.147 E0.53955
G1 X107.759 Y127.131 E0.63859
G1 X105.346 Y126.123 E0.74296
G1 X102.547 Y125.046 E0.86266
G1 X101.958 Y124.777 E0.88851
G1 X101.198 Y124.307 E0.92417
G1 X100.586 Y123.805 E0.95576
G1 X100.279 Y123.514 E0.97265
G1 X99.405 Y122.642 E1.02192
G1 X98.909 Y122.131 E1.05035
G1 X98.451 Y121.593 E1.07855
G1 X98.027 Y120.956 E1.10909
G1 X97.687 Y120.277 E1.13939
G1 X97.453 Y119.637 E1.16659
G1 X97.053 Y118.305 E1.2221
G1 X96.869 Y117.633 E1.24991
G1 X96.736 Y117 E1.27572
G1 X96.663 Y116.179 E1.30862
G1 X96.703 Y115.333 E1.34243
G1 X96.881 Y114.396 E1.38049
G1 X97.108 Y113.57 E1.41468
G1 X97.449 Y112.435 E1.46198
G1 X97.718 Y111.716 E1.49262
G1 X98.101 Y110.984 E1.52559
G1 X98.528 Y110.372 E1.55538
G1 X98.852 Y109.993 E1.57528
G1 X99.804 Y108.975 E1.63091
G1 X100.356 Y108.413 E1.66235
G1 X100.928 Y107.906 E1.69286
G1 X101.556 Y107.473 E1.7233
G1 X102.185 Y107.143 E1.75165
G1 X102.985 Y106.845 E1.78572
G1 X104.354 Y106.448 E1.84262
G1 X105.081 Y106.256 E1.87263
G1 X105.86 Y106.106 E1.90429
G1 X106.506 Y106.058 E1.93014
G1 X106.969 Y106.065 E1.94862
G1 X108.913 Y106.177 E2.02634
G1 X111.551 Y106.274 E2.1317
G1 X113.713 Y106.3 E2.218
G1 X120.78 Y106.301 E2.50006
G1 X123.428 Y106.262 E2.60576
G1 X126.078 Y106.148 E2.71162
G1 X128.018 Y106.033 E2.78919
G1 X128.665 Y106.033 E2.81501
G1 X129.518 Y106.137 E2.84931
G1 X129.901 Y106.223 E2.86497
G1 X130.855 Y106.472 E2.90433
G1 X132.038 Y106.816 E2.9535
G1 X132.647 Y107.035 E2.97933
G1 X133.439 Y107.435 E3.01474
G1 X133.975 Y107.797 E3.04056
G1 X134.682 Y108.416 E3.07806
G1 X135.284 Y109.035 E3.11252
G1 X136.192 Y110.011 E3.16573
G1 X136.638 Y110.559 E3.19393
G1 X137.047 Y111.205 E3.22445
G1 X137.389 Y111.935 E3.25662
G1 X137.542 Y112.373 E3.27514
G1 X137.752 Y113.059 E3.30377
G1 X138.105 Y114.305 E3.35546
G1 X138.274 Y115.114 E3.38845
G1 X138.337 Y115.879 E3.41908
G1 X138.309 Y116.591 E3.44752
G1 X138.147 Y117.529 E3.48551
G1 X137.99 Y118.129 E3.51027
G1 X137.562 Y119.619 E3.57214
G1 X137.289 Y120.366 E3.60388
G1 X136.939 Y121.047 E3.63444
G1 X136.545 Y121.631 E3.66256
G1 X136.066 Y122.194 E3.69206
G1 X135.527 Y122.75 E3.72297
G1 X134.606 Y123.659 E3.77462
G1 X133.978 Y124.198 E3.80765
G1 X133.324 Y124.627 E3.83887
G1 X132.536 Y125.005 E3.87375
G1 X130.255 Y125.877 E3.97121
G1 X127.777 Y126.894 E4.07812
G1 X126.291 Y127.564 E4.14318
G1 X124.933 Y128.157 E4.20232
G1 X124.159 Y128.436 E4.23516
G1 X123.463 Y128.595 E4.26366
G0 F6000 X123.356 Y128.127
G1 F1200 X122.529 Y128.202 E4.2968
G1 X121.6 Y128.217 E4.33388
G1 X113.224 Y128.22 E4.66819
G1 X112.448 Y128.208 E4.69916
G1 X111.803 Y128.159 E4.72498
G1 X111.044 Y128.003 E4.75591
G1 X110.22 Y127.709 E4.79082
G1 X107.956 Y126.693 E4.88987
G1 X105.531 Y125.68 E4.99476
G1 X102.746 Y124.609 E5.11385
G1 X102.157 Y124.34 E5.13969
G1 X101.502 Y123.935 E5.17043
G1 X100.916 Y123.456 E5.20064
G1 X100.618 Y123.174 E5.21701
G1 X99.749 Y122.308 E5.26598
G1 X99.273 Y121.818 E5.29324
G1 X98.851 Y121.327 E5.31909
G1 X98.427 Y120.69 E5.34963
G1 X98.138 Y120.112 E5.37542
G1 X97.913 Y119.499 E5.40148
G1 X97.516 Y118.178 E5.45653
G1 X97.339 Y117.534 E5.48319
G1 X97.206 Y116.901 E5.50901
G1 X97.141 Y116.138 E5.53957
G1 X97.175 Y115.422 E5.56818
G1 X97.344 Y114.523 E5.60469
G1 X97.568 Y113.708 E5.63842
G1 X97.909 Y112.573 E5.68572
G1 X98.144 Y111.937 E5.71279
G1 X98.496 Y111.257 E5.74335
G1 X98.893 Y110.684 E5.77117
G1 X99.203 Y110.321 E5.79022
G1 X100.147 Y109.311 E5.8454
G1 X100.676 Y108.771 E5.87557
G1 X101.202 Y108.3 E5.90375
G1 X101.782 Y107.897 E5.93194
G1 X102.353 Y107.593 E5.95776
G1 X103.153 Y107.295 E5.99183
G1 X104.477 Y106.912 E6.04684
G1 X105.204 Y106.72 E6.07685
G1 X105.896 Y106.585 E6.10499
G1 X106.542 Y106.537 E6.13085
G1 X106.941 Y106.544 E6.14677
G1 X108.895 Y106.657 E6.22489
G1 X111.533 Y106.754 E6.33025
G1 X113.707 Y106.78 E6.41703
G1 X120.787 Y106.781 E6.6996
G1 X123.449 Y106.742 E6.80586
G1 X126.103 Y106.628 E6.91189
G1 X126.515 Y106.597 E6.92838
G1 X126.681 Y106.594 E6.935
G1 X128.018 Y106.513 E6.98846
G1 X128.665 Y106.513 E7.01429
G1 X129.412 Y106.605 E7.04433
G1 X129.78 Y106.688 E7.05938
G1 X130.721 Y106.933 E7.09819
G1 X131.876 Y107.268 E7.14619
G1 X132.485 Y107.487 E7.17202
G1 X133.17 Y107.833 E7.20265
G1 X133.706 Y108.195 E7.22847
G1 X134.338 Y108.751 E7.26206
G1 X134.933 Y109.362 E7.2961
G1 X135.821 Y110.316 E7.34812
G1 X136.232 Y110.816 E7.37395
G1 X136.641 Y111.462 E7.40447
G1 X136.936 Y112.094 E7.43231
G1 X137.083 Y112.514 E7.45007
G1 X137.29 Y113.19 E7.47828
G1 X137.643 Y114.436 E7.52997
G1 X137.796 Y115.155 E7.55931
G1 X137.857 Y115.86 E7.58755
G1 X137.829 Y116.572 E7.61599
G1 X137.682 Y117.408 E7.64987
G1 X137.529 Y117.996 E7.67412
G1 X137.101 Y119.486 E7.736
G1 X136.861 Y120.149 E7.76414
G1 X136.541 Y120.779 E7.79234
G1 X136.147 Y121.363 E7.82046
G1 X135.721 Y121.86 E7.84658
G1 X135.19 Y122.408 E7.87704
G1 X134.269 Y123.317 E7.92869
G1 X133.712 Y123.798 E7.95806
G1 X133.116 Y124.194 E7.98662
G1 X132.328 Y124.572 E8.0215
G1 X130.073 Y125.433 E8.11784
G1 X127.58 Y126.456 E8.22539
G1 X126.099 Y127.124 E8.29024
G1 X124.741 Y127.717 E8.34938
G1 X124.052 Y127.968 E8.37865
G1 X123.356 Y128.127 E8.40714
G0 F6000 X123.312 Y127.649
G1 F1200 X122.521 Y127.722 E8.43885
G1 X121.6 Y127.737 E8.47561
G1 X113.231 Y127.74 E8.80964
G1 X112.484 Y127.729 E8.83945
G1 X111.839 Y127.68 E8.86527
G1 X111.205 Y127.551 E8.89109
G1 X110.417 Y127.271 E8.92447
G1 X108.153 Y126.255 E9.02351
G1 X105.716 Y125.237 E9.12893
G1 X102.945 Y124.172 E9.24741
G1 X102.356 Y123.903 E9.27325
G1 X101.805 Y123.563 E9.29909
G1 X101.246 Y123.108 E9.32786
G1 X100.957 Y122.834 E9.34376
G1 X100.093 Y121.973 E9.39244
G1 X99.637 Y121.505 E9.41852
G1 X99.215 Y121.014 E9.44436
G1 X98.856 Y120.475 E9.47021
G1 X98.567 Y119.897 E9.496
G1 X98.373 Y119.361 E9.51875
G1 X97.979 Y118.05 E9.57339
G1 X97.809 Y117.435 E9.59885
G1 X97.676 Y116.802 E9.62467
G1 X97.621 Y116.157 E9.65051
G1 X97.647 Y115.51 E9.67635
G1 X97.807 Y114.65 E9.71126
G1 X98.028 Y113.846 E9.74454
G1 X98.369 Y112.711 E9.79184
G1 X98.594 Y112.104 E9.81768
G1 X98.891 Y111.529 E9.84351
G1 X99.258 Y110.996 E9.86934
G1 X99.554 Y110.649 E9.88754
G1 X100.498 Y109.639 E9.94272
G1 X100.998 Y109.127 E9.97128
G1 X101.478 Y108.693 E9.99711
G1 X102.008 Y108.321 E10.02296
G1 X102.579 Y108.017 E10.04878
G1 X103.286 Y107.756 E10.07885
G1 X104.6 Y107.376 E10.13345
G1 X105.298 Y107.191 E10.16227
G1 X105.932 Y107.064 E10.18808
G1 X106.578 Y107.016 E10.21393
G1 X106.913 Y107.023 E10.2273
G1 X108.877 Y107.137 E10.30582
G1 X111.515 Y107.234 E10.41118
G1 X113.701 Y107.26 E10.49844
G1 X120.794 Y107.261 E10.78153
G1 X123.47 Y107.222 E10.88835
G1 X126.128 Y107.108 E10.99453
G1 X126.551 Y107.076 E11.01146
G1 X126.695 Y107.074 E11.01721
G1 X128.018 Y106.993 E11.07012
G1 X128.665 Y106.993 E11.09594
G1 X129.307 Y107.073 E11.12176
G1 X129.659 Y107.152 E11.13616
G1 X130.588 Y107.394 E11.17447
G1 X131.714 Y107.72 E11.22126
G1 X132.323 Y107.939 E11.24709
G1 X132.901 Y108.231 E11.27294
G1 X133.437 Y108.593 E11.29875
G1 X133.994 Y109.086 E11.32844
G1 X134.582 Y109.689 E11.36206
G1 X135.45 Y110.621 E11.41289
G1 X135.861 Y111.121 E11.43872
G1 X136.207 Y111.667 E11.46452
G1 X136.483 Y112.253 E11.49037
G1 X136.624 Y112.654 E11.50734
G1 X136.828 Y113.321 E11.53518
G1 X137.181 Y114.567 E11.58686
G1 X137.318 Y115.199 E11.61268
G1 X137.377 Y115.844 E11.63853
G1 X137.356 Y116.49 E11.66432
G1 X137.217 Y117.288 E11.69665
G1 X137.068 Y117.864 E11.7204
G1 X136.649 Y119.325 E11.78106
G1 X136.432 Y119.934 E11.80686
G1 X136.142 Y120.513 E11.83271
G1 X135.783 Y121.051 E11.85852
G1 X135.376 Y121.526 E11.88349
G1 X134.853 Y122.066 E11.91349
G1 X133.932 Y122.975 E11.96514
G1 X133.444 Y123.4 E11.99097
G1 X132.908 Y123.761 E12.01676
G1 X132.12 Y124.139 E12.05164
G1 X129.891 Y124.989 E12.14686
G1 X127.383 Y126.018 E12.25506
G1 X125.907 Y126.684 E12.31968
G1 X124.549 Y127.277 E12.37883
G1 X123.942 Y127.501 E12.40465
G1 X123.312 Y127.649 E12.43048
G1 F2700 E6.93048
G0 F6000 X112.236 Y123.16
G0 X106.677 Y116.052
G1 F2700 E12.43048
G1 F1200 X106.636 Y116.014 E12.43271
G1 X106.677 Y116.052 E12.43494
G0 F6000 X106.903 Y116.506
G1 F1200 X106.654 Y116.576 E12.44527
G1 X106.462 Y116.52 E12.45325
G1 X106.15 Y116.208 E12.47086
G1 X106.098 Y116.032 E12.47818
G1 X106.161 Y115.817 E12.48713
G1 X106.416 Y115.548 E12.50192
G1 X106.638 Y115.486 E12.51112
G1 X106.86 Y115.548 E12.52032
G1 X107.113 Y115.815 E12.535
G1 X107.181 Y116.048 E12.54469
G1 X107.111 Y116.298 E12.55505
G1 X106.903 Y116.506 E12.56679
G0 F6000 X107.151 Y116.936
G1 F1200 X106.652 Y117.076 E12.58747
G1 X106.211 Y116.947 E12.60581
G1 X105.724 Y116.46 E12.6333
G1 X105.599 Y116.031 E12.65114
G1 X105.733 Y115.57 E12.6703
G1 X106.158 Y115.123 E12.69491
G1 X106.638 Y114.988 E12.71482
G1 X107.118 Y115.123 E12.73472
G1 X107.542 Y115.569 E12.75928
G1 X107.681 Y116.047 E12.77915
G1 X107.541 Y116.546 E12.79983
G1 X107.151 Y116.936 E12.82184
G0 F6000 X106.648 Y117.575
G1 F1200 X105.957 Y117.373 E12.85058
G1 X105.298 Y116.714 E12.88778
G1 X105.098 Y116.031 E12.91618
G1 X105.304 Y115.325 E12.94553
G1 X105.901 Y114.696 E12.98015
G1 X106.638 Y114.489 E13.0107
G1 X107.375 Y114.696 E13.04125
G1 X107.97 Y115.324 E13.07578
G1 X108.18 Y116.043 E13.10568
G1 X107.968 Y116.799 E13.13701
G1 X107.404 Y117.363 E13.16885
G1 X106.648 Y117.575 E13.20019
G0 F6000 X106.646 Y118.073
G1 F1200 X105.704 Y117.798 E13.23935
G1 X104.871 Y116.965 E13.28637
G1 X104.598 Y116.033 E13.32513
G1 X104.877 Y115.077 E13.36488
G1 X105.643 Y114.27 E13.40929
G1 X106.638 Y113.991 E13.45053
G1 X107.633 Y114.27 E13.49178
G1 X108.399 Y115.077 E13.53619
G1 X108.679 Y116.04 E13.57621
G1 X108.397 Y117.048 E13.61799
G1 X107.653 Y117.792 E13.65998
G1 X106.646 Y118.073 E13.70171
G0 F6000 X106.643 Y118.573
G1 F1200 X105.454 Y118.226 E13.75115
G1 X104.445 Y117.217 E13.8081
G1 X104.098 Y116.032 E13.85738
G1 X104.448 Y114.833 E13.90723
G1 X105.388 Y113.842 E13.96175
G1 X106.638 Y113.492 E14.01356
G1 X107.888 Y113.842 E14.06537
G1 X108.828 Y114.833 E14.11988
G1 X109.178 Y116.036 E14.16989
G1 X108.825 Y117.298 E14.22219
G1 X107.903 Y118.22 E14.27423
G1 X106.643 Y118.573 E14.32646
G0 F6000 X106.641 Y119.072
G1 F1200 X105.2 Y118.652 E14.38636
G1 X104.019 Y117.471 E14.45302
G1 X103.598 Y116.033 E14.51283
G1 X104.02 Y114.586 E14.57299
G1 X105.13 Y113.416 E14.63735
G1 X106.638 Y112.993 E14.69986
G1 X108.146 Y113.416 E14.76238
G1 X109.256 Y114.587 E14.82677
G1 X109.678 Y116.035 E14.88697
G1 X109.254 Y117.549 E14.94972
G1 X108.154 Y118.649 E15.01181
G1 X106.641 Y119.072 E15.07451
G0 F6000 X106.637 Y119.572
G1 F1200 X104.949 Y119.079 E15.1447
G1 X103.592 Y117.722 E15.22129
G1 X103.098 Y116.033 E15.29153
G1 X103.592 Y114.34 E15.36192
G1 X104.872 Y112.99 E15.43617
G1 X106.638 Y112.495 E15.50937
G1 X108.404 Y112.99 E15.58257
G1 X109.684 Y114.34 E15.65682
G1 X110.177 Y116.032 E15.72716
G1 X109.682 Y117.799 E15.8004
G1 X108.404 Y119.077 E15.87254
G1 X106.637 Y119.572 E15.94578
G1 F2700 E10.44578
G0 F6000 X112.236 Y123.16
G0 X122.651 Y123.159
G0 X128.36 Y119.537
G1 F2700 E15.94578
G1 F1200 X126.672 Y119.044 E16.01596
G1 X125.315 Y117.687 E16.09256
G1 X124.821 Y115.998 E16.1628
G1 X125.315 Y114.305 E16.23318
G1 X126.595 Y112.955 E16.30744
G1 X128.361 Y112.46 E16.38064
G1 X130.127 Y112.955 E16.45384
G1 X131.407 Y114.305 E16.52809
G1 X131.9 Y115.997 E16.59843
G1 X131.405 Y117.764 E16.67167
G1 X130.127 Y119.042 E16.7438
G1 X128.36 Y119.537 E16.81704
G0 F6000 X128.364 Y119.037
G1 F1200 X126.923 Y118.617 E16.87695
G1 X125.742 Y117.436 E16.94361
G1 X125.321 Y115.998 E17.00341
G1 X125.743 Y114.551 E17.06357
G1 X126.853 Y113.381 E17.12794
G1 X128.361 Y112.958 E17.19045
G1 X129.869 Y113.381 E17.25296
G1 X130.979 Y114.552 E17.31736
G1 X131.401 Y116 E17.37756
G1 X130.977 Y117.514 E17.44031
G1 X129.877 Y118.614 E17.5024
G1 X128.364 Y119.037 E17.5651
G0 F6000 X128.366 Y118.538
G1 F1200 X127.177 Y118.191 E17.61454
G1 X126.168 Y117.182 E17.67149
G1 X125.821 Y115.997 E17.72077
G1 X126.171 Y114.798 E17.77062
G1 X127.111 Y113.807 E17.82514
G1 X128.361 Y113.457 E17.87695
G1 X129.611 Y113.807 E17.92876
G1 X130.551 Y114.798 E17.98327
G1 X130.901 Y116.001 E18.03328
G1 X130.548 Y117.263 E18.08558
G1 X129.626 Y118.185 E18.13762
G1 X128.366 Y118.538 E18.18985
G0 F6000 X128.369 Y118.038
G1 F1200 X127.427 Y117.763 E18.22901
G1 X126.594 Y116.93 E18.27603
G1 X126.321 Y115.998 E18.31479
G1 X126.6 Y115.042 E18.35454
G1 X127.366 Y114.235 E18.39895
G1 X128.361 Y113.956 E18.44019
G1 X129.356 Y114.235 E18.48144
G1 X130.122 Y115.042 E18.52585
G1 X130.402 Y116.005 E18.56587
G1 X130.12 Y117.013 E18.60765
G1 X129.376 Y117.757 E18.64964
G1 X128.369 Y118.038 E18.69137
G0 F6000 X128.371 Y117.54
G1 F1200 X127.68 Y117.338 E18.7201
G1 X127.021 Y116.679 E18.7573
G1 X126.821 Y115.996 E18.78571
G1 X127.027 Y115.29 E18.81506
G1 X127.624 Y114.661 E18.84967
G1 X128.361 Y114.454 E18.88022
G1 X129.098 Y114.661 E18.91078
G1 X129.693 Y115.289 E18.94531
G1 X129.903 Y116.008 E18.9752
G1 X129.691 Y116.764 E19.00654
G1 X129.127 Y117.328 E19.03837
G1 X128.371 Y117.54 E19.06971
G0 F6000 X128.874 Y116.901
G1 F1200 X128.375 Y117.041 E19.0904
G1 X127.934 Y116.912 E19.10874
G1 X127.447 Y116.425 E19.13622
G1 X127.322 Y115.996 E19.15406
G1 X127.456 Y115.535 E19.17322
G1 X127.881 Y115.088 E19.19784
G1 X128.361 Y114.953 E19.21774
G1 X128.841 Y115.088 E19.23764
G1 X129.265 Y115.534 E19.2622
G1 X129.404 Y116.012 E19.28207
G1 X129.264 Y116.511 E19.30275
G1 X128.874 Y116.901 E19.32477
G0 F6000 X128.626 Y116.471
G1 F1200 X128.377 Y116.541 E19.33509
G1 X128.185 Y116.485 E19.34307
G1 X127.873 Y116.173 E19.36068
G1 X127.821 Y115.997 E19.36801
G1 X127.884 Y115.782 E19.37695
G1 X128.139 Y115.513 E19.39174
G1 X128.361 Y115.451 E19.40094
G1 X128.583 Y115.513 E19.41014
G1 X128.836 Y115.78 E19.42482
G1 X128.904 Y116.013 E19.43451
G1 X128.834 Y116.263 E19.44487
G1 X128.626 Y116.471 E19.45661
G0 F6000 X128.4 Y116.017
G1 F1200 X128.359 Y115.979 E19.45885
G1 X128.4 Y116.017 E19.46108
G1 F2700 E13.96108
;MESH:C??ble chageur.stl
G0 F6000 X123.163 Y116.018
G0 X122.088 Y116.019
G0 X120.603 Y117.822
G0 X120.607 Y120.604
G0 X117.5 Y121.588
G0 X117.5 Y122.257
;TYPE:WALL-OUTER
G1 F2700 E19.46108
G1 F600 X122.259 Y122.256 E19.65102
G1 X122.256 Y112.74 E20.03082
G1 X112.74 Y112.74 E20.41063
G1 X112.74 Y122.259 E20.79055
G1 X117.5 Y122.257 E20.98053
G0 F6000 X117.5 Y121.778
;TYPE:WALL-INNER
G1 F600 X121.779 Y121.776 E21.15132
G1 X121.776 Y113.22 E21.4928
G1 X113.22 Y113.22 E21.83429
G1 X113.22 Y121.779 E22.1759
G1 X117.5 Y121.778 E22.34673
G0 F6000 X117.5 Y121.297
G1 F600 X121.299 Y121.296 E22.49835
G1 X121.296 Y113.7 E22.80152
G1 X113.7 Y113.7 E23.1047
G1 X113.7 Y121.299 E23.40799
G1 X117.5 Y121.297 E23.55966
G0 F6000 X117.5 Y120.817
G1 F600 X120.819 Y120.816 E23.69212
G1 X120.816 Y114.18 E23.95698
G1 X114.18 Y114.18 E24.22184
G1 X114.18 Y120.819 E24.48682
G1 X117.5 Y120.817 E24.61932
G0 F6000 X117.5 Y120.376
;TYPE:SKIN
G1 F600 X120.376 Y120.376 E24.73411
G1 X120.376 Y114.62 E24.96385
G1 X114.62 Y114.62 E25.19358
G1 X114.62 Y120.376 E25.42331
G1 X117.5 Y120.376 E25.53826
G0 F6000 X117.5 Y120.678
G0 X120.607 Y120.604
G0 X120.677 Y115.384
G0 X120.136 Y115.384
G1 F600 X119.612 Y114.86 E25.56784
G0 F6000 X118.933 Y114.86
G1 F600 X120.136 Y116.063 E25.63574
G0 F6000 X120.136 Y116.742
G1 F600 X118.254 Y114.86 E25.74197
G0 F6000 X117.576 Y114.86
G1 F600 X120.136 Y117.421 E25.8865
G0 F6000 X120.136 Y118.1
G1 F600 X116.897 Y114.86 E26.06935
G0 F6000 X116.218 Y114.86
G1 F600 X120.136 Y118.778 E26.2905
G0 F6000 X120.136 Y119.457
G1 F600 X115.539 Y114.86 E26.54997
G0 F6000 X114.86 Y114.86
G1 F600 X120.136 Y120.136 E26.84777
G0 F6000 X119.457 Y120.136
G1 F600 X114.86 Y115.538 E27.10727
G0 F6000 X114.86 Y116.217
G1 F600 X118.778 Y120.136 E27.32845
G0 F6000 X118.1 Y120.136
G1 F600 X114.86 Y116.896 E27.51133
G0 F6000 X114.86 Y117.575
G1 F600 X117.421 Y120.136 E27.65588
G0 F6000 X116.742 Y120.136
G1 F600 X114.86 Y118.254 E27.76211
G0 F6000 X114.86 Y118.933
G1 F600 X116.063 Y120.136 E27.83001
G0 F6000 X115.384 Y120.136
G1 F600 X114.86 Y119.611 E27.85962
G0 F6000 X113.94 Y119.611
G1 F2700 E22.35962
;MESH:NONMESH
G0 F300 X113.94 Y119.611 Z0.36
G0 F6000 X114.392 Y120.607
G0 X122.076 Y122.073
G0 X122.077 Y123.162
G0 X123.312 Y127.649
;TIME_ELAPSED:56.232144
;LAYER:1
M140 S60
M106 S85
;TYPE:SKIRT
G1 F2700 E27.85962
G1 F1200 X122.521 Y127.722 E27.88076
G1 X121.6 Y127.737 E27.90527
G1 X113.231 Y127.74 E28.12795
G1 X112.484 Y127.729 E28.14783
G1 X111.839 Y127.68 E28.16504
G1 X111.205 Y127.551 E28.18225
G1 X110.417 Y127.271 E28.20451
G1 X108.153 Y126.255 E28.27053
G1 X105.716 Y125.237 E28.34081
G1 X102.945 Y124.172 E28.4198
G1 X102.356 Y123.903 E28.43703
G1 X101.805 Y123.563 E28.45425
G1 X101.246 Y123.108 E28.47343
G1 X100.957 Y122.834 E28.48403
G1 X100.093 Y121.973 E28.51648
G1 X99.637 Y121.505 E28.53387
G1 X99.215 Y121.014 E28.5511
G1 X98.856 Y120.475 E28.56833
G1 X98.567 Y119.897 E28.58552
G1 X98.373 Y119.361 E28.60069
G1 X97.979 Y118.05 E28.63712
G1 X97.809 Y117.435 E28.65409
G1 X97.676 Y116.802 E28.6713
G1 X97.621 Y116.157 E28.68853
G1 X97.647 Y115.51 E28.70576
G1 X97.807 Y114.65 E28.72903
G1 X98.028 Y113.846 E28.75122
G1 X98.369 Y112.711 E28.78275
G1 X98.594 Y112.104 E28.79998
G1 X98.891 Y111.529 E28.8172
G1 X99.258 Y110.996 E28.83442
G1 X99.554 Y110.649 E28.84655
G1 X100.498 Y109.639 E28.88334
G1 X100.998 Y109.127 E28.90238
G1 X101.478 Y108.693 E28.9196
G1 X102.008 Y108.321 E28.93683
G1 X102.579 Y108.017 E28.95404
G1 X103.286 Y107.756 E28.97409
G1 X104.6 Y107.376 E29.01049
G1 X105.298 Y107.191 E29.0297
G1 X105.932 Y107.064 E29.04691
G1 X106.578 Y107.016 E29.06414
G1 X106.913 Y107.023 E29.07306
G1 X108.877 Y107.137 E29.12541
G1 X111.515 Y107.234 E29.19565
G1 X113.701 Y107.26 E29.25381
G1 X120.794 Y107.261 E29.44255
G1 X123.47 Y107.222 E29.51376
G1 X126.128 Y107.108 E29.58455
G1 X126.551 Y107.076 E29.59583
G1 X126.695 Y107.074 E29.59967
G1 X128.018 Y106.993 E29.63493
G1 X128.665 Y106.993 E29.65215
G1 X129.307 Y107.073 E29.66936
G1 X129.659 Y107.152 E29.67896
G1 X130.588 Y107.394 E29.70451
G1 X131.714 Y107.72 E29.7357
G1 X132.323 Y107.939 E29.75292
G1 X132.901 Y108.231 E29.77015
G1 X133.437 Y108.593 E29.78736
G1 X133.994 Y109.086 E29.80715
G1 X134.582 Y109.689 E29.82956
G1 X135.45 Y110.621 E29.86345
G1 X135.861 Y111.121 E29.88067
G1 X136.207 Y111.667 E29.89787
G1 X136.483 Y112.253 E29.91511
G1 X136.624 Y112.654 E29.92642
G1 X136.828 Y113.321 E29.94498
G1 X137.181 Y114.567 E29.97943
G1 X137.318 Y115.199 E29.99664
G1 X137.377 Y115.844 E30.01387
G1 X137.356 Y116.49 E30.03107
G1 X137.217 Y117.288 E30.05263
G1 X137.068 Y117.864 E30.06846
G1 X136.649 Y119.325 E30.1089
G1 X136.432 Y119.934 E30.1261
G1 X136.142 Y120.513 E30.14333
G1 X135.783 Y121.051 E30.16054
G1 X135.376 Y121.526 E30.17718
G1 X134.853 Y122.066 E30.19719
G1 X133.932 Y122.975 E30.23162
G1 X133.444 Y123.4 E30.24884
G1 X132.908 Y123.761 E30.26603
G1 X132.12 Y124.139 E30.28929
G1 X129.891 Y124.989 E30.35276
G1 X127.383 Y126.018 E30.42489
G1 X125.907 Y126.684 E30.46798
G1 X124.549 Y127.277 E30.50741
G1 X123.942 Y127.501 E30.52462
G1 X123.312 Y127.649 E30.54184
G1 F2700 E25.04184
G0 F7500 X126.468 Y119.824
G0 X126.654 Y119.185
;TYPE:SUPPORT
G1 F2700 E30.54184
G1 F600 X126.654 Y112.791 E30.71198
G1 F2700 E25.21198
G0 F7500 X126.475 Y112.153
G0 X128.361 Y111.624
G0 X130.166 Y112.129
G0 X129.987 Y112.77
G1 F2700 E30.71198
G1 F600 X129.987 Y119.229 E30.88384
G1 F2700 E25.38384
G0 F7500 X130.166 Y119.868
G0 X122.7 Y123.158
G0 X112.3 Y123.158
G0 X111.888 Y122.746
G0 X110.629 Y117.406
G0 X109.989 Y117.228
G1 F2700 E30.88384
G1 F600 X109.989 Y114.881 E30.94629
G1 F2700 E25.44629
G0 F7500 X110.627 Y114.695
G0 X110.402 Y113.927
G0 X108.836 Y112.276
G0 X106.835 Y111.713
G0 X106.656 Y112.354
G1 F2700 E30.94629
G1 F600 X106.656 Y119.714 E31.14212
G1 F2700 E25.64212
G0 F7500 X106.467 Y120.362
G0 X104.521 Y119.792
G0 X102.879 Y118.15
G0 X102.686 Y117.493
G0 X103.323 Y117.306
G1 F2700 E31.14212
G1 F600 X103.323 Y114.755 E31.21
G1 F2700 E25.71
;MESH:C??ble chageur.stl
G0 F7500 X102.685 Y114.569
G0 X102.874 Y113.927
G0 X104.44 Y112.276
G0 X106.638 Y111.659
G0 X108.836 Y112.276
G0 X111.837 Y114.754
G0 X112.912 Y114.753
G0 X114.072 Y120.924
G0 X117.5 Y121.587
G0 X117.5 Y122.296
;TYPE:WALL-OUTER
G1 F2700 E31.21
G1 F600 X122.296 Y122.296 E31.33761
G1 X122.296 Y112.7 E31.59294
G1 X112.7 Y112.7 E31.84828
G1 X112.7 Y122.296 E32.10361
G1 X117.5 Y122.296 E32.23133
G0 F7500 X117.5 Y121.896
;TYPE:WALL-INNER
G1 F600 X121.896 Y121.896 E32.3483
G1 X121.896 Y113.1 E32.58234
G1 X113.1 Y113.1 E32.81639
G1 X113.1 Y121.896 E33.05043
G1 X117.5 Y121.896 E33.16751
G0 F7500 X117.5 Y121.496
G1 F600 X121.496 Y121.496 E33.27383
G1 X121.496 Y113.5 E33.48659
G1 X113.5 Y113.5 E33.69935
G1 X113.5 Y121.496 E33.91211
G1 X117.5 Y121.496 E34.01854
G0 F7500 X117.5 Y121.096
G1 F600 X121.096 Y121.096 E34.11422
G1 X121.096 Y113.9 E34.30569
G1 X113.9 Y113.9 E34.49717
G1 X113.9 Y121.096 E34.68864
G1 X117.5 Y121.096 E34.78443
G0 F7500 X117.5 Y120.736
;TYPE:SKIN
G1 F600 X120.736 Y120.736 E34.87053
G1 X120.736 Y114.26 E35.04285
G1 X114.26 Y114.26 E35.21516
G1 X114.26 Y120.736 E35.38747
G1 X117.5 Y120.736 E35.47368
G0 F7500 X117.5 Y120.996
G0 X114.072 Y120.924
G0 X114 Y114.643
G0 X114.46 Y114.643
G1 F600 X114.643 Y114.46 E35.48057
G0 F7500 X115.208 Y114.46
G1 F600 X114.46 Y115.208 E35.50872
G0 F7500 X114.46 Y115.774
G1 F600 X115.774 Y114.46 E35.55816
G0 F7500 X116.34 Y114.46
G1 F600 X114.46 Y116.34 E35.62891
G0 F7500 X114.46 Y116.905
G1 F600 X116.905 Y114.46 E35.72091
G0 F7500 X117.471 Y114.46
G1 F600 X114.46 Y117.471 E35.83421
G0 F7500 X114.46 Y118.037
G1 F600 X118.037 Y114.46 E35.96881
G0 F7500 X118.602 Y114.46
G1 F600 X114.46 Y118.602 E36.12468
G0 F7500 X114.46 Y119.168
G1 F600 X119.168 Y114.46 E36.30183
G0 F7500 X119.734 Y114.46
G1 F600 X114.46 Y119.734 E36.50029
G0 F7500 X114.46 Y120.299
G1 F600 X120.299 Y114.46 E36.72001
G0 F7500 X120.536 Y114.79
G1 F600 X114.789 Y120.536 E36.93625
G0 F7500 X115.355 Y120.536
G1 F600 X120.536 Y115.355 E37.13121
G0 F7500 X120.536 Y115.921
G1 F600 X115.92 Y120.536 E37.30489
G0 F7500 X116.486 Y120.536
G1 F600 X120.536 Y116.487 E37.45727
G0 F7500 X120.536 Y117.052
G1 F600 X117.052 Y120.536 E37.58837
G0 F7500 X117.617 Y120.536
G1 F600 X120.536 Y117.618 E37.69819
G0 F7500 X120.536 Y118.184
G1 F600 X118.183 Y120.536 E37.78672
G0 F7500 X118.749 Y120.536
G1 F600 X120.536 Y118.749 E37.85396
G0 F7500 X120.536 Y119.315
G1 F600 X119.314 Y120.536 E37.89992
G0 F7500 X119.88 Y120.536
G1 F600 X120.536 Y119.881 E37.92459
G0 F7500 X120.536 Y120.446
G1 F600 X120.446 Y120.536 E37.92798
G0 F7500 X120.446 Y121.287
G1 F2700 E32.42798
;MESH:NONMESH
G0 F300 X120.446 Y121.287 Z0.52
G0 F7500 X122.073 Y122.073
G0 X122.073 Y123.162
G0 X123.312 Y127.649
;TIME_ELAPSED:96.889149
;LAYER:2
M106 S170
;TYPE:SKIRT
G1 F2700 E37.92798
G1 F1200 X122.521 Y127.722 E37.94911
G1 X121.6 Y127.737 E37.97362
G1 X113.231 Y127.74 E38.19631
G1 X112.484 Y127.729 E38.21618
G1 X111.839 Y127.68 E38.2334
G1 X111.205 Y127.551 E38.25061
G1 X110.417 Y127.271 E38.27286
G1 X108.153 Y126.255 E38.33889
G1 X105.716 Y125.237 E38.40917
G1 X102.945 Y124.172 E38.48815
G1 X102.356 Y123.903 E38.50538
G1 X101.805 Y123.563 E38.52261
G1 X101.246 Y123.108 E38.54179
G1 X100.957 Y122.834 E38.55239
G1 X100.093 Y121.973 E38.58484
G1 X99.637 Y121.505 E38.60223
G1 X99.215 Y121.014 E38.61946
G1 X98.856 Y120.475 E38.63669
G1 X98.567 Y119.897 E38.65388
G1 X98.373 Y119.361 E38.66905
G1 X97.979 Y118.05 E38.70547
G1 X97.809 Y117.435 E38.72245
G1 X97.676 Y116.802 E38.73966
G1 X97.621 Y116.157 E38.75689
G1 X97.647 Y115.51 E38.77412
G1 X97.807 Y114.65 E38.79739
G1 X98.028 Y113.846 E38.81958
G1 X98.369 Y112.711 E38.85111
G1 X98.594 Y112.104 E38.86834
G1 X98.891 Y111.529 E38.88556
G1 X99.258 Y110.996 E38.90278
G1 X99.554 Y110.649 E38.91491
G1 X100.498 Y109.639 E38.9517
G1 X100.998 Y109.127 E38.97074
G1 X101.478 Y108.693 E38.98796
G1 X102.008 Y108.321 E39.00519
G1 X102.579 Y108.017 E39.0224
G1 X103.286 Y107.756 E39.04245
G1 X104.6 Y107.376 E39.07885
G1 X105.298 Y107.191 E39.09806
G1 X105.932 Y107.064 E39.11527
G1 X106.578 Y107.016 E39.1325
G1 X106.913 Y107.023 E39.14142
G1 X108.877 Y107.137 E39.19376
G1 X111.515 Y107.234 E39.264
G1 X113.701 Y107.26 E39.32217
G1 X120.794 Y107.261 E39.5109
G1 X123.47 Y107.222 E39.58211
G1 X126.128 Y107.108 E39.6529
G1 X126.551 Y107.076 E39.66419
G1 X126.695 Y107.074 E39.66802
G1 X128.018 Y106.993 E39.70329
G1 X128.665 Y106.993 E39.72051
G1 X129.307 Y107.073 E39.73772
G1 X129.659 Y107.152 E39.74732
G1 X130.588 Y107.394 E39.77286
G1 X131.714 Y107.72 E39.80406
G1 X132.323 Y107.939 E39.82128
G1 X132.901 Y108.231 E39.83851
G1 X133.437 Y108.593 E39.85572
G1 X133.994 Y109.086 E39.87551
G1 X134.582 Y109.689 E39.89792
G1 X135.45 Y110.621 E39.93181
G1 X135.861 Y111.121 E39.94903
G1 X136.207 Y111.667 E39.96623
G1 X136.483 Y112.253 E39.98346
G1 X136.624 Y112.654 E39.99477
G1 X136.828 Y113.321 E40.01333
G1 X137.181 Y114.567 E40.04779
G1 X137.318 Y115.199 E40.065
G1 X137.377 Y115.844 E40.08223
G1 X137.356 Y116.49 E40.09943
G1 X137.217 Y117.288 E40.12098
G1 X137.068 Y117.864 E40.13681
G1 X136.649 Y119.325 E40.17726
G1 X136.432 Y119.934 E40.19446
G1 X136.142 Y120.513 E40.21169
G1 X135.783 Y121.051 E40.2289
G1 X135.376 Y121.526 E40.24554
G1 X134.853 Y122.066 E40.26554
G1 X133.932 Y122.975 E40.29998
G1 X133.444 Y123.4 E40.31719
G1 X132.908 Y123.761 E40.33439
G1 X132.12 Y124.139 E40.35764
G1 X129.891 Y124.989 E40.42112
G1 X127.383 Y126.018 E40.49325
G1 X125.907 Y126.684 E40.53634
G1 X124.549 Y127.277 E40.57577
G1 X123.942 Y127.501 E40.59298
G1 X123.312 Y127.649 E40.6102
G1 F2700 E35.1102
G0 F9000 X126.468 Y119.721
G0 X126.654 Y119.082
;TYPE:SUPPORT
G1 F2700 E40.6102
G1 F600 X126.654 Y112.895 E40.77483
G1 F2700 E35.27483
G0 F9000 X126.475 Y112.256
G0 X128.361 Y111.727
G0 X130.166 Y112.233
G0 X129.987 Y112.873
G1 F2700 E40.77483
G1 F600 X129.987 Y119.125 E40.94118
G1 F2700 E35.44118
G0 F9000 X130.166 Y119.764
G0 X122.693 Y123.159
G0 X112.295 Y123.158
G0 X111.886 Y122.74
G0 X110.63 Y117.035
G0 X109.989 Y116.857
G1 F2700 E40.94118
G1 F600 X109.989 Y115.238 E40.98426
G1 F2700 E35.48426
G0 F9000 X110.627 Y115.052
G0 X110.313 Y113.977
G0 X108.784 Y112.365
G0 X106.835 Y111.816
G0 X106.656 Y112.457
G1 F2700 E40.98426
G1 F600 X106.656 Y119.61 E41.17459
G1 F2700 E35.67459
G0 F9000 X106.467 Y120.258
G0 X104.571 Y119.703
G0 X102.968 Y118.1
G0 X102.686 Y117.14
G0 X103.323 Y116.953
G1 F2700 E41.17459
G1 F600 X103.323 Y115.109 E41.22365
G1 F2700 E35.72365
;MESH:C??ble chageur.stl
G0 F9000 X102.685 Y114.923
G0 X102.964 Y113.977
G0 X104.492 Y112.365
G0 X106.638 Y111.762
G0 X108.784 Y112.365
G0 X111.838 Y115.109
G0 X112.913 Y115.108
G0 X114.072 Y120.924
G0 X117.5 Y121.587
G0 X117.5 Y122.296
;TYPE:WALL-OUTER
G1 F2700 E41.22365
G1 F600 X122.296 Y122.296 E41.35126
G1 X122.296 Y112.7 E41.6066
G1 X112.7 Y112.7 E41.86193
G1 X112.7 Y122.296 E42.11726
G1 X117.5 Y122.296 E42.24498
G0 F9000 X117.5 Y121.896
;TYPE:WALL-INNER
G1 F600 X121.896 Y121.896 E42.36195
G1 X121.896 Y113.1 E42.59599
G1 X113.1 Y113.1 E42.83004
G1 X113.1 Y121.896 E43.06408
G1 X117.5 Y121.896 E43.18116
G0 F9000 X117.5 Y121.496
G1 F600 X121.496 Y121.496 E43.28748
G1 X121.496 Y113.5 E43.50024
G1 X113.5 Y113.5 E43.713
G1 X113.5 Y121.496 E43.92576
G1 X117.5 Y121.496 E44.03219
G0 F9000 X117.5 Y121.096
G1 F600 X121.096 Y121.096 E44.12787
G1 X121.096 Y113.9 E44.31935
G1 X113.9 Y113.9 E44.51082
G1 X113.9 Y121.096 E44.70229
G1 X117.5 Y121.096 E44.79808
G0 F9000 X117.5 Y120.736
;TYPE:SKIN
G1 F600 X120.736 Y120.736 E44.88418
G1 X120.736 Y114.26 E45.0565
G1 X114.26 Y114.26 E45.22881
G1 X114.26 Y120.736 E45.40113
G1 X117.5 Y120.736 E45.48734
G0 F9000 X117.5 Y120.996
G0 X120.924 Y120.924
G0 X120.996 Y114.879
G0 X120.536 Y114.879
G1 F600 X120.117 Y114.46 E45.5031
G0 F9000 X119.551 Y114.46
G1 F600 X120.536 Y115.445 E45.54017
G0 F9000 X120.536 Y116.011
G1 F600 X118.986 Y114.46 E45.59851
G0 F9000 X118.42 Y114.46
G1 F600 X120.536 Y116.576 E45.67814
G0 F9000 X120.536 Y117.142
G1 F600 X117.854 Y114.46 E45.77906
G0 F9000 X117.289 Y114.46
G1 F600 X120.536 Y117.708 E45.90126
G0 F9000 X120.536 Y118.274
G1 F600 X116.723 Y114.46 E46.04476
G0 F9000 X116.157 Y114.46
G1 F600 X120.536 Y118.839 E46.20954
G0 F9000 X120.536 Y119.405
G1 F600 X115.591 Y114.46 E46.39562
G0 F9000 X115.026 Y114.46
G1 F600 X120.536 Y119.971 E46.60298
G0 F9000 X120.536 Y120.536
G1 F600 X114.46 Y114.46 E46.83161
G0 F9000 X114.46 Y115.026
G1 F600 X119.97 Y120.536 E47.03895
G0 F9000 X119.404 Y120.536
G1 F600 X114.46 Y115.591 E47.22501
G0 F9000 X114.46 Y116.157
G1 F600 X118.838 Y120.536 E47.38977
G0 F9000 X118.273 Y120.536
G1 F600 X114.46 Y116.723 E47.53325
G0 F9000 X114.46 Y117.289
G1 F600 X117.707 Y120.536 E47.65544
G0 F9000 X117.141 Y120.536
G1 F600 X114.46 Y117.854 E47.75634
G0 F9000 X114.46 Y118.42
G1 F600 X116.576 Y120.536 E47.83596
G0 F9000 X116.01 Y120.536
G1 F600 X114.46 Y118.986 E47.89429
G0 F9000 X114.46 Y119.551
G1 F600 X115.444 Y120.536 E47.93134
G0 F9000 X114.879 Y120.536
G1 F600 X114.46 Y120.117 E47.9471
G0 F9000 X113.713 Y120.118
G1 F2700 E42.4471
;MESH:NONMESH
G0 F300 X113.713 Y120.118 Z0.68
G0 F9000 X112.913 Y115.46
G0 X111.838 Y115.461
G0 X108.784 Y112.365
G0 X106.638 Y111.762
G0 X104.492 Y112.365
G0 X102.964 Y113.977
G0 X102.59 Y115.247
G0 X103.323 Y115.461
;TIME_ELAPSED:137.808333
;LAYER:3
M106 S255
;TYPE:SUPPORT
G1 F2700 E47.9471
G1 F600 X103.323 Y116.602 E47.97746
G1 F2700 E42.47746
G0 F9000 X102.686 Y116.789
G0 X103.056 Y118.051
G0 X104.62 Y119.615
G0 X106.467 Y120.156
G0 X106.656 Y119.508
G1 F2700 E47.97746
G1 F600 X106.656 Y112.56 E48.16234
G1 F2700 E42.66234
G0 F9000 X106.835 Y111.919
G0 X108.733 Y112.453
G0 X110.225 Y114.026
G0 X110.627 Y115.402
G0 X109.989 Y115.588
G1 F2700 E48.16234
G1 F600 X109.989 Y116.492 E48.18639
G1 F2700 E42.68639
G0 F9000 X110.63 Y116.67
G0 X111.842 Y122.7
G0 X112.3 Y123.158
G0 X122.7 Y123.158
G0 X126.184 Y119.423
G0 X126.654 Y118.953
G1 F2700 E48.18639
G1 F600 X126.654 Y112.997 E48.34487
G1 F2700 E42.84487
G0 F9000 X126.475 Y112.359
G0 X128.361 Y111.83
G0 X130.166 Y112.335
G0 X129.987 Y112.976
G1 F2700 E48.34487
G1 F600 X129.987 Y119.023 E48.50577
G1 F2700 E43.00577
;MESH:C??ble chageur.stl
G0 F9000 X130.166 Y119.662
G0 X128.355 Y120.168
G0 X123.162 Y119.023
G0 X122.067 Y119.023
G0 X117.5 Y121.587
G0 X117.5 Y122.296
;TYPE:WALL-OUTER
G1 F2700 E48.50577
G1 F600 X122.296 Y122.296 E48.63338
G1 X122.296 Y112.7 E48.88871
G1 X112.7 Y112.7 E49.14404
G1 X112.7 Y122.296 E49.39937
G1 X117.5 Y122.296 E49.52709
G0 F9000 X117.5 Y121.896
;TYPE:WALL-INNER
G1 F600 X121.896 Y121.896 E49.64406
G1 X121.896 Y113.1 E49.87811
G1 X113.1 Y113.1 E50.11215
G1 X113.1 Y121.896 E50.3462
G1 X117.5 Y121.896 E50.46327
G0 F9000 X117.5 Y121.496
G1 F600 X121.496 Y121.496 E50.5696
G1 X121.496 Y113.5 E50.78236
G1 X113.5 Y113.5 E50.99512
G1 X113.5 Y121.496 E51.20787
G1 X117.5 Y121.496 E51.31431
G0 F9000 X117.5 Y121.096
G1 F600 X121.096 Y121.096 E51.40999
G1 X121.096 Y113.9 E51.60146
G1 X113.9 Y113.9 E51.79293
G1 X113.9 Y121.096 E51.98441
G1 X117.5 Y121.096 E52.08019
G0 F9000 X121.016 Y121.016
;TYPE:FILL
G1 F1200 X113.98 Y113.98 E52.34496
G0 F9000 X113.984 Y121.016
G1 F1200 X121.016 Y113.984 E52.60957
G1 F2700 E47.10957
;MESH:NONMESH
G0 F300 X121.016 Y113.984 Z0.84
G0 F9000 X112.927 Y112.927
G0 X111.838 Y112.927
G0 X106.858 Y111.926
G0 X106.656 Y112.65
;TIME_ELAPSED:159.902494
;LAYER:4
;TYPE:SUPPORT
G1 F2700 E52.60957
G1 F600 X106.656 Y119.418 E52.78965
G1 F2700 E47.28965
G0 F9000 X106.467 Y120.066
G0 X104.663 Y119.537
G0 X103.134 Y118.008
G0 X102.686 Y116.482
G0 X103.323 Y116.295
G1 F2700 E52.78965
G1 F600 X103.323 Y115.769 E52.80365
G1 F2700 E47.30365
G0 F9000 X102.685 Y115.583
G0 X103.13 Y114.069
G0 X104.588 Y112.531
G0 X106.638 Y111.955
G0 X108.688 Y112.531
G0 X110.147 Y114.069
G0 X110.627 Y115.712
G0 X109.989 Y115.898
G1 F2700 E52.80365
G1 F600 X109.989 Y116.171 E52.81091
G1 F2700 E47.31091
G0 F9000 X110.629 Y116.349
G0 X111.842 Y122.7
G0 X112.3 Y123.158
G0 X122.7 Y123.158
G0 X126.184 Y119.302
G0 X126.654 Y118.832
G1 F2700 E52.81091
G1 F600 X126.654 Y113.097 E52.96351
G1 F2700 E47.46351
G0 F9000 X126.472 Y112.45
G0 X128.361 Y111.92
G0 X130.166 Y112.426
G0 X129.987 Y113.066
G1 F2700 E52.96351
G1 F600 X129.987 Y118.932 E53.11959
G1 F2700 E47.61959
;MESH:C??ble chageur.stl
G0 F9000 X130.166 Y119.571
G0 X128.355 Y120.078
G0 X123.162 Y118.932
G0 X122.067 Y118.932
G0 X117.5 Y121.587
G0 X117.5 Y122.296
;TYPE:WALL-OUTER
G1 F2700 E53.11959
G1 F600 X122.296 Y122.296 E53.2472
G1 X122.296 Y112.7 E53.50253
G1 X112.7 Y112.7 E53.75787
G1 X112.7 Y122.296 E54.0132
G1 X117.5 Y122.296 E54.14092
G0 F9000 X117.5 Y121.896
;TYPE:WALL-INNER
G1 F600 X121.896 Y121.896 E54.25789
G1 X121.896 Y113.1 E54.49193
G1 X113.1 Y113.1 E54.72598
G1 X113.1 Y121.896 E54.96002
G1 X117.5 Y121.896 E55.0771
G0 F9000 X117.5 Y121.496
G1 F600 X121.496 Y121.496 E55.18342
G1 X121.496 Y113.5 E55.39618
G1 X113.5 Y113.5 E55.60894
G1 X113.5 Y121.496 E55.8217
G1 X117.5 Y121.496 E55.92813
G0 F9000 X117.5 Y121.096
G1 F600 X121.096 Y121.096 E56.02381
G1 X121.096 Y113.9 E56.21528
G1 X113.9 Y113.9 E56.40676
G1 X113.9 Y121.096 E56.59823
G1 X117.5 Y121.096 E56.69402
G0 F9000 X121.016 Y121.016
;TYPE:FILL
G1 F1200 X113.98 Y113.98 E56.95878
G0 F9000 X113.984 Y121.016
G1 F1200 X121.016 Y113.984 E57.22339
G1 F2700 E51.72339
;MESH:NONMESH
G0 F300 X121.016 Y113.984 Z1
G0 F9000 X112.927 Y112.927
G0 X111.838 Y112.927
G0 X106.84 Y112.011
G0 X106.656 Y112.67
;TIME_ELAPSED:182.040785
;LAYER:5
;TYPE:SUPPORT
G1 F2700 E57.22339
G1 F600 X106.656 Y119.398 E57.40241
G1 F2700 E51.90241
G0 F9000 X106.467 Y120.046
G0 X104.673 Y119.52
G0 X103.151 Y117.998
G0 X102.686 Y116.414
G0 X103.323 Y116.227
G1 F2700 E57.40241
G1 F600 X103.323 Y115.838 E57.41276
G1 F2700 E51.91276
G0 F9000 X102.685 Y115.652
G0 X103.149 Y114.077
G0 X104.596 Y112.548
G0 X106.638 Y111.975
G0 X108.68 Y112.548
G0 X110.128 Y114.077
G0 X110.626 Y115.779
G0 X109.989 Y115.966
G1 F2700 E57.41276
G1 F600 X109.989 Y116.099 E57.4163
G1 F2700 E51.9163
G0 F9000 X110.629 Y116.277
G0 X111.841 Y122.696
G0 X112.298 Y123.158
G0 X122.696 Y123.159
G0 X126.184 Y119.275
G0 X126.654 Y118.805
G1 F2700 E57.4163
G1 F600 X126.654 Y113.123 E57.56749
G1 F2700 E52.06749
G0 F9000 X126.471 Y112.47
G0 X128.361 Y111.94
G0 X130.165 Y112.445
G0 X129.987 Y113.085
G1 F2700 E57.56749
G1 F600 X129.987 Y118.913 E57.72256
G1 F2700 E52.22256
;MESH:C??ble chageur.stl
G0 F9000 X130.166 Y119.553
G0 X128.355 Y120.058
G0 X123.162 Y118.913
G0 X122.067 Y118.913
G0 X117.5 Y121.587
G0 X117.5 Y122.296
;TYPE:WALL-OUTER
G1 F2700 E57.72256
G1 F600 X122.296 Y122.296 E57.85017
G1 X122.296 Y112.7 E58.1055
G1 X112.7 Y112.7 E58.36083
G1 X112.7 Y122.296 E58.61616
G1 X117.5 Y122.296 E58.74388
G0 F9000 X117.5 Y121.896
;TYPE:WALL-INNER
G1 F600 X121.896 Y121.896 E58.86085
G1 X121.896 Y113.1 E59.0949
G1 X113.1 Y113.1 E59.32894
G1 X113.1 Y121.896 E59.56299
G1 X117.5 Y121.896 E59.68006
G0 F9000 X117.5 Y121.496
G1 F600 X121.496 Y121.496 E59.78639
G1 X121.496 Y113.5 E59.99915
G1 X113.5 Y113.5 E60.21191
G1 X113.5 Y121.496 E60.42466
G1 X117.5 Y121.496 E60.5311
G0 F9000 X117.5 Y121.096
G1 F600 X121.096 Y121.096 E60.62678
G1 X121.096 Y113.9 E60.81825
G1 X113.9 Y113.9 E61.00972
G1 X113.9 Y121.096 E61.2012
G1 X117.5 Y121.096 E61.29699
G0 F9000 X121.016 Y121.016
;TYPE:FILL
G1 F1200 X113.98 Y113.98 E61.56175
G0 F9000 X113.984 Y121.016
G1 F1200 X121.016 Y113.984 E61.82636
G1 F2700 E56.32636
;MESH:NONMESH
G0 F300 X121.016 Y113.984 Z1.16
G0 F9000 X112.927 Y112.927
G0 X111.838 Y112.927
G0 X106.839 Y112.03
G0 X106.656 Y112.689
;TIME_ELAPSED:204.143190
;LAYER:6
;TYPE:SUPPORT
G1 F2700 E61.82636
G1 F600 X106.656 Y119.379 E62.00437
G1 F2700 E56.50437
G0 F9000 X106.467 Y120.027
G0 X104.682 Y119.504
G0 X103.167 Y117.989
G0 X102.686 Y116.349
G0 X103.323 Y116.162
G1 F2700 E62.00437
G1 F600 X103.323 Y115.902 E62.01128
G1 F2700 E56.51128
G0 F9000 X102.685 Y115.717
G0 X103.162 Y114.088
G0 X104.608 Y112.564
G0 X106.638 Y111.994
G0 X112.3 Y111.842
G0 X122.7 Y111.842
G0 X126.171 Y112.695
G0 X126.654 Y113.151
G1 F2700 E62.01128
G1 F600 X126.654 Y118.78 E62.16106
G1 F2700 E56.66106
G0 F9000 X126.449 Y119.484
G0 X128.355 Y120.039
G0 X130.166 Y119.533
G0 X129.987 Y118.894
G1 F2700 E62.16106
G1 F600 X129.987 Y113.105 E62.3151
G1 F2700 E56.8151
;MESH:C??ble chageur.stl
G0 F9000 X130.166 Y112.464
G0 X128.361 Y111.959
G0 X123.162 Y113.105
G0 X122.067 Y113.105
G0 X117.5 Y121.587
G0 X117.5 Y122.296
;TYPE:WALL-OUTER
G1 F2700 E62.3151
G1 F600 X122.296 Y122.296 E62.44271
G1 X122.296 Y112.7 E62.69804
G1 X112.7 Y112.7 E62.95337
G1 X112.7 Y122.296 E63.2087
G1 X117.5 Y122.296 E63.33642
G0 F9000 X117.5 Y121.896
;TYPE:WALL-INNER
G1 F600 X121.896 Y121.896 E63.45339
G1 X121.896 Y113.1 E63.68744
G1 X113.1 Y113.1 E63.92148
G1 X113.1 Y121.896 E64.15552
G1 X117.5 Y121.896 E64.2726
G0 F9000 X117.5 Y121.496
G1 F600 X121.496 Y121.496 E64.37893
G1 X121.496 Y113.5 E64.59168
G1 X113.5 Y113.5 E64.80444
G1 X113.5 Y121.496 E65.0172
G1 X117.5 Y121.496 E65.12363
G0 F9000 X117.5 Y121.096
G1 F600 X121.096 Y121.096 E65.21932
G1 X121.096 Y113.9 E65.41079
G1 X113.9 Y113.9 E65.60226
G1 X113.9 Y121.096 E65.79373
G1 X117.5 Y121.096 E65.88952
G0 F9000 X121.016 Y121.016
;TYPE:FILL
G1 F1200 X113.98 Y113.98 E66.15428
G0 F9000 X113.984 Y121.016
G1 F1200 X121.016 Y113.984 E66.41889
G1 F2700 E60.91889
;MESH:NONMESH
G0 F300 X121.016 Y113.984 Z1.32
G0 F9000 X112.927 Y112.927
G0 X111.838 Y112.927
G0 X106.84 Y112.049
G0 X106.656 Y112.709
;TIME_ELAPSED:225.270018
;LAYER:7
;TYPE:SUPPORT
G1 F2700 E66.41889
G1 F600 X106.656 Y119.358 E66.59581
G1 F2700 E61.09581
G0 F9000 X106.467 Y120.006
G0 X104.692 Y119.486
G0 X103.185 Y117.979
G0 X102.686 Y116.281
G0 X103.323 Y116.094
G1 F2700 E66.59581
G1 F600 X103.323 Y115.971 E66.59908
G1 F2700 E61.09908
G0 F9000 X102.685 Y115.785
G0 X102.614 Y116.033
G0 X103.185 Y117.979
G0 X104.692 Y119.486
G0 X112.3 Y123.158
G0 X122.7 Y123.158
G0 X126.184 Y119.222
G0 X126.654 Y118.752
G1 F2700 E66.59908
G1 F600 X126.654 Y113.18 E66.74735
G1 F2700 E61.24735
G0 F9000 X126.466 Y112.511
G0 X128.361 Y111.979
G0 X130.166 Y112.485
G0 X129.987 Y113.126
G1 F2700 E66.74735
G1 F600 X129.987 Y118.873 E66.90026
G1 F2700 E61.40026
;MESH:C??ble chageur.stl
G0 F9000 X130.166 Y119.512
G0 X128.355 Y120.018
G0 X123.162 Y118.873
G0 X122.067 Y118.873
G0 X117.5 Y121.587
G0 X117.5 Y122.296
;TYPE:WALL-OUTER
G1 F2700 E66.90026
G1 F600 X122.296 Y122.296 E67.02787
G1 X122.296 Y112.7 E67.28321
G1 X112.7 Y112.7 E67.53854
G1 X112.7 Y122.296 E67.79387
G1 X117.5 Y122.296 E67.92159
G0 F9000 X117.5 Y121.896
;TYPE:WALL-INNER
G1 F600 X121.896 Y121.896 E68.03856
G1 X121.896 Y113.1 E68.2726
G1 X113.1 Y113.1 E68.50665
G1 X113.1 Y121.896 E68.74069
G1 X117.5 Y121.896 E68.85777
G0 F9000 X117.5 Y121.496
G1 F600 X121.496 Y121.496 E68.96409
G1 X121.496 Y113.5 E69.17685
G1 X113.5 Y113.5 E69.38961
G1 X113.5 Y121.496 E69.60237
G1 X117.5 Y121.496 E69.7088
G0 F9000 X117.5 Y121.096
G1 F600 X121.096 Y121.096 E69.80448
G1 X121.096 Y113.9 E69.99596
G1 X113.9 Y113.9 E70.18743
G1 X113.9 Y121.096 E70.3789
G1 X117.5 Y121.096 E70.47469
G0 F9000 X121.016 Y121.016
;TYPE:FILL
G1 F1200 X113.98 Y113.98 E70.73945
G0 F9000 X113.984 Y121.016
G1 F1200 X121.016 Y113.984 E71.00406
G1 F2700 E65.50406
;MESH:NONMESH
G0 F300 X121.016 Y113.984 Z1.48
G0 F9000 X112.926 Y112.927
G0 X111.838 Y112.928
G0 X106.84 Y112.07
G0 X106.656 Y112.728
;TIME_ELAPSED:246.465821
;LAYER:8
;TYPE:SUPPORT
G1 F2700 E71.00406
G1 F600 X106.656 Y119.34 E71.17999
G1 F2700 E65.67999
G0 F9000 X106.835 Y119.979
G0 X112.3 Y123.158
G0 X122.7 Y123.158
G0 X126.184 Y119.197
G0 X126.654 Y118.727
G1 F2700 E71.17999
G1 F600 X126.654 Y113.203 E71.32698
G1 F2700 E65.82698
G0 F9000 X126.465 Y112.529
G0 X128.361 Y111.998
G0 X130.166 Y112.503
G0 X129.987 Y113.144
G1 F2700 E71.32698
G1 F600 X129.987 Y118.854 E71.47891
G1 F2700 E65.97891
;MESH:C??ble chageur.stl
G0 F9000 X130.166 Y119.493
G0 X128.355 Y120
G0 X123.162 Y118.854
G0 X122.067 Y118.854
G0 X117.5 Y121.587
G0 X117.5 Y122.296
;TYPE:WALL-OUTER
G1 F2700 E71.47891
G1 F600 X122.296 Y122.296 E71.60652
G1 X122.296 Y112.7 E71.86185
G1 X112.7 Y112.7 E72.11718
G1 X112.7 Y122.296 E72.37252
G1 X117.5 Y122.296 E72.50024
G0 F9000 X117.5 Y121.896
;TYPE:WALL-INNER
G1 F600 X121.896 Y121.896 E72.6172
G1 X121.896 Y113.1 E72.85125
G1 X113.1 Y113.1 E73.08529
G1 X113.1 Y121.896 E73.31934
G1 X117.5 Y121.896 E73.43641
G0 F9000 X117.5 Y121.496
G1 F600 X121.496 Y121.496 E73.54274
G1 X121.496 Y113.5 E73.7555
G1 X113.5 Y113.5 E73.96826
G1 X113.5 Y121.496 E74.18102
G1 X117.5 Y121.496 E74.28745
G0 F9000 X117.5 Y121.096
G1 F600 X121.096 Y121.096 E74.38313
G1 X121.096 Y113.9 E74.5746
G1 X113.9 Y113.9 E74.76608
G1 X113.9 Y121.096 E74.95755
G1 X117.5 Y121.096 E75.05334
G0 F9000 X121.016 Y121.016
;TYPE:FILL
G1 F1200 X113.98 Y113.98 E75.3181
G0 F9000 X113.984 Y121.016
G1 F1200 X121.016 Y113.984 E75.58271
G1 F2700 E70.08271
;MESH:NONMESH
G0 F300 X121.016 Y113.984 Z1.64
G0 F9000 X112.927 Y112.927
G0 X111.838 Y112.927
G0 X106.84 Y112.088
G0 X106.656 Y112.748
;TIME_ELAPSED:266.734257
;LAYER:9
;TYPE:SUPPORT
G1 F2700 E75.58271
G1 F600 X106.656 Y119.32 E75.75758
G1 F2700 E70.25758
G0 F9000 X106.835 Y119.959
G0 X112.295 Y123.158
G0 X122.693 Y123.159
G0 X122.956 Y122.901
G0 X126.184 Y119.171
G0 X126.654 Y118.701
G1 F2700 E75.75758
G1 F600 X126.654 Y113.233 E75.90307
G1 F2700 E70.40307
G0 F9000 X126.462 Y112.55
G0 X128.361 Y112.018
G0 X130.166 Y112.523
G0 X129.987 Y113.164
G1 F2700 E75.90307
G1 F600 X129.987 Y118.835 E76.05396
G1 F2700 E70.55396
;MESH:C??ble chageur.stl
G0 F9000 X130.166 Y119.474
G0 X128.355 Y119.98
G0 X123.162 Y118.835
G0 X122.067 Y118.835
G0 X117.5 Y121.587
G0 X117.5 Y122.296
;TYPE:WALL-OUTER
G1 F2700 E76.05396
G1 F600 X122.296 Y122.296 E76.18158
G1 X122.296 Y112.7 E76.43691
G1 X112.7 Y112.7 E76.69224
G1 X112.7 Y122.296 E76.94757
G1 X117.5 Y122.296 E77.07529
G0 F9000 X117.5 Y121.896
;TYPE:WALL-INNER
G1 F600 X121.896 Y121.896 E77.19226
G1 X121.896 Y113.1 E77.4263
G1 X113.1 Y113.1 E77.66035
G1 X113.1 Y121.896 E77.89439
G1 X117.5 Y121.896 E78.01147
G0 F9000 X117.5 Y121.496
G1 F600 X121.496 Y121.496 E78.1178
G1 X121.496 Y113.5 E78.33055
G1 X113.5 Y113.5 E78.54331
G1 X113.5 Y121.496 E78.75607
G1 X117.5 Y121.496 E78.8625
G0 F9000 X117.5 Y121.096
G1 F600 X121.096 Y121.096 E78.95819
G1 X121.096 Y113.9 E79.14966
G1 X113.9 Y113.9 E79.34113
G1 X113.9 Y121.096 E79.5326
G1 X117.5 Y121.096 E79.62839
G0 F9000 X121.016 Y121.016
;TYPE:FILL
G1 F1200 X113.98 Y113.98 E79.89315
G0 F9000 X113.984 Y121.016
G1 F1200 X121.016 Y113.984 E80.15776
G1 F2700 E74.65776
;MESH:NONMESH
G0 F300 X121.016 Y113.984 Z1.8
G0 F9000 X112.927 Y112.927
G0 X111.838 Y112.927
G0 X106.84 Y112.108
G0 X106.656 Y112.767
;TIME_ELAPSED:286.986242
;LAYER:10
;TYPE:SUPPORT
G1 F2700 E80.15776
G1 F600 X106.656 Y119.301 E80.33162
G1 F2700 E74.83162
G0 F9000 X106.835 Y119.94
G0 X112.3 Y123.158
G0 X122.7 Y123.158
G0 X126.184 Y119.146
G0 X126.654 Y118.676
G1 F2700 E80.33162
G1 F600 X126.654 Y113.259 E80.47576
G1 F2700 E74.97576
G0 F9000 X126.461 Y112.57
G0 X128.361 Y112.037
G0 X130.166 Y112.542
G0 X129.987 Y113.183
G1 F2700 E80.47576
G1 F600 X129.987 Y118.816 E80.62564
G1 F2700 E75.12564
;MESH:C??ble chageur.stl
G0 F9000 X130.166 Y119.455
G0 X128.355 Y119.961
G0 X123.162 Y118.816
G0 X122.067 Y118.816
G0 X117.5 Y121.587
G0 X117.5 Y122.296
;TYPE:WALL-OUTER
G1 F2700 E80.62564
G1 F600 X122.296 Y122.296 E80.75325
G1 X122.296 Y112.7 E81.00859
G1 X112.7 Y112.7 E81.26392
G1 X112.7 Y122.296 E81.51925
G1 X117.5 Y122.296 E81.64697
G0 F9000 X117.5 Y121.896
;TYPE:WALL-INNER
G1 F600 X121.896 Y121.896 E81.76394
G1 X121.896 Y113.1 E81.99798
G1 X113.1 Y113.1 E82.23203
G1 X113.1 Y121.896 E82.46607
G1 X117.5 Y121.896 E82.58315
G0 F9000 X117.5 Y121.496
G1 F600 X121.496 Y121.496 E82.68947
G1 X121.496 Y113.5 E82.90223
G1 X113.5 Y113.5 E83.11499
G1 X113.5 Y121.496 E83.32775
G1 X117.5 Y121.496 E83.43418
G0 F9000 X117.5 Y121.096
G1 F600 X121.096 Y121.096 E83.52986
G1 X121.096 Y113.9 E83.72133
G1 X113.9 Y113.9 E83.91281
G1 X113.9 Y121.096 E84.10428
G1 X117.5 Y121.096 E84.20007
G0 F9000 X121.016 Y121.016
;TYPE:FILL
G1 F1200 X113.98 Y113.98 E84.46483
G0 F9000 X113.984 Y121.016
G1 F1200 X121.016 Y113.984 E84.72944
G1 F2700 E79.22944
;MESH:NONMESH
G0 F300 X121.016 Y113.984 Z1.96
G0 F9000 X112.927 Y112.927
G0 X111.838 Y112.927
G0 X106.84 Y112.127
G0 X106.656 Y112.787
;TIME_ELAPSED:307.229709
;LAYER:11
;TYPE:SUPPORT
G1 F2700 E84.72944
G1 F600 X106.656 Y119.28 E84.90221
G1 F2700 E79.40221
G0 F9000 X106.835 Y119.919
G0 X112.234 Y123.159
G0 X122.7 Y123.158
G0 X126.184 Y119.118
G0 X126.654 Y118.648
G1 F2700 E84.90221
G1 F600 X126.654 Y113.288 E85.04483
G1 F2700 E79.54483
G0 F9000 X126.458 Y112.591
G0 X128.361 Y112.057
G0 X130.166 Y112.563
G0 X129.987 Y113.203
G1 F2700 E85.04483
G1 F600 X129.987 Y118.793 E85.19357
G1 F2700 E79.69357
;MESH:C??ble chageur.stl
G0 F9000 X130.166 Y119.434
G0 X128.355 Y119.94
G0 X123.162 Y118.793
G0 X122.067 Y118.793
G0 X117.5 Y121.588
G0 X117.5 Y122.296
;TYPE:WALL-OUTER
G1 F2700 E85.19357
G1 F600 X122.296 Y122.296 E85.32118
G1 X122.296 Y112.7 E85.57651
G1 X112.7 Y112.7 E85.83184
G1 X112.7 Y122.296 E86.08717
G1 X117.5 Y122.296 E86.21489
G0 F9000 X117.5 Y121.896
;TYPE:WALL-INNER
G1 F600 X121.896 Y121.896 E86.33186
G1 X121.896 Y113.1 E86.56591
G1 X113.1 Y113.1 E86.79995
G1 X113.1 Y121.896 E87.034
G1 X117.5 Y121.896 E87.15107
G0 F9000 X117.5 Y121.496
G1 F600 X121.496 Y121.496 E87.2574
G1 X121.496 Y113.5 E87.47016
G1 X113.5 Y113.5 E87.68291
G1 X113.5 Y121.496 E87.89567
G1 X117.5 Y121.496 E88.0021
G0 F9000 X117.5 Y121.096
G1 F600 X121.096 Y121.096 E88.09779
G1 X121.096 Y113.9 E88.28926
G1 X113.9 Y113.9 E88.48073
G1 X113.9 Y121.096 E88.6722
G1 X117.5 Y121.096 E88.76799
G0 F9000 X121.016 Y121.016
;TYPE:FILL
G1 F1200 X113.98 Y113.98 E89.03275
G0 F9000 X113.984 Y121.016
G1 F1200 X121.016 Y113.984 E89.29736
G1 F2700 E83.79736
;MESH:NONMESH
G0 F300 X121.016 Y113.984 Z2.12
G0 F9000 X112.927 Y112.927
G0 X111.838 Y112.927
G0 X106.84 Y112.148
G0 X106.656 Y112.806
;TIME_ELAPSED:327.460146
;LAYER:12
;TYPE:SUPPORT
G1 F2700 E89.29736
G1 F600 X106.656 Y119.262 E89.46915
G1 F2700 E83.96915
G0 F9000 X106.835 Y119.901
G0 X112.3 Y123.158
G0 X122.7 Y123.158
G0 X122.96 Y122.898
G0 X126.184 Y119.093
G0 X126.654 Y118.623
G1 F2700 E89.46915
G1 F600 X126.654 Y113.313 E89.61044
G1 F2700 E84.11044
G0 F9000 X126.457 Y112.61
G0 X128.361 Y112.076
G0 X130.167 Y112.582
G0 X129.987 Y113.229
G1 F2700 E89.61044
G1 F600 X129.987 Y118.769 E89.75784
G1 F2700 E84.25784
;MESH:C??ble chageur.stl
G0 F9000 X130.168 Y119.416
G0 X128.355 Y119.922
G0 X123.162 Y118.769
G0 X122.067 Y118.769
G0 X117.5 Y121.587
G0 X117.5 Y122.296
;TYPE:WALL-OUTER
G1 F2700 E89.75784
G1 F600 X122.296 Y122.296 E89.88546
G1 X122.296 Y112.7 E90.14079
G1 X112.7 Y112.7 E90.39612
G1 X112.7 Y122.296 E90.65145
G1 X117.5 Y122.296 E90.77917
G0 F9000 X117.5 Y121.896
;TYPE:WALL-INNER
G1 F600 X121.896 Y121.896 E90.89614
G1 X121.896 Y113.1 E91.13018
G1 X113.1 Y113.1 E91.36423
G1 X113.1 Y121.896 E91.59827
G1 X117.5 Y121.896 E91.71535
G0 F9000 X117.5 Y121.496
G1 F600 X121.496 Y121.496 E91.82168
G1 X121.496 Y113.5 E92.03443
G1 X113.5 Y113.5 E92.24719
G1 X113.5 Y121.496 E92.45995
G1 X117.5 Y121.496 E92.56638
G0 F9000 X117.5 Y121.096
G1 F600 X121.096 Y121.096 E92.66207
G1 X121.096 Y113.9 E92.85354
G1 X113.9 Y113.9 E93.04501
G1 X113.9 Y121.096 E93.23648
G1 X117.5 Y121.096 E93.33227
G0 F9000 X121.016 Y121.016
;TYPE:FILL
G1 F1200 X113.98 Y113.98 E93.59703
G0 F9000 X113.984 Y121.016
G1 F1200 X121.016 Y113.984 E93.86164
G1 F2700 E88.36164
;MESH:NONMESH
G0 F300 X121.016 Y113.984 Z2.28
G0 F9000 X112.927 Y112.924
G0 X111.838 Y112.924
G0 X106.839 Y112.166
G0 X106.656 Y112.824
;TIME_ELAPSED:347.674579
;LAYER:13
;TYPE:SUPPORT
G1 F2700 E93.86164
G1 F600 X106.656 Y119.253 E94.03271
G1 F2700 E88.53271
G0 F9000 X106.834 Y119.899
G0 X112.371 Y123.162
G0 X122.7 Y123.158
G0 X122.96 Y122.898
G0 X126.184 Y119.066
G0 X126.654 Y118.596
G1 F2700 E94.03271
G1 F600 X126.654 Y113.339 E94.17259
G1 F2700 E88.67259
G0 F9000 X126.455 Y112.63
G0 X128.361 Y112.096
G0 X130.169 Y112.602
G0 X129.987 Y113.254
G1 F2700 E94.17259
G1 F600 X129.987 Y118.741 E94.31859
G1 F2700 E88.81859
;MESH:C??ble chageur.stl
G0 F9000 X130.17 Y119.395
G0 X128.355 Y119.902
G0 X123.162 Y118.741
G0 X122.067 Y118.741
G0 X117.5 Y121.587
G0 X117.5 Y122.296
;TYPE:WALL-OUTER
G1 F2700 E94.31859
G1 F600 X122.296 Y122.296 E94.4462
G1 X122.296 Y112.7 E94.70153
G1 X112.7 Y112.7 E94.95686
G1 X112.7 Y122.296 E95.21219
G1 X117.5 Y122.296 E95.33991
G0 F9000 X117.5 Y121.896
;TYPE:WALL-INNER
G1 F600 X121.896 Y121.896 E95.45688
G1 X121.896 Y113.1 E95.69092
G1 X113.1 Y113.1 E95.92497
G1 X113.1 Y121.896 E96.15901
G1 X117.5 Y121.896 E96.27609
G0 F9000 X117.5 Y121.496
G1 F600 X121.496 Y121.496 E96.38242
G1 X121.496 Y113.5 E96.59517
G1 X113.5 Y113.5 E96.80793
G1 X113.5 Y121.496 E97.02069
G1 X117.5 Y121.496 E97.12712
G0 F9000 X117.5 Y121.096
G1 F600 X121.096 Y121.096 E97.22281
G1 X121.096 Y113.9 E97.41428
G1 X113.9 Y113.9 E97.60575
G1 X113.9 Y121.096 E97.79722
G1 X117.5 Y121.096 E97.89301
G0 F9000 X121.016 Y121.016
;TYPE:FILL
G1 F1200 X113.98 Y113.98 E98.15777
G0 F9000 X113.984 Y121.016
G1 F1200 X121.016 Y113.984 E98.42238
G1 F2700 E92.92238
;MESH:NONMESH
G0 F300 X121.016 Y113.984 Z2.44
G0 F9000 X112.927 Y112.924
G0 X111.837 Y112.924
G0 X106.842 Y112.186
G0 X106.656 Y112.853
;TIME_ELAPSED:367.877830
;LAYER:14
;TYPE:SUPPORT
G1 F2700 E98.42238
G1 F600 X106.656 Y119.24 E98.59233
G1 F2700 E93.09233
G0 F9000 X106.848 Y119.954
G0 X108.772 Y119.435
G0 X110.181 Y118.045
G0 X110.629 Y116.442
G0 X109.989 Y116.265
G1 F2700 E98.59233
G1 F600 X109.989 Y115.969 E98.60021
G1 F2700 E93.10021
G0 F9000 X110.625 Y115.776
G0 X111.841 Y112.349
G0 X112.236 Y111.84
G0 X122.733 Y111.842
G0 X126.172 Y112.912
G0 X126.654 Y113.368
G1 F2700 E98.60021
G1 F600 X126.654 Y118.57 E98.73862
G1 F2700 E93.23862
G0 F9000 X126.48 Y119.334
G0 X128.355 Y119.882
G0 X130.172 Y119.374
G0 X129.987 Y118.714
G1 F2700 E98.73862
G1 F600 X129.987 Y113.284 E98.8831
G1 F2700 E93.3831
;MESH:C??ble chageur.stl
G0 F9000 X130.172 Y112.623
G0 X128.361 Y112.115
G0 X123.165 Y113.28
G0 X122.07 Y113.28
G0 X117.501 Y121.589
G0 X117.5 Y122.298
;TYPE:WALL-OUTER
G1 F2700 E98.8831
G1 F600 X122.296 Y122.299 E99.01072
G1 X122.299 Y112.701 E99.2661
G1 X112.701 Y112.701 E99.52149
G1 X112.701 Y122.296 E99.77679
G1 X117.5 Y122.298 E99.90448
G0 F9000 X117.5 Y121.898
;TYPE:WALL-INNER
G1 F600 X121.896 Y121.899 E100.02145
G1 X121.899 Y113.101 E100.25555
G1 X113.101 Y113.101 E100.48965
G1 X113.101 Y121.896 E100.72367
G1 X117.5 Y121.898 E100.84072
G0 F9000 X117.5 Y121.498
G1 F600 X121.496 Y121.499 E100.94704
G1 X121.499 Y113.501 E101.15985
G1 X113.501 Y113.501 E101.37266
G1 X113.501 Y121.496 E101.5854
G1 X117.5 Y121.498 E101.6918
G0 F9000 X117.5 Y121.098
G1 F600 X121.096 Y121.099 E101.78749
G1 X121.099 Y113.901 E101.97901
G1 X113.901 Y113.901 E102.17054
G1 X113.901 Y121.096 E102.36198
G1 X117.5 Y121.098 E102.45774
G0 F9000 X114.8 Y120.199
;TYPE:FILL
G1 F1200 X120.199 Y114.8 E102.66091
G1 X114.801 Y114.8 E102.80454
G1 X114.8 Y120.199 E102.94819
G1 X114.601 Y120.4 E102.95572
G1 X120.399 Y120.4 E103.10999
G1 X114.8 Y114.801 E103.32068
G1 X114.801 Y114.8
G1 X113.981 Y113.981 E103.35152
G0 F9000 X120.199 Y114.8
G1 F1200 X120.4 Y114.601 E103.35904
G1 X120.4 Y120.399 E103.51332
G1 X121.017 Y121.017 E103.53655
G0 F9000 X120.4 Y120.399
G0 X120.4 Y114.601
G1 F1200 X121.019 Y113.981 E103.55987
G0 F9000 X114.601 Y120.4
G1 F1200 X113.983 Y121.016 E103.58308
G1 F2700 E98.08308
;MESH:NONMESH
G0 F300 X113.983 Y121.016 Z2.6
G0 F9000 X112.932 Y112.946
G0 X111.837 Y112.946
G0 X106.862 Y112.212
G0 X106.656 Y112.942
;TIME_ELAPSED:390.678505
;LAYER:15
;TYPE:SUPPORT
G1 F2700 E103.58308
G1 F600 X106.656 Y119.229 E103.75037
G1 F2700 E98.25037
G0 F9000 X106.468 Y119.867
G0 X106.934 Y120.002
G0 X108.91 Y119.47
G0 X110.31 Y118.09
G0 X110.629 Y116.951
G0 X109.989 Y116.774
G1 F2700 E103.75037
G1 F600 X109.989 Y115.603 E103.78153
G1 F2700 E98.28153
G0 F9000 X110.624 Y115.41
G0 X111.841 Y112.307
G0 X112.295 Y111.842
G0 X122.688 Y111.841
G0 X126.171 Y112.939
G0 X126.654 Y113.396
G1 F2700 E103.78153
G1 F600 X126.654 Y118.544 E103.91851
G1 F2700 E98.41851
G0 F9000 X126.184 Y119.014
G0 X126.489 Y119.317
G0 X128.355 Y119.862
G0 X130.174 Y119.354
G0 X129.987 Y118.687
G1 F2700 E103.91851
G1 F600 X129.987 Y113.312 E104.06152
G1 F2700 E98.56152
;MESH:C??ble chageur.stl
G0 F9000 X130.174 Y112.643
G0 X128.361 Y112.135
G0 X123.162 Y113.312
G0 X122.067 Y113.312
G0 X120.924 Y120.924
G0 X117.5 Y121.588
G0 X117.5 Y122.297
;TYPE:WALL-OUTER
G1 F2700 E104.06152
G1 F600 X122.296 Y122.296 E104.18914
G1 X122.296 Y112.701 E104.44444
G1 X112.7 Y112.701 E104.69977
G1 X112.7 Y122.299 E104.95516
G1 X117.5 Y122.297 E105.08288
G0 F9000 X117.5 Y121.897
;TYPE:WALL-INNER
G1 F600 X121.896 Y121.896 E105.19985
G1 X121.896 Y113.101 E105.43386
G1 X113.1 Y113.101 E105.66791
G1 X113.1 Y121.899 E105.90201
G1 X117.5 Y121.897 E106.01908
G0 F9000 X117.5 Y121.497
G1 F600 X121.496 Y121.496 E106.12541
G1 X121.496 Y113.501 E106.33814
G1 X113.5 Y113.501 E106.5509
G1 X113.5 Y121.499 E106.76371
G1 X117.5 Y121.497 E106.87014
G0 F9000 X117.5 Y121.097
G1 F600 X121.096 Y121.096 E106.96583
G1 X121.096 Y113.901 E107.15727
G1 X113.9 Y113.901 E107.34874
G1 X113.9 Y121.099 E107.54027
G1 X117.5 Y121.097 E107.63606
G0 F9000 X117.5 Y120.736
;TYPE:SKIN
G1 F600 X120.736 Y120.736 E107.72216
G1 X120.736 Y114.26 E107.89447
G1 X114.26 Y114.26 E108.06679
G1 X114.26 Y120.736 E108.2391
G1 X117.5 Y120.736 E108.32531
G0 F9000 X117.5 Y120.998
G0 X114.072 Y120.927
G0 X114 Y114.643
G0 X114.46 Y114.643
G1 F600 X114.643 Y114.46 E108.3322
G0 F9000 X115.208 Y114.46
G1 F600 X114.46 Y115.208 E108.36035
G0 F9000 X114.46 Y115.774
G1 F600 X115.774 Y114.46 E108.40979
G0 F9000 X116.34 Y114.46
G1 F600 X114.46 Y116.34 E108.48054
G0 F9000 X114.46 Y116.905
G1 F600 X116.905 Y114.46 E108.57254
G0 F9000 X117.471 Y114.46
G1 F600 X114.46 Y117.471 E108.68584
G0 F9000 X114.46 Y118.037
G1 F600 X118.037 Y114.46 E108.82044
G0 F9000 X118.602 Y114.46
G1 F600 X114.46 Y118.602 E108.9763
G0 F9000 X114.46 Y119.168
G1 F600 X119.168 Y114.46 E109.15346
G0 F9000 X119.734 Y114.46
G1 F600 X114.46 Y119.734 E109.35192
G0 F9000 X114.46 Y120.299
G1 F600 X120.299 Y114.46 E109.57164
G0 F9000 X120.536 Y114.79
G1 F600 X114.789 Y120.536 E109.78788
G0 F9000 X115.355 Y120.536
G1 F600 X120.536 Y115.355 E109.98284
G0 F9000 X120.536 Y115.921
G1 F600 X115.92 Y120.536 E110.15652
G0 F9000 X116.486 Y120.536
G1 F600 X120.536 Y116.487 E110.3089
G0 F9000 X120.536 Y117.052
G1 F600 X117.052 Y120.536 E110.44
G0 F9000 X117.617 Y120.536
G1 F600 X120.536 Y117.618 E110.54982
G0 F9000 X120.536 Y118.184
G1 F600 X118.183 Y120.536 E110.63835
G0 F9000 X118.749 Y120.536
G1 F600 X120.536 Y118.749 E110.70559
G0 F9000 X120.536 Y119.315
G1 F600 X119.314 Y120.536 E110.75155
G0 F9000 X119.88 Y120.536
G1 F600 X120.536 Y119.881 E110.77622
G0 F9000 X120.536 Y120.446
G1 F600 X120.446 Y120.536 E110.77961
G0 F9000 X120.447 Y121.287
G1 F2700 E105.27961
;MESH:NONMESH
G0 F300 X120.447 Y121.287 Z2.76
G0 F9000 X114.072 Y120.927
G0 X112.933 Y113.053
G0 X111.838 Y113.053
G0 X106.884 Y112.249
G0 X106.656 Y113.053
;TIME_ELAPSED:424.336564
;LAYER:16
;TYPE:SUPPORT
G1 F2700 E110.77961
G1 F600 X106.656 Y119.219 E110.94367
G1 F2700 E105.44367
G0 F9000 X106.468 Y119.857
G0 X107.078 Y120.035
G0 X109.047 Y119.506
G0 X110.441 Y118.132
G0 X110.629 Y117.462
G0 X109.989 Y117.285
G1 F2700 E110.94367
G1 F600 X109.989 Y115.234 E110.99825
G1 F2700 E105.49825
G0 F9000 X110.624 Y115.041
G0 X111.841 Y112.318
G0 X112.288 Y111.842
G0 X122.661 Y111.839
G0 X126.176 Y112.882
G0 X126.654 Y113.342
G1 F2700 E110.99825
G1 F600 X126.654 Y118.606 E111.13831
G1 F2700 E105.63831
G0 F9000 X126.458 Y119.308
G0 X128.362 Y119.843
G0 X130.175 Y119.336
G0 X129.987 Y118.663
G1 F2700 E111.13831
G1 F600 X129.987 Y113.335 E111.28008
G1 F2700 E105.78008
;MESH:C??ble chageur.stl
G0 F9000 X130.175 Y112.661
G0 X128.361 Y112.152
G0 X123.162 Y113.335
G0 X122.087 Y113.336
G0 X120.924 Y120.924
G0 X117.5 Y121.587
G0 X117.5 Y122.296
;TYPE:WALL-OUTER
G1 F2700 E111.28008
G1 F600 X122.296 Y122.296 E111.40769
G1 X122.296 Y112.7 E111.66302
G1 X112.7 Y112.7 E111.91835
G1 X112.7 Y122.296 E112.17369
G1 X117.5 Y122.296 E112.3014
G0 F9000 X117.5 Y121.896
;TYPE:WALL-INNER
G1 F600 X121.896 Y121.896 E112.41837
G1 X121.896 Y113.1 E112.65242
G1 X113.1 Y113.1 E112.88646
G1 X113.1 Y121.896 E113.12051
G1 X117.5 Y121.896 E113.23758
G0 F9000 X117.5 Y121.496
G1 F600 X121.496 Y121.496 E113.34391
G1 X121.496 Y113.5 E113.55667
G1 X113.5 Y113.5 E113.76943
G1 X113.5 Y121.496 E113.98219
G1 X117.5 Y121.496 E114.08862
G0 F9000 X117.5 Y121.096
G1 F600 X121.096 Y121.096 E114.1843
G1 X121.096 Y113.9 E114.37577
G1 X113.9 Y113.9 E114.56724
G1 X113.9 Y121.096 E114.75872
G1 X117.5 Y121.096 E114.85451
G0 F9000 X117.5 Y120.736
;TYPE:SKIN
G1 F600 X120.736 Y120.736 E114.94061
G1 X120.736 Y114.26 E115.11292
G1 X114.26 Y114.26 E115.28524
G1 X114.26 Y120.736 E115.45755
G1 X117.5 Y120.736 E115.54376
G0 F9000 X117.5 Y120.996
G0 X120.924 Y120.924
G0 X120.996 Y114.879
G0 X120.536 Y114.879
G1 F600 X120.117 Y114.46 E115.55953
G0 F9000 X119.551 Y114.46
G1 F600 X120.536 Y115.445 E115.59659
G0 F9000 X120.536 Y116.011
G1 F600 X118.986 Y114.46 E115.65494
G0 F9000 X118.42 Y114.46
G1 F600 X120.536 Y116.576 E115.73456
G0 F9000 X120.536 Y117.142
G1 F600 X117.854 Y114.46 E115.83548
G0 F9000 X117.289 Y114.46
G1 F600 X120.536 Y117.708 E115.95769
G0 F9000 X120.536 Y118.274
G1 F600 X116.723 Y114.46 E116.10119
G0 F9000 X116.157 Y114.46
G1 F600 X120.536 Y118.839 E116.26597
G0 F9000 X120.536 Y119.405
G1 F600 X115.591 Y114.46 E116.45204
G0 F9000 X115.026 Y114.46
G1 F600 X120.536 Y119.971 E116.6594
G0 F9000 X120.536 Y120.536
G1 F600 X114.46 Y114.46 E116.88804
G0 F9000 X114.46 Y115.026
G1 F600 X119.97 Y120.536 E117.09538
G0 F9000 X119.404 Y120.536
G1 F600 X114.46 Y115.591 E117.28144
G0 F9000 X114.46 Y116.157
G1 F600 X118.838 Y120.536 E117.4462
G0 F9000 X118.273 Y120.536
G1 F600 X114.46 Y116.723 E117.58968
G0 F9000 X114.46 Y117.289
G1 F600 X117.707 Y120.536 E117.71186
G0 F9000 X117.141 Y120.536
G1 F600 X114.46 Y117.854 E117.81277
G0 F9000 X114.46 Y118.42
G1 F600 X116.576 Y120.536 E117.89239
G0 F9000 X116.01 Y120.536
G1 F600 X114.46 Y118.986 E117.95072
G0 F9000 X114.46 Y119.551
G1 F600 X115.444 Y120.536 E117.98776
G0 F9000 X114.879 Y120.536
G1 F600 X114.46 Y120.117 E118.00353
G0 F9000 X113.713 Y120.117
G1 F2700 E112.50353
;MESH:NONMESH
G0 F300 X113.713 Y120.117 Z2.92
G0 F9000 X112.933 Y113.165
G0 X111.838 Y113.165
G0 X106.929 Y112.292
G0 X106.656 Y113.165
;TIME_ELAPSED:457.797466
;LAYER:17
;TYPE:SUPPORT
G1 F2700 E118.00353
G1 F600 X106.656 Y119.208 E118.16432
G1 F2700 E112.66432
G0 F9000 X106.468 Y119.847
G0 X107.227 Y120.068
G0 X109.182 Y119.543
G0 X110.469 Y118.275
G0 X109.989 Y117.79
G1 F2700 E118.16432
G1 F600 X109.989 Y114.868 E118.24207
G1 F2700 E112.74207
G0 F9000 X110.625 Y114.676
G0 X111.841 Y112.328
G0 X112.279 Y111.842
G0 X122.639 Y111.839
G0 X126.147 Y112.816
G0 X126.654 Y113.305
G1 F2700 E118.24207
G1 F600 X126.654 Y118.731 E118.38645
G1 F2700 E112.88645
G0 F9000 X126.475 Y119.371
G0 X128.037 Y119.81
G0 X130.183 Y119.304
G0 X129.987 Y118.593
G1 F2700 E118.38645
G1 F600 X129.987 Y113.41 E118.52436
G1 F2700 E113.02436
;MESH:C??ble chageur.stl
G0 F9000 X130.182 Y112.696
G0 X128.252 Y112.167
G0 X123.162 Y113.41
G0 X122.087 Y113.411
G0 X120.924 Y120.924
G0 X117.5 Y121.587
G0 X117.5 Y122.296
;TYPE:WALL-OUTER
G1 F2700 E118.52436
G1 F600 X122.296 Y122.296 E118.65197
G1 X122.296 Y112.7 E118.9073
G1 X112.7 Y112.7 E119.16263
G1 X112.7 Y122.296 E119.41796
G1 X117.5 Y122.296 E119.54568
G0 F9000 X117.5 Y121.896
;TYPE:WALL-INNER
G1 F600 X121.896 Y121.896 E119.66265
G1 X121.896 Y113.1 E119.8967
G1 X113.1 Y113.1 E120.13074
G1 X113.1 Y121.896 E120.36479
G1 X117.5 Y121.896 E120.48186
G0 F9000 X117.5 Y121.496
G1 F600 X121.496 Y121.496 E120.58819
G1 X121.496 Y113.5 E120.80095
G1 X113.5 Y113.5 E121.01371
G1 X113.5 Y121.496 E121.22646
G1 X117.5 Y121.496 E121.3329
G0 F9000 X117.5 Y121.096
G1 F600 X121.096 Y121.096 E121.42858
G1 X121.096 Y113.9 E121.62005
G1 X113.9 Y113.9 E121.81152
G1 X113.9 Y121.096 E122.00299
G1 X117.5 Y121.096 E122.09878
G0 F9000 X117.5 Y120.736
;TYPE:SKIN
G1 F600 X120.736 Y120.736 E122.18489
G1 X120.736 Y114.26 E122.3572
G1 X114.26 Y114.26 E122.52952
G1 X114.26 Y120.736 E122.70183
G1 X117.5 Y120.736 E122.78804
G0 F9000 X117.5 Y120.996
G0 X114.072 Y120.924
G0 X114 Y114.643
G0 X114.46 Y114.643
G1 F600 X114.643 Y114.46 E122.79493
G0 F9000 X115.208 Y114.46
G1 F600 X114.46 Y115.208 E122.82307
G0 F9000 X114.46 Y115.774
G1 F600 X115.774 Y114.46 E122.87252
G0 F9000 X116.34 Y114.46
G1 F600 X114.46 Y116.34 E122.94326
G0 F9000 X114.46 Y116.905
G1 F600 X116.905 Y114.46 E123.03527
G0 F9000 X117.471 Y114.46
G1 F600 X114.46 Y117.471 E123.14857
G0 F9000 X114.46 Y118.037
G1 F600 X118.037 Y114.46 E123.28317
G0 F9000 X118.602 Y114.46
G1 F600 X114.46 Y118.602 E123.43903
G0 F9000 X114.46 Y119.168
G1 F600 X119.168 Y114.46 E123.61619
G0 F9000 X119.734 Y114.46
G1 F600 X114.46 Y119.734 E123.81465
G0 F9000 X114.46 Y120.299
G1 F600 X120.299 Y114.46 E124.03437
G0 F9000 X120.536 Y114.79
G1 F600 X114.789 Y120.536 E124.25061
G0 F9000 X115.355 Y120.536
G1 F600 X120.536 Y115.355 E124.44557
G0 F9000 X120.536 Y115.921
G1 F600 X115.92 Y120.536 E124.61924
G0 F9000 X116.486 Y120.536
G1 F600 X120.536 Y116.487 E124.77163
G0 F9000 X120.536 Y117.052
G1 F600 X117.052 Y120.536 E124.90273
G0 F9000 X117.617 Y120.536
G1 F600 X120.536 Y117.618 E125.01255
G0 F9000 X120.536 Y118.184
G1 F600 X118.183 Y120.536 E125.10107
G0 F9000 X118.749 Y120.536
G1 F600 X120.536 Y118.749 E125.16832
G0 F9000 X120.536 Y119.315
G1 F600 X119.314 Y120.536 E125.21428
G0 F9000 X119.88 Y120.536
G1 F600 X120.536 Y119.881 E125.23895
G0 F9000 X120.536 Y120.446
G1 F600 X120.446 Y120.536 E125.24233
G0 F9000 X120.446 Y121.287
G1 F2700 E119.74233
;MESH:NONMESH
G0 F300 X120.446 Y121.287 Z3.08
G0 F9000 X114.072 Y120.924
G0 X112.933 Y113.276
G0 X111.838 Y113.276
G0 X107.077 Y112.367
G0 X106.456 Y112.532
G0 X106.656 Y113.276
;TIME_ELAPSED:491.551164
;LAYER:18
;note -- min layer time used
;TYPE:SUPPORT
G1 F2700 E125.24233
G1 F600 X106.656 Y119.198 E125.39991
G1 F2700 E119.89991
G0 F9000 X106.468 Y119.836
G0 X107.371 Y120.101
G0 X109.319 Y119.578
G0 X110.456 Y118.458
G0 X109.989 Y117.986
G1 F2700 E125.39991
G1 F600 X109.989 Y114.728 E125.4866
G1 F2700 E119.9866
G0 F9000 X110.687 Y114.516
G0 X126.079 Y112.79
G0 X126.654 Y113.318
G1 F2700 E125.4866
G1 F600 X126.654 Y118.793 E125.63228
G1 F2700 E120.13228
G0 F9000 X126.475 Y119.433
G0 X128.003 Y119.863
G0 X130.048 Y119.293
G0 X130.452 Y118.899
G0 X129.987 Y118.425
G1 F2700 E125.63228
G1 F600 X129.987 Y113.595 E125.76079
G1 F2700 E120.26079
G0 F300 X129.987 Y113.595 Z3.24
G0 F9000 X130.463 Y113.133
G0 X130.081 Y112.739
G0 X128.144 Y112.215
G0 X107.223 Y112.437
G0 X106.455 Y112.643
G0 X106.656 Y113.388
;TIME_ELAPSED:496.691657
;LAYER:19
;note -- min layer time used
;TYPE:SUPPORT
G1 F2700 E125.76079
G1 F600 X106.656 Y119.189 E125.91515
G1 F2700 E120.41515
G0 F9000 X106.468 Y119.827
G0 X107.52 Y120.135
G0 X109.456 Y119.614
G0 X110.456 Y118.63
G0 X109.989 Y118.158
G1 F2700 E125.91515
G1 F600 X109.989 Y114.651 E126.00846
G1 F2700 E120.50846
G0 F9000 X110.467 Y114.19
G0 X126.476 Y112.694
G0 X126.654 Y113.333
G1 F2700 E126.00846
G1 F600 X126.654 Y118.857 E126.15544
G1 F2700 E120.65544
G0 F9000 X126.475 Y119.498
G0 X127.845 Y119.882
G0 X129.881 Y119.315
G0 X130.453 Y118.756
G0 X129.987 Y118.282
G1 F2700 E126.15544
G1 F600 X129.987 Y113.822 E126.27412
G1 F2700 E120.77412
;MESH:C??ble chageur.stl
G0 F9000 X130.464 Y113.36
G0 X129.915 Y112.793
G0 X127.987 Y112.274
G0 X125.931 Y112.846
G0 X119.279 Y118.52
G0 X117.961 Y118.783
;TYPE:WALL-OUTER
G1 F2700 E126.27412
G1 F553 X118.395 Y118.783 E126.28665
G1 X118.395 Y116.217 E126.36073
G1 X117.961 Y116.217 E126.37326
G1 X117.961 Y118.783 E126.44733
G0 F9000 X117.035 Y118.783
G1 F553 X117.035 Y116.217 E126.52141
G1 X116.601 Y116.217 E126.53394
G1 X116.601 Y118.783 E126.60802
G1 X117.035 Y118.783 E126.62055
G1 F2700 E121.12055
;MESH:NONMESH
G0 F300 X117.035 Y118.783 Z3.4
G0 F9000 X115.721 Y118.52
G0 X109.407 Y113.09
G0 X107.369 Y112.511
G0 X106.456 Y112.755
G0 X106.656 Y113.499
;TIME_ELAPSED:504.022773
;LAYER:20
;note -- min layer time used
;TYPE:SUPPORT
G1 F2700 E126.62055
G1 F600 X106.656 Y119.177 E126.77163
G1 F2700 E121.27163
G0 F9000 X106.468 Y119.815
G0 X107.664 Y120.167
G0 X109.591 Y119.65
G0 X110.456 Y118.8
G0 X109.989 Y118.327
G1 F2700 E126.77163
G1 F600 X109.989 Y114.58 E126.87134
G1 F2700 E121.37134
G0 F9000 X110.467 Y114.119
G0 X126.476 Y112.707
G0 X126.654 Y113.347
G1 F2700 E126.87134
G1 F600 X126.654 Y118.92 E127.01962
G1 F2700 E121.51962
G0 F9000 X126.475 Y119.56
G0 X127.691 Y119.901
G0 X129.716 Y119.335
G0 X130.453 Y118.615
G0 X129.987 Y118.141
G1 F2700 E127.01962
G1 F600 X129.987 Y114.05 E127.12848
G1 F2700 E121.62848
;MESH:C??ble chageur.stl
G0 F9000 X130.464 Y113.588
G0 X129.748 Y112.848
G0 X127.83 Y112.331
G0 X125.786 Y112.9
G0 X119.729 Y116.218
G0 X118.846 Y116.218
;TYPE:WALL-OUTER
G1 F2700 E127.12848
G1 F550.5 X118.846 Y118.782 E127.20284
G1 F2700 E121.70284
G0 F9000 X116.152 Y118.784
G1 F2700 E127.20284
G1 F555.6 X116.152 Y116.216 E127.27664
G1 F2700 E121.77664
;MESH:NONMESH
G0 F300 X116.152 Y116.216 Z3.56
G0 F9000 X115.271 Y116.216
G0 X109.54 Y113.157
G0 X107.515 Y112.581
G0 X106.455 Y112.866
G0 X106.656 Y113.61
;TIME_ELAPSED:510.891309
;LAYER:21
;note -- min layer time used
;TYPE:SUPPORT
G1 F2700 E127.27664
G1 F600 X106.656 Y119.166 E127.42447
G1 F2700 E121.92447
G0 F9000 X106.468 Y119.805
G0 X107.812 Y120.2
G0 X109.727 Y119.686
G0 X110.456 Y118.97
G0 X109.989 Y118.498
G1 F2700 E127.42447
G1 F600 X109.989 Y114.511 E127.53056
G1 F2700 E122.03056
G0 F9000 X110.466 Y114.049
G0 X126.476 Y112.722
G0 X126.654 Y113.361
G1 F2700 E127.53056
G1 F600 X126.654 Y118.984 E127.68017
G1 F2700 E122.18017
G0 F9000 X126.475 Y119.624
G0 X127.531 Y119.92
G0 X129.549 Y119.357
G0 X130.452 Y118.473
G0 X129.987 Y117.999
G1 F2700 E127.68017
G1 F600 X129.987 Y114.278 E127.77918
G1 F2700 E122.27918
;MESH:C??ble chageur.stl
G0 F9000 X130.464 Y113.815
G0 X129.581 Y112.904
G0 X127.673 Y112.39
G0 X125.636 Y112.956
G0 X120.061 Y116.172
G0 X119.224 Y116.172
;TYPE:WALL-OUTER
G1 F2700 E127.77918
G1 F701.8 X119.226 Y118.83 E127.83965
G1 F2700 E122.33965
G0 F9000 X118.391 Y118.831
G0 X116.609 Y118.829
G0 X115.774 Y118.83
G1 F2700 E127.83965
G1 F705.9 X115.774 Y116.17 E127.89981
G1 F2700 E122.39981
;MESH:NONMESH
G0 F300 X115.774 Y116.17 Z3.72
G0 F9000 X114.939 Y116.17
G0 X109.671 Y113.227
G0 X107.663 Y112.654
G0 X106.456 Y112.977
G0 X106.656 Y113.721
;TIME_ELAPSED:517.666859
;LAYER:22
;note -- min layer time used
;TYPE:SUPPORT
G1 F2700 E127.89981
G1 F600 X106.656 Y119.157 E128.04445
G1 F2700 E122.54445
G0 F9000 X106.468 Y119.795
G0 X107.956 Y120.233
G0 X109.863 Y119.721
G0 X110.456 Y119.14
G0 X109.989 Y118.668
G1 F2700 E128.04445
G1 F600 X109.989 Y114.44 E128.15695
G1 F2700 E122.65695
G0 F9000 X110.467 Y113.978
G0 X126.476 Y112.736
G0 X126.654 Y113.375
G1 F2700 E128.15695
G1 F600 X126.654 Y119.046 E128.30785
G1 F2700 E122.80785
G0 F9000 X126.475 Y119.686
G0 X127.376 Y119.939
G0 X129.382 Y119.38
G0 X130.453 Y118.331
G0 X129.987 Y117.858
G1 F2700 E128.30785
G1 F600 X129.987 Y114.506 E128.39704
G1 F2700 E122.89704
G0 F300 X129.987 Y114.506 Z3.88
G0 F9000 X130.464 Y114.044
G0 X129.415 Y112.959
G0 X127.516 Y112.447
G0 X107.809 Y112.725
G0 X106.455 Y113.088
G0 X106.656 Y113.833
;TIME_ELAPSED:522.797526
;LAYER:23
;note -- min layer time used
;TYPE:SUPPORT
G1 F2700 E128.39704
G1 F600 X106.656 Y119.148 E128.53846
G1 F2700 E123.03846
G0 F9000 X106.469 Y119.786
G0 X108.105 Y120.266
G0 X110.003 Y119.757
G0 X110.456 Y119.313
G0 X109.989 Y118.841
G1 F2700 E128.53846
G1 F600 X109.989 Y114.361 E128.65766
G1 F2700 E123.15766
G0 F9000 X110.467 Y113.9
G0 X126.476 Y112.751
G0 X126.654 Y113.39
G1 F2700 E128.65766
G1 F600 X126.654 Y119.11 E128.80986
G1 F2700 E123.30986
G0 F9000 X126.475 Y119.751
G0 X127.216 Y119.958
G0 X129.213 Y119.402
G0 X130.453 Y118.189
G0 X129.987 Y117.715
G1 F2700 E128.80986
G1 F600 X129.987 Y114.734 E128.88918
G1 F2700 E123.38918
G0 F300 X129.987 Y114.734 Z4.04
G0 F9000 X130.464 Y114.273
G0 X129.248 Y113.014
G0 X127.359 Y112.506
G0 X107.955 Y112.799
G0 X106.456 Y113.199
G0 X106.656 Y113.944
;TIME_ELAPSED:527.911899
;LAYER:24
;note -- min layer time used
;TYPE:SUPPORT
G1 F2700 E128.88918
G1 F600 X106.656 Y119.127 E129.02709
G1 F2700 E123.52709
G0 F9000 X106.465 Y119.774
G0 X108.25 Y120.3
G0 X110.14 Y119.793
G0 X109.989 Y119.012
G1 F2700 E129.02709
G1 F600 X109.989 Y114.293 E129.15266
G1 F2700 E123.65266
G0 F9000 X110.467 Y113.831
G0 X126.476 Y112.764
G0 X126.654 Y113.404
G1 F2700 E129.15266
G1 F600 X126.654 Y119.173 E129.30616
G1 F2700 E123.80616
G0 F9000 X126.475 Y119.813
G0 X127.062 Y119.977
G0 X129.05 Y119.421
G0 X130.404 Y118.094
G0 X130.625 Y117.343
G0 X129.987 Y117.157
G1 F2700 E129.30616
G1 F600 X129.987 Y115.324 E129.35493
G1 F2700 E123.85493
G0 F300 X129.987 Y115.324 Z4.2
G0 F9000 X130.624 Y115.137
G0 X130.424 Y114.457
G0 X129.081 Y113.069
G0 X127.202 Y112.563
G0 X108.102 Y112.871
G0 X106.442 Y113.314
G0 X106.656 Y114.111
;TIME_ELAPSED:532.974983
;LAYER:25
;note -- min layer time used
;TYPE:SUPPORT
G1 F2700 E129.35493
G1 F600 X106.656 Y119.009 E129.48526
G1 F2700 E123.98526
G0 F9000 X106.479 Y119.766
G0 X108.398 Y120.333
G0 X110.171 Y119.859
G0 X109.989 Y119.181
G1 F2700 E129.48526
G1 F600 X109.989 Y114.222 E129.61721
G1 F2700 E124.11721
G0 F9000 X110.466 Y113.76
G0 X126.477 Y112.78
G0 X126.654 Y113.419
G1 F2700 E129.61721
G1 F600 X126.654 Y119.236 E129.77199
G1 F2700 E124.27199
G0 F9000 X126.475 Y119.877
G0 X126.904 Y119.996
G0 X128.883 Y119.443
G0 X130.23 Y118.123
G0 X130.625 Y116.775
G0 X129.987 Y116.589
G1 F2700 E129.77199
G1 F600 X129.987 Y115.967 E129.78854
G1 F2700 E124.28854
G0 F300 X129.987 Y115.967 Z4.36
G0 F9000 X130.624 Y115.78
G0 X130.25 Y114.505
G0 X128.915 Y113.125
G0 X127.046 Y112.622
G0 X108.249 Y112.944
G0 X106.378 Y113.444
G0 X106.061 Y113.772
G0 X106.656 Y114.343
;TIME_ELAPSED:537.972027
;LAYER:26
;note -- min layer time used
;TYPE:SUPPORT
G1 F2700 E129.78854
G1 F600 X106.656 Y118.893 E129.9096
G1 F2700 E124.4096
G0 F9000 X106.19 Y119.367
G0 X106.634 Y119.802
G0 X108.541 Y120.366
G0 X110.161 Y119.933
G0 X109.989 Y119.293
G1 F2700 E129.9096
G1 F600 X109.989 Y114.158 E130.04624
G1 F2700 E124.54624
G0 F9000 X110.472 Y113.691
G0 X126.476 Y112.793
G0 X126.654 Y113.432
G1 F2700 E130.04624
G1 F600 X126.654 Y119.299 E130.20235
G1 F2700 E124.70235
G0 F300 X126.654 Y119.299 Z4.52
G0 F9000 X126.475 Y119.94
G0 X111.89 Y115.572
G0 X111.715 Y114.981
G0 X110.357 Y113.573
G0 X108.395 Y113.015
G0 X106.535 Y113.513
G0 X106.062 Y114.004
G0 X106.656 Y114.574
;TIME_ELAPSED:542.221012
;LAYER:27
;note -- min layer time used
;TYPE:SUPPORT
G1 F2700 E130.20235
G1 F600 X106.656 Y118.775 E130.31413
G1 F2700 E124.81413
G0 F9000 X106.19 Y119.25
G0 X106.79 Y119.838
G0 X108.693 Y120.4
G0 X110.161 Y120.007
G0 X109.989 Y119.367
G1 F2700 E130.31413
G1 F600 X109.989 Y114.189 E130.4519
G1 F2700 E124.9519
G0 F9000 X110.527 Y113.67
G0 X126.476 Y112.809
G0 X126.654 Y113.448
G1 F2700 E130.4519
G1 F600 X126.654 Y119.328 E130.60836
G1 F2700 E125.10836
G0 F300 X126.654 Y119.328 Z4.68
G0 F9000 X126.466 Y120
G0 X112.064 Y115.773
G0 X111.844 Y115.039
G0 X110.501 Y113.645
G0 X108.54 Y113.088
G0 X106.69 Y113.583
G0 X106.061 Y114.235
G0 X106.656 Y114.807
;TIME_ELAPSED:546.460695
;LAYER:28
;note -- min layer time used
;TYPE:SUPPORT
G1 F2700 E130.60836
G1 F600 X106.656 Y118.658 E130.71083
G1 F2700 E125.21083
G0 F9000 X106.19 Y119.132
G0 X106.947 Y119.875
G0 X108.838 Y120.433
G0 X110.161 Y120.08
G0 X109.989 Y119.44
G1 F2700 E130.71083
G1 F600 X109.989 Y114.22 E130.84972
G1 F2700 E125.34972
G0 F9000 X110.633 Y113.713
G0 X126.465 Y112.825
G0 X126.654 Y113.504
G1 F2700 E130.84972
G1 F600 X126.654 Y119.303 E131.00402
G1 F2700 E125.50402
G0 F300 X126.654 Y119.303 Z4.84
G0 F9000 X126.433 Y120.053
G0 X112.238 Y115.976
G0 X111.977 Y115.105
G0 X110.633 Y113.713
G0 X108.688 Y113.16
G0 X106.848 Y113.652
G0 X106.06 Y114.47
G0 X106.656 Y115.043
;TIME_ELAPSED:550.677626
;LAYER:29
;note -- min layer time used
;TYPE:SUPPORT
G1 F2700 E131.00402
G1 F600 X106.656 Y118.537 E131.09699
G1 F2700 E125.59699
G0 F9000 X106.189 Y119.011
G0 X107.104 Y119.91
G0 X108.991 Y120.466
G0 X110.161 Y120.154
G0 X109.989 Y119.513
G1 F2700 E131.09699
G1 F600 X109.989 Y114.25 E131.23703
G1 F2700 E125.73703
G0 F9000 X110.17 Y113.61
G0 X122.685 Y116.244
G0 X123.321 Y116.435
G1 F2700 E131.23703
G1 F600 X123.321 Y116.57 E131.24062
G1 F2700 E125.74062
G0 F9000 X122.683 Y116.757
G0 X123.117 Y118.237
G0 X124.474 Y119.566
G0 X126.273 Y120.072
G0 X126.832 Y119.917
G0 X126.654 Y119.278
G1 F2700 E131.24062
G1 F600 X126.654 Y113.605 E131.39157
G1 F2700 E125.89157
G0 F300 X126.654 Y113.605 Z5
G0 F9000 X126.418 Y112.854
G0 X108.837 Y113.233
G0 X107.008 Y113.722
G0 X106.062 Y114.704
G0 X106.656 Y115.275
;TIME_ELAPSED:555.347129
;LAYER:30
;note -- min layer time used
;TYPE:SUPPORT
G1 F2700 E131.39157
G1 F600 X106.656 Y118.419 E131.47522
G1 F2700 E125.97522
G0 F9000 X106.19 Y118.894
G0 X107.262 Y119.945
G0 X109.134 Y120.499
G0 X110.161 Y120.226
G0 X109.989 Y119.585
G1 F2700 E131.47522
G1 F600 X109.989 Y114.279 E131.61641
G1 F2700 E126.11641
G0 F9000 X110.17 Y113.639
G0 X122.685 Y115.83
G0 X123.321 Y116.021
G1 F2700 E131.61641
G1 F600 X123.321 Y117.078 E131.64453
G1 F2700 E126.14453
G0 F9000 X122.683 Y117.265
G0 X122.977 Y118.266
G0 X124.325 Y119.587
G0 X126.116 Y120.092
G0 X126.832 Y119.893
G0 X126.654 Y119.254
G1 F2700 E131.64453
G1 F600 X126.654 Y113.705 E131.79218
G1 F2700 E126.29218
G0 F300 X126.654 Y113.705 Z5.16
G0 F9000 X126.826 Y113.062
G0 X126.26 Y112.911
G0 X108.986 Y113.304
G0 X107.167 Y113.791
G0 X106.062 Y114.936
G0 X106.656 Y115.508
;TIME_ELAPSED:560.062946
;LAYER:31
;note -- min layer time used
;TYPE:SUPPORT
G1 F2700 E131.79218
G1 F600 X106.656 Y118.297 E131.86639
G1 F2700 E126.36639
G0 F9000 X106.19 Y118.772
G0 X107.42 Y119.98
G0 X109.286 Y120.531
G0 X110.161 Y120.298
G0 X109.989 Y119.657
G1 F2700 E131.86639
G1 F600 X109.989 Y114.309 E132.00869
G1 F2700 E126.50869
G0 F9000 X110.17 Y113.669
G0 X122.685 Y115.41
G0 X123.321 Y115.602
G1 F2700 E132.00869
G1 F600 X123.321 Y117.586 E132.06148
G1 F2700 E126.56148
G0 F9000 X122.683 Y117.774
G0 X122.838 Y118.297
G0 X124.179 Y119.61
G0 X125.961 Y120.11
G0 X126.833 Y119.867
G0 X126.654 Y119.228
G1 F2700 E132.06148
G1 F600 X126.654 Y113.805 E132.20578
G1 F2700 E126.70578
G0 F300 X126.654 Y113.805 Z5.32
G0 F9000 X126.826 Y113.162
G0 X126.104 Y112.969
G0 X109.135 Y113.376
G0 X107.323 Y113.86
G0 X106.036 Y115.197
G0 X105.85 Y115.831
G0 X106.656 Y116.064
;TIME_ELAPSED:564.843048
;LAYER:32
;note -- min layer time used
;TYPE:SUPPORT
G1 F2700 E132.20578
G1 F600 X106.656 Y117.816 E132.25239
G1 F2700 E126.75239
G0 F9000 X106.02 Y118.01
G0 X106.228 Y118.689
G0 X107.578 Y120.017
G0 X109.432 Y120.564
G0 X110.161 Y120.37
G0 X109.989 Y119.729
G1 F2700 E132.25239
G1 F600 X109.989 Y114.337 E132.39586
G1 F2700 E126.89586
G0 F9000 X110.17 Y113.697
G0 X122.673 Y115.038
G0 X123.321 Y115.234
G1 F2700 E132.39586
G1 F600 X123.321 Y118.007 E132.46965
G1 F2700 E126.96965
G0 F9000 X122.857 Y118.482
G0 X124.03 Y119.631
G0 X125.804 Y120.13
G0 X126.833 Y119.843
G0 X126.654 Y119.204
G1 F2700 E132.46965
G1 F600 X126.654 Y113.905 E132.61065
G1 F2700 E127.11065
G0 F300 X126.654 Y113.905 Z5.48
G0 F9000 X126.826 Y113.262
G0 X125.945 Y113.027
G0 X109.283 Y113.447
G0 X107.483 Y113.929
G0 X106.199 Y115.259
G0 X105.848 Y116.467
G0 X106.656 Y116.7
;TIME_ELAPSED:569.613724
;LAYER:33
;note -- min layer time used
;TYPE:SUPPORT
G1 F2700 E132.61065
G1 F600 X106.656 Y117.314 E132.62698
G1 F2700 E127.12698
G0 F9000 X106.02 Y117.507
G0 X106.394 Y118.733
G0 X107.736 Y120.051
G0 X109.581 Y120.596
G0 X110.161 Y120.442
G0 X109.989 Y119.801
G1 F2700 E132.62698
G1 F600 X109.989 Y114.367 E132.77157
G1 F2700 E127.27157
G0 F9000 X110.172 Y113.727
G0 X122.844 Y114.677
G0 X123.321 Y115.138
G1 F2700 E132.77157
G1 F600 X123.321 Y118.174 E132.85235
G1 F2700 E127.35235
G0 F9000 X122.857 Y118.65
G0 X123.884 Y119.654
G0 X125.646 Y120.148
G0 X126.832 Y119.817
G0 X126.654 Y119.178
G1 F2700 E132.85235
G1 F600 X126.654 Y114.005 E132.99
G1 F2700 E127.49
G0 F300 X126.654 Y114.005 Z5.64
G0 F9000 X126.826 Y113.362
G0 X125.893 Y113.113
G0 X110.179 Y113.729
G0 X109.989 Y114.395
;TIME_ELAPSED:574.168246
;LAYER:34
;note -- min layer time used
;TYPE:SUPPORT
G1 F2700 E132.99
G1 F600 X109.989 Y119.872 E133.13573
G1 F2700 E127.63573
G0 F9000 X110.161 Y120.512
G0 X122.856 Y118.815
G0 X123.321 Y118.34
G1 F2700 E133.13573
G1 F600 X123.321 Y115.043 E133.22346
G1 F2700 E127.72346
G0 F9000 X122.843 Y114.582
G0 X123.723 Y113.674
G0 X125.631 Y113.143
G0 X126.826 Y113.462
G0 X126.654 Y114.105
G1 F2700 E133.22346
G1 F600 X126.654 Y119.154 E133.3578
G1 F2700 E127.8578
G0 F300 X126.654 Y119.154 Z5.8
G0 F9000 X126.833 Y119.793
G0 X125.49 Y120.168
G0 X123.734 Y119.674
G0 X111.469 Y114.127
G0 X110.177 Y113.758
G0 X109.989 Y114.424
;TIME_ELAPSED:577.994512
;LAYER:35
;note -- min layer time used
;TYPE:SUPPORT
G1 F2700 E133.3578
G1 F600 X109.989 Y119.944 E133.50468
G1 F2700 E128.00468
G0 F9000 X110.161 Y120.584
G0 X122.857 Y118.982
G0 X123.321 Y118.506
G1 F2700 E133.50468
G1 F600 X123.321 Y114.945 E133.59943
G1 F2700 E128.09943
G0 F9000 X122.844 Y114.484
G0 X123.574 Y113.731
G0 X125.475 Y113.201
G0 X126.826 Y113.563
G0 X126.654 Y114.206
G1 F2700 E133.59943
G1 F600 X126.654 Y119.129 E133.73042
G1 F2700 E128.23042
G0 F300 X126.654 Y119.129 Z5.96
G0 F9000 X126.832 Y119.768
G0 X125.331 Y120.186
G0 X123.589 Y119.697
G0 X111.61 Y114.196
G0 X110.177 Y113.786
G0 X109.989 Y114.452
;TIME_ELAPSED:581.840350
;LAYER:36
;note -- min layer time used
;TYPE:SUPPORT
G1 F2700 E133.73042
G1 F600 X109.989 Y119.988 E133.87772
G1 F2700 E128.37772
G0 F9000 X110.168 Y120.653
G0 X122.857 Y119.149
G0 X123.321 Y118.673
G1 F2700 E133.87772
G1 F600 X123.321 Y114.846 E133.97955
G1 F2700 E128.47955
G0 F9000 X122.844 Y114.385
G0 X123.427 Y113.784
G0 X125.317 Y113.259
G0 X126.825 Y113.662
G0 X126.654 Y114.305
G1 F2700 E133.97955
G1 F600 X126.654 Y119.104 E134.10724
G1 F2700 E128.60724
G0 F300 X126.654 Y119.104 Z6.12
G0 F9000 X126.832 Y119.743
G0 X125.173 Y120.205
G0 X123.441 Y119.719
G0 X111.747 Y114.262
G0 X110.181 Y113.815
G0 X109.989 Y114.497
;TIME_ELAPSED:585.704382
;LAYER:37
;note -- min layer time used
;TYPE:SUPPORT
G1 F2700 E134.10724
G1 F600 X109.989 Y119.975 E134.253
G1 F2700 E128.753
G0 F9000 X110.189 Y120.719
G0 X122.857 Y119.315
G0 X123.321 Y118.839
G1 F2700 E134.253
G1 F600 X123.321 Y114.751 E134.36178
G1 F2700 E128.86178
G0 F9000 X122.844 Y114.29
G0 X123.279 Y113.842
G0 X125.161 Y113.317
G0 X126.842 Y113.766
G0 X126.654 Y114.471
G1 F2700 E134.36178
G1 F600 X126.654 Y118.999 E134.48226
G1 F2700 E128.98226
G0 F300 X126.654 Y118.999 Z6.28
G0 F9000 X126.853 Y119.713
G0 X125.015 Y120.224
G0 X123.294 Y119.741
G0 X111.889 Y114.333
G0 X110.203 Y113.85
G0 X109.989 Y114.607
;TIME_ELAPSED:589.576697
;LAYER:38
;note -- min layer time used
;TYPE:SUPPORT
G1 F2700 E134.48226
G1 F600 X109.989 Y119.963 E134.62477
G1 F2700 E129.12477
G0 F9000 X110.321 Y120.752
G0 X122.855 Y119.499
G0 X123.321 Y119.025
G1 F2700 E134.62477
G1 F600 X123.321 Y114.688 E134.74017
G1 F2700 E129.24017
G0 F9000 X122.843 Y114.228
G0 X123.175 Y113.885
G0 X125.003 Y113.375
G0 X126.747 Y113.843
G0 X127.13 Y114.236
G0 X126.654 Y114.699
G1 F2700 E134.74017
G1 F600 X126.654 Y118.859 E134.85086
G1 F2700 E129.35086
G0 F300 X126.654 Y118.859 Z6.44
G0 F9000 X127.118 Y119.333
G0 X126.715 Y119.726
G0 X124.816 Y120.25
G0 X123.15 Y119.788
G0 X112.027 Y114.398
G0 X110.224 Y113.884
G0 X109.989 Y114.717
;TIME_ELAPSED:593.455078
;LAYER:39
;note -- min layer time used
;TYPE:SUPPORT
G1 F2700 E134.85086
G1 F600 X109.989 Y119.949 E134.99008
G1 F2700 E129.49008
G0 F9000 X109.801 Y120.587
G0 X110.402 Y120.763
G0 X122.857 Y119.661
G0 X123.321 Y119.185
G1 F2700 E134.99008
G1 F600 X123.321 Y114.596 E135.11218
G1 F2700 E129.61218
G0 F9000 X123.132 Y113.93
G0 X124.861 Y113.44
G0 X126.59 Y113.901
G0 X127.132 Y114.461
G0 X126.654 Y114.923
G1 F2700 E135.11218
G1 F600 X126.654 Y118.722 E135.21326
G1 F2700 E129.71326
G0 F300 X126.654 Y118.722 Z6.6
G0 F9000 X127.12 Y119.195
G0 X126.522 Y119.78
G0 X124.715 Y120.288
G0 X123.01 Y119.81
G0 X112.165 Y114.465
G0 X110.324 Y113.942
G0 X109.79 Y114.083
G0 X109.989 Y114.826
;TIME_ELAPSED:597.322086
;LAYER:40
;note -- min layer time used
;TYPE:SUPPORT
G1 F2700 E135.21326
G1 F600 X109.989 Y119.936 E135.34923
G1 F2700 E129.84923
G0 F9000 X109.802 Y120.574
G0 X110.619 Y120.812
G0 X112.356 Y120.346
G0 X113.585 Y119.143
G0 X113.962 Y117.795
G0 X113.322 Y117.618
G1 F2700 E135.34923
G1 F600 X113.322 Y117.317 E135.35724
G1 F2700 E129.85724
G0 F9000 X113.957 Y117.123
G0 X122.816 Y119.808
G0 X123.321 Y119.294
G1 F2700 E135.35724
G1 F600 X123.321 Y114.59 E135.48241
G1 F2700 E129.98241
G0 F9000 X123.143 Y113.951
G0 X124.701 Y113.517
G0 X126.425 Y113.979
G0 X127.13 Y114.705
G0 X126.654 Y115.168
G1 F2700 E135.48241
G1 F600 X126.654 Y118.616 E135.57415
G1 F2700 E130.07415
G0 F300 X126.654 Y118.616 Z6.76
G0 F9000 X127.12 Y119.089
G0 X126.395 Y119.797
G0 X124.513 Y120.314
G0 X122.867 Y119.857
G0 X112.303 Y114.53
G0 X110.473 Y114.011
G0 X109.79 Y114.192
G0 X109.989 Y114.934
;TIME_ELAPSED:601.881295
;LAYER:41
;note -- min layer time used
;TYPE:SUPPORT
G1 F2700 E135.57415
G1 F600 X109.989 Y119.919 E135.70679
G1 F2700 E130.20679
G0 F9000 X109.801 Y120.557
G0 X110.771 Y120.842
G0 X112.498 Y120.382
G0 X113.72 Y119.186
G0 X113.963 Y118.32
G0 X113.322 Y118.143
G1 F2700 E135.70679
G1 F600 X113.322 Y116.935 E135.73893
G1 F2700 E130.23893
G0 F9000 X113.957 Y116.741
G0 X122.673 Y114.071
G0 X123.321 Y114.583
G1 F2700 E135.73893
G1 F600 X123.321 Y119.381 E135.8666
G1 F2700 E130.3666
G0 F9000 X123.144 Y120.022
G0 X124.369 Y120.361
G0 X126.202 Y119.851
G0 X127.121 Y118.948
G0 X126.654 Y118.475
G1 F2700 E135.8666
G1 F600 X126.654 Y115.39 E135.94869
G1 F2700 E130.44869
G0 F300 X126.654 Y115.39 Z6.92
G0 F9000 X127.132 Y114.929
G0 X126.271 Y114.037
G0 X124.532 Y113.572
G0 X110.622 Y114.08
G0 X109.796 Y114.299
G0 X109.989 Y115.021
;TIME_ELAPSED:606.408391
;LAYER:42
;note -- min layer time used
;TYPE:SUPPORT
G1 F2700 E135.94869
G1 F600 X109.989 Y119.905 E136.07864
G1 F2700 E130.57864
G0 F9000 X109.801 Y120.543
G0 X111 Y120.896
G0 X112.746 Y120.45
G0 X113.781 Y119.463
G0 X113.322 Y118.984
G1 F2700 E136.07864
G1 F600 X113.322 Y116.297 E136.15014
G1 F2700 E130.65014
G0 F9000 X113.973 Y116.089
G0 X123.157 Y113.813
G0 X123.321 Y114.456
G1 F2700 E136.15014
G1 F600 X123.321 Y119.542 E136.28546
G1 F2700 E130.78546
G0 F9000 X123.152 Y120.186
G0 X124.141 Y120.444
G0 X126.051 Y119.896
G0 X127.12 Y118.847
G0 X126.654 Y118.374
G1 F2700 E136.28546
G1 F600 X126.654 Y115.631 E136.35845
G1 F2700 E130.85845
G0 F300 X126.654 Y115.631 Z7.08
G0 F9000 X127.132 Y115.17
G0 X126.1 Y114.099
G0 X124.17 Y113.556
G0 X110.715 Y114.128
G0 X109.804 Y114.384
G0 X109.989 Y115.04
;TIME_ELAPSED:611.047793
;LAYER:43
;note -- min layer time used
;TYPE:SUPPORT
G1 F2700 E136.35845
G1 F600 X109.989 Y119.895 E136.48763
G1 F2700 E130.98763
G0 F9000 X109.802 Y120.534
G0 X111.288 Y120.969
G0 X113.022 Y120.526
G0 X113.781 Y119.803
G0 X113.322 Y119.324
G1 F2700 E136.48763
G1 F600 X113.322 Y116.126 E136.57273
G1 F2700 E131.07273
G0 F9000 X113.794 Y115.658
G0 X123.158 Y113.67
G0 X123.321 Y114.313
G1 F2700 E136.57273
G1 F600 X123.321 Y119.72 E136.7166
G1 F2700 E131.2166
G0 F9000 X123.153 Y120.363
G0 X123.867 Y120.549
G0 X125.818 Y119.986
G0 X127.16 Y118.689
G0 X127.291 Y118.255
G0 X126.654 Y118.066
G1 F2700 E136.7166
G1 F600 X126.654 Y115.933 E136.77335
G1 F2700 E131.27335
G0 F300 X126.654 Y115.933 Z7.24
G0 F9000 X127.289 Y115.74
G0 X127.178 Y115.376
G0 X125.866 Y114.047
G0 X123.883 Y113.487
G0 X110.639 Y114.169
G0 X109.8 Y114.404
G0 X109.989 Y115.075
;TIME_ELAPSED:615.757335
;LAYER:44
;note -- min layer time used
;TYPE:SUPPORT
G1 F2700 E136.77335
G1 F600 X109.989 Y119.869 E136.90091
G1 F2700 E131.40091
G0 F9000 X109.798 Y120.52
G0 X111.567 Y121.04
G0 X113.296 Y120.599
G0 X113.782 Y120.135
G0 X113.322 Y119.656
G1 F2700 E136.90091
G1 F600 X113.322 Y115.913 E137.0005
G1 F2700 E131.5005
G0 F9000 X113.794 Y115.445
G0 X123.157 Y113.527
G0 X123.321 Y114.169
G1 F2700 E137.0005
G1 F600 X123.321 Y119.896 E137.15289
G1 F2700 E131.65289
G0 F9000 X123.152 Y120.539
G0 X123.593 Y120.653
G0 X125.535 Y120.093
G0 X126.81 Y118.86
G0 X127.288 Y117.315
G0 X126.654 Y117.051
G1 F2700 E137.15289
G1 F600 X126.654 Y116.95 E137.15558
G1 F2700 E131.65558
G0 F300 X126.654 Y116.95 Z7.4
G0 F9000 X127.287 Y116.748
G0 X126.799 Y115.221
G0 X125.566 Y113.975
G0 X123.591 Y113.417
G0 X111.207 Y114.111
G0 X109.8 Y114.439
G0 X109.989 Y115.128
;TIME_ELAPSED:620.406574
;LAYER:45
;note -- min layer time used
;TYPE:SUPPORT
G1 F2700 E137.15558
G1 F600 X109.989 Y119.735 E137.27816
G1 F2700 E131.77816
G0 F9000 X109.758 Y120.359
G0 X109.961 Y120.554
G0 X111.847 Y121.108
G0 X113.501 Y120.686
G0 X113.322 Y119.987
G1 F2700 E137.27816
G1 F600 X113.322 Y115.546 E137.39633
G1 F2700 E131.89633
G0 F9000 X113.794 Y115.077
G0 X123.154 Y113.386
G0 X123.321 Y114.043
G1 F2700 E137.39633
G1 F600 X123.321 Y120.069 E137.55667
G1 F2700 E132.05667
G0 F300 X123.321 Y120.069 Z7.56
G0 F9000 X123.152 Y120.716
G0 X121.693 Y120.331
G0 X113.182 Y114.463
G0 X111.465 Y114.027
G0 X109.757 Y114.505
G0 X109.989 Y115.25
;TIME_ELAPSED:624.302192
;LAYER:46
;note -- min layer time used
;TYPE:SUPPORT
G1 F2700 E137.55667
G1 F600 X109.989 Y119.559 E137.67132
G1 F2700 E132.17132
G0 F9000 X109.881 Y120.269
G0 X110.253 Y120.627
G0 X112.128 Y121.175
G0 X113.486 Y120.829
G0 X113.322 Y120.186
G1 F2700 E137.67132
G1 F600 X113.322 Y115.182 E137.80447
G1 F2700 E132.30447
G0 F9000 X113.794 Y114.713
G0 X123.015 Y113.28
G0 X123.321 Y114.055
G1 F2700 E137.80447
G1 F600 X123.321 Y120.094 E137.96515
G1 F2700 E132.46515
G0 F300 X123.321 Y120.094 Z7.72
G0 F9000 X123.506 Y120.732
G0 X123.045 Y120.863
G0 X121.426 Y120.439
G0 X113.467 Y114.387
G0 X111.754 Y113.952
G0 X109.792 Y114.51
G0 X109.404 Y114.894
G0 X109.989 Y115.481
;TIME_ELAPSED:628.283088
;LAYER:47
;note -- min layer time used
;TYPE:SUPPORT
G1 F2700 E137.96515
G1 F600 X109.989 Y119.247 E138.06536
G1 F2700 E132.56536
G0 F9000 X109.53 Y119.727
G0 X110.544 Y120.696
G0 X112.435 Y121.249
G0 X113.486 Y120.981
G0 X113.322 Y120.339
G1 F2700 E138.06536
G1 F600 X113.322 Y114.885 E138.21048
G1 F2700 E132.71048
G0 F9000 X113.823 Y114.388
G0 X122.71 Y113.206
G0 X123.501 Y113.429
G0 X123.321 Y114.068
G1 F2700 E138.21048
G1 F600 X123.321 Y120.137 E138.37197
G1 F2700 E132.87197
G0 F300 X123.321 Y120.137 Z7.88
G0 F9000 X123.505 Y120.775
G0 X122.781 Y120.981
G0 X121.172 Y120.556
G0 X113.742 Y114.309
G0 X112.059 Y113.877
G0 X110.095 Y114.433
G0 X109.417 Y115.114
G0 X109.989 Y115.681
;TIME_ELAPSED:632.330915
;LAYER:48
;note -- min layer time used
;TYPE:SUPPORT
G1 F2700 E138.37197
G1 F600 X109.989 Y118.924 E138.45826
G1 F2700 E132.95826
G0 F9000 X109.494 Y119.369
G0 X110.819 Y120.78
G0 X112.785 Y121.353
G0 X113.48 Y121.184
G0 X113.322 Y120.54
G1 F2700 E138.45826
G1 F600 X113.322 Y114.673 E138.61437
G1 F2700 E133.11437
G0 F9000 X113.478 Y114.026
G0 X119.351 Y115.274
G0 X119.988 Y115.465
G1 F2700 E138.61437
G1 F600 X119.988 Y118.402 E138.69251
G1 F2700 E133.19251
G0 F9000 X119.349 Y118.584
G0 X119.613 Y119.507
G0 X120.882 Y120.73
G0 X122.442 Y121.139
G0 X123.507 Y120.83
G0 X123.321 Y120.193
G1 F2700 E138.69251
G1 F600 X123.321 Y114.066 E138.85554
G1 F2700 E133.35554
G0 F300 X123.321 Y114.066 Z8.04
G0 F9000 X123.5 Y113.425
G0 X122.332 Y113.152
G0 X112.422 Y113.772
G0 X110.379 Y114.347
G0 X109.139 Y115.597
G0 X108.972 Y116.132
G0 X109.989 Y116.444
;TIME_ELAPSED:637.229031
;LAYER:49
;note -- min layer time used
;TYPE:SUPPORT
G1 F2700 E138.85554
G1 F600 X109.989 Y118.295 E138.90479
G1 F2700 E133.40479
G0 F9000 X109.478 Y118.885
G0 X110.012 Y119.629
G0 X111.213 Y120.754
G0 X113.102 Y121.305
G0 X113.322 Y120.565
G1 F2700 E138.90479
G1 F600 X113.322 Y114.639 E139.06247
G1 F2700 E133.56247
G0 F9000 X113.484 Y113.994
G0 X119.517 Y114.553
G0 X119.988 Y115.021
G1 F2700 E139.06247
G1 F600 X119.988 Y119.189 E139.17338
G1 F2700 E133.67338
G0 F9000 X119.516 Y119.679
G0 X120.599 Y120.723
G0 X122.144 Y121.129
G0 X123.505 Y120.741
G0 X123.321 Y120.103
G1 F2700 E139.17338
G1 F600 X123.321 Y114.226 E139.32975
G1 F2700 E133.82975
G0 F300 X123.321 Y114.226 Z8.2
G0 F9000 X123.494 Y113.584
G0 X122.498 Y113.314
G0 X122.083 Y113.259
G0 X113.481 Y113.993
G0 X113.322 Y114.624
;TIME_ELAPSED:641.918570
;LAYER:50
;note -- min layer time used
;TYPE:SUPPORT
G1 F2700 E139.32975
G1 F600 X113.322 Y120.538 E139.48711
G1 F2700 E133.98711
G0 F9000 X113.492 Y121.213
G0 X119.528 Y119.869
G0 X119.988 Y119.39
G1 F2700 E139.48711
G1 F600 X119.988 Y114.896 E139.60669
G1 F2700 E134.10669
G0 F9000 X119.518 Y114.426
G0 X120.208 Y113.74
G0 X121.699 Y113.354
G0 X121.959 Y113.384
G0 X123.513 Y113.777
G0 X123.321 Y114.484
G1 F2700 E139.60669
G1 F600 X123.321 Y119.964 E139.7525
G1 F2700 E134.2525
G0 F300 X123.321 Y119.964 Z8.36
G0 F9000 X123.301 Y120.701
G0 X121.892 Y121.106
G0 X120.411 Y120.718
G0 X119.275 Y119.624
G0 X115.66 Y115.357
G0 X114.564 Y114.252
G0 X113.481 Y113.978
G0 X113.322 Y114.617
;TIME_ELAPSED:645.840720
;LAYER:51
;note -- min layer time used
;TYPE:SUPPORT
G1 F2700 E139.7525
G1 F600 X113.322 Y120.398 E139.90632
G1 F2700 E134.40632
G0 F9000 X113.64 Y121.181
G0 X119.528 Y120.044
G0 X119.988 Y119.565
G1 F2700 E139.90632
G1 F600 X119.988 Y114.767 E140.03399
G1 F2700 E134.53399
G0 F9000 X119.519 Y114.296
G0 X119.996 Y113.826
G0 X121.419 Y113.459
G0 X121.878 Y113.512
G0 X123.22 Y113.878
G0 X123.789 Y114.442
G0 X123.321 Y114.914
G1 F2700 E140.03399
G1 F600 X123.321 Y119.654 E140.16011
G1 F2700 E134.66011
G0 F300 X123.321 Y119.654 Z8.52
G0 F9000 X123.782 Y120.131
G0 X123.386 Y120.513
G0 X122.986 Y120.696
G0 X121.644 Y121.082
G0 X120.226 Y120.713
G0 X119.144 Y119.673
G0 X115.738 Y115.312
G0 X114.765 Y114.295
G0 X113.512 Y113.979
G0 X113.322 Y114.742
;TIME_ELAPSED:649.755400
;LAYER:52
;note -- min layer time used
;TYPE:SUPPORT
G1 F2700 E140.16011
G1 F600 X113.322 Y120.259 E140.30691
G1 F2700 E134.80691
G0 F9000 X113.137 Y120.898
G0 X113.831 Y121.098
G0 X119.529 Y120.219
G0 X119.988 Y119.74
G1 F2700 E140.30691
G1 F600 X119.988 Y114.648 E140.4424
G1 F2700 E134.9424
G0 F9000 X119.521 Y114.176
G0 X119.788 Y113.915
G0 X121.142 Y113.566
G0 X121.594 Y113.616
G0 X122.869 Y113.963
G0 X123.816 Y114.898
G0 X123.321 Y115.398
G1 F2700 E140.4424
G1 F600 X123.321 Y119.339 E140.54726
G1 F2700 E135.04726
G0 F300 X123.321 Y119.339 Z8.68
G0 F9000 X123.782 Y119.816
G0 X123.065 Y120.507
G0 X122.66 Y120.692
G0 X121.392 Y121.058
G0 X120.044 Y120.712
G0 X119.013 Y119.723
G0 X115.966 Y115.333
G0 X114.968 Y114.332
G0 X113.568 Y113.984
G0 X113.105 Y114.114
G0 X113.322 Y114.879
;TIME_ELAPSED:653.633167
;LAYER:53
;note -- min layer time used
;TYPE:SUPPORT
G1 F2700 E140.54726
G1 F600 X113.322 Y120.119 E140.68668
G1 F2700 E135.18668
G0 F9000 X113.137 Y120.758
G0 X114.176 Y121.058
G0 X119.53 Y120.394
G0 X119.988 Y119.913
G1 F2700 E140.68668
G1 F600 X119.988 Y114.583 E140.82851
G1 F2700 E135.32851
G0 F9000 X119.823 Y113.94
G0 X120.86 Y113.675
G0 X121.312 Y113.725
G0 X122.514 Y114.049
G0 X123.481 Y114.998
G0 X123.837 Y116.113
G0 X123.961 Y117.901
G0 X123.321 Y118.08
G1 F2700 E140.82851
G1 F600 X123.321 Y118.512 E140.84
G1 F2700 E135.34
G0 F300 X123.321 Y118.512 Z8.84
G0 F9000 X123.955 Y118.712
G0 X123.668 Y119.614
G0 X122.743 Y120.5
G0 X122.338 Y120.686
G0 X121.14 Y121.034
G0 X119.86 Y120.707
G0 X118.877 Y119.771
G0 X116.118 Y115.316
G0 X115.167 Y114.373
G0 X113.839 Y114.044
G0 X113.105 Y114.251
G0 X113.322 Y115.017
;TIME_ELAPSED:657.276643
;LAYER:54
;note -- min layer time used
;TYPE:SUPPORT
G1 F2700 E140.84
G1 F600 X113.322 Y119.979 E140.97203
G1 F2700 E135.47203
G0 F9000 X113.136 Y120.618
G0 X114.445 Y120.998
G0 X119.531 Y120.56
G0 X119.988 Y120.077
G1 F2700 E140.97203
G1 F600 X119.988 Y114.614 E141.11739
G1 F2700 E135.61739
G0 F300 X119.988 Y114.614 Z9
G0 F9000 X119.366 Y114.088
G0 X114.11 Y114.106
G0 X113.106 Y114.389
G0 X113.322 Y115.152
;TIME_ELAPSED:659.792048
;LAYER:55
;note -- min layer time used
;TYPE:SUPPORT
G1 F2700 E141.11739
G1 F600 X113.322 Y119.63 E141.23654
G1 F2700 E135.73654
G0 F9000 X112.868 Y120.116
G0 X113.309 Y120.526
G0 X114.713 Y120.935
G0 X119.486 Y120.641
G0 X119.988 Y120.083
G1 F2700 E141.23654
G1 F600 X119.988 Y114.646 E141.38121
G1 F2700 E135.88121
G0 F300 X119.988 Y114.646 Z9.16
G0 F9000 X119.829 Y114.003
G0 X114.384 Y114.166
G0 X113.054 Y114.539
G0 X113.322 Y115.49
;TIME_ELAPSED:662.304350
;LAYER:56
;note -- min layer time used
;TYPE:SUPPORT
G1 F2700 E141.38121
G1 F600 X113.322 Y119.167 E141.47905
G1 F2700 E135.97905
G0 F9000 X112.694 Y119.381
G0 X112.803 Y119.701
G0 X113.645 Y120.483
G0 X114.976 Y120.87
G0 X119.281 Y120.596
G0 X119.988 Y120.088
G1 F2700 E141.47905
G1 F600 X119.988 Y114.679 E141.62297
G1 F2700 E136.12297
G0 F300 X119.988 Y114.679 Z9.32
G0 F9000 X119.83 Y114.035
G0 X114.651 Y114.233
G0 X113.27 Y114.618
G0 X112.564 Y115.303
G0 X113.322 Y116.082
;TIME_ELAPSED:664.783416
;LAYER:57
;note -- min layer time used
;TYPE:SUPPORT
G1 F2700 E141.62297
G1 F600 X113.322 Y117.628 E141.66411
G1 F2700 E136.16411
G0 F9000 X112.977 Y118.316
G0 X112.855 Y118.723
G0 X113.194 Y119.715
G0 X113.982 Y120.441
G0 X115.094 Y120.764
G0 X119.833 Y120.768
G0 X119.988 Y120.122
G1 F2700 E141.66411
G1 F600 X119.988 Y114.783 E141.80617
G1 F2700 E136.30617
G0 F300 X119.988 Y114.783 Z9.48
G0 F9000 X119.699 Y114.12
G0 X118.75 Y114.358
G0 X117.988 Y115.085
G0 X117.732 Y115.882
G0 X117.202 Y118.415
G0 X116.655 Y118.602
;TIME_ELAPSED:667.030813
;LAYER:58
;note -- min layer time used
;TYPE:SUPPORT
G1 F2700 E141.80617
G1 F600 X116.655 Y119.312 E141.82506
G1 F2700 E136.32506
G0 F9000 X117.296 Y119.489
G0 X118.905 Y120.509
G0 X119.816 Y120.736
G0 X119.988 Y120.035
G1 F2700 E141.82506
G1 F600 X119.988 Y114.973 E141.95975
G1 F2700 E136.45975
G0 F300 X119.988 Y114.973 Z9.64
G0 F9000 X119.88 Y114.259
G0 X119.443 Y114.252
G0 X118.545 Y114.481
G0 X117.837 Y115.149
G0 X117.664 Y115.672
G0 X117.097 Y117.94
G0 X116.655 Y118.401
;TIME_ELAPSED:668.976615
;LAYER:59
;note -- min layer time used
;TYPE:SUPPORT
G1 F2700 E141.95975
G1 F600 X116.655 Y119.629 E141.99242
G1 F2700 E136.49242
G0 F9000 X117.394 Y119.838
G0 X118.66 Y120.467
G0 X119.443 Y120.643
G0 X119.81 Y120.59
G0 X119.988 Y119.874
G1 F2700 E141.99242
G1 F600 X119.988 Y115.175 E142.11746
G1 F2700 E136.61746
G0 F300 X119.988 Y115.175 Z9.8
G0 F9000 X120.147 Y114.53
G0 X119.188 Y114.339
G0 X118.296 Y114.532
G0 X117.621 Y115.149
G0 X117.357 Y116.026
G0 X117.357 Y116.366
G0 X117.176 Y117.977
G0 X116.655 Y118.545
;TIME_ELAPSED:670.961406
;LAYER:60
;note -- min layer time used
;TYPE:SUPPORT
G1 F2700 E142.11746
G1 F600 X116.655 Y119.47 E142.14207
G1 F2700 E136.64207
G0 F9000 X117.32 Y119.655
G0 X118.632 Y120.338
G0 X119.391 Y120.562
G0 X120.163 Y120.353
G0 X119.988 Y119.713
G1 F2700 E142.14207
G1 F600 X119.988 Y118.162 E142.18334
G0 F9000 X119.988 Y117.814
G1 F600 X119.988 Y116.76 E142.21138
G1 X119.988 Y116.615
G1 X119.988 Y115.56 E142.23945
G1 F2700 E136.73945
G0 F300 X119.988 Y115.56 Z9.96
G0 F9000 X120.432 Y115.065
G0 X120.022 Y114.697
G0 X119.054 Y114.441
G0 X118.268 Y114.663
G0 X117.715 Y115.244
G0 X117.537 Y115.857
G0 X117.424 Y118.719
G0 X116.655 Y118.942
;TIME_ELAPSED:672.945153
;LAYER:61
;note -- min layer time used
;TYPE:SUPPORT
G1 F2700 E142.23945
G1 F600 X116.655 Y119.062 E142.24265
G1 F2700 E136.74265
G0 F9000 X117.296 Y119.239
G0 X118.7 Y120.218
G0 X119.392 Y120.42
G0 X120.036 Y120.243
G0 X120.458 Y119.875
G0 X119.988 Y119.405
G1 F2700 E142.24265
G1 F600 X119.988 Y118.607 E142.26388
G1 F2700 E136.76388
G0 F300 X119.988 Y118.607 Z10.12
G0 F9000 X120.247 Y117.93
G0 X120.48 Y117.194
G0 X120.48 Y115.997
G0 X120.281 Y115.311
G0 X0.00 Y0.00
;TIME_ELAPSED:675.642382
;LAYER:62
;TIME_ELAPSED:675.642382
;LAYER:63
G0 X0.00 Y0.00 Z10.28
;TIME_ELAPSED:675.719935
;LAYER:64
G0 X0.00 Y0.00 Z10.44
G0 F300 X0.00 Y0.00 Z10.6
G0 F9000 X115.77 Y116.17
;TIME_ELAPSED:677.230789
;LAYER:65
;note -- min layer time used
;TYPE:WALL-OUTER
;MESH:C??ble chageur.stl
G1 F2700 E142.26388
G1 F705.9 X115.77 Y118.83 E142.32404
G1 F2700 E136.82404
G0 F9000 X116.606 Y118.83
G0 X118.394 Y118.83
G0 X119.226 Y118.83
G1 F2700 E142.32404
G1 F705.9 X119.226 Y116.17 E142.3842
;TIME_ELAPSED:678.453672
G1 F2700 E136.8842
M140 S0
M107
G91 ;Relative positioning
G1 E-2 F2700 ;Retract a bit
G1 E-2 Z0.2 F2400 ;Retract and raise Z
G1 X5 Y5 F3000 ;Wipe out
G1 Z10 ;Raise Z more
G90 ;Absolute positioning

G1 X0 Y235 ;Present print
M106 S0 ;Turn-off fan
M104 S0 ;Turn-off hotend
M140 S0 ;Turn-off bed

M84 X Y E ;Disable all steppers but Z

M82 ;absolute extrusion mode
M104 S0
;End of Gcode
;SETTING_3 {"global_quality": "[general]\\nversion = 4\\nname = ender3v2-2026-cu
;SETTING_3 ra509\\ndefinition = creality_ender3\\n\\n[metadata]\\ntype = quality
;SETTING_3 _changes\\nquality_type = standard\\nsetting_version = 24\\n\\n[value
;SETTING_3 s]\\nadhesion_type = skirt\\ncarve_multiple_volumes = True\\nlayer_he
;SETTING_3 ight = 0.16\\nmaterial_bed_temperature = 60\\nmaterial_bed_temperatur
;SETTING_3 e_layer_0 = 65\\nsupport_enable = True\\nsupport_structure = tree\\n\
;SETTING_3 \n", "extruder_quality": ["[general]\\nversion = 4\\nname = ender3v2-
;SETTING_3 2026-cura509\\ndefinition = creality_ender3\\n\\n[metadata]\\ntype = 
;SETTING_3 quality_changes\\nquality_type = standard\\nintent_category = default
;SETTING_3 \\nposition = 0\\nsetting_version = 24\\n\\n[values]\\nbottom_layers 
;SETTING_3 = 3\\ninfill_pattern = grid\\ninfill_sparse_density = 4.0\\ninitial_l
;SETTING_3 ayer_line_width_factor = 120.0\\ninset_direction = ='outside_in' if (
;SETTING_3 True) else 'inside_out'\\nironing_only_highest_layer = True\\nmateria
;SETTING_3 l_print_temperature = 200.0\\nmeshfix_union_all = False\\nraft_margin
;SETTING_3  = 10.0\\nretraction_amount = 5.5\\nskin_monotonic = True\\nskirt_gap
;SETTING_3  = 5\\nspeed_print = 20.0\\nsupport_angle = 60\\nsupport_connect_zigz
;SETTING_3 ags = False\\nsupport_infill_rate = 12\\nsupport_pattern = lines\\nsu
;SETTING_3 pport_wall_count = 0\\ntop_layers = 3\\nwall_thickness = 1.6\\n\\n"]}
